"STATION","DATE","LATITUDE","LONGITUDE","ELEVATION","NAME","REPORT_TYPE","SOURCE","HourlyAltimeterSetting","HourlyDewPointTemperature","HourlyDryBulbTemperature","HourlyPrecipitation","HourlyPresentWeatherType","HourlyPressureChange","HourlyPressureTendency","HourlyRelativeHumidity","HourlySkyConditions","HourlySeaLevelPressure","HourlyStationPressure","HourlyVisibility","HourlyWetBulbTemperature","HourlyWindDirection","HourlyWindGustSpeed","HourlyWindSpeed","Sunrise","Sunset","DailyAverageDewPointTemperature","DailyAverageDryBulbTemperature","DailyAverageRelativeHumidity","DailyAverageSeaLevelPressure","DailyAverageStationPressure","DailyAverageWetBulbTemperature","DailyAverageWindSpeed","DailyCoolingDegreeDays","DailyDepartureFromNormalAverageTemperature","DailyHeatingDegreeDays","DailyMaximumDryBulbTemperature","DailyMinimumDryBulbTemperature","DailyPeakWindDirection","DailyPeakWindSpeed","DailyPrecipitation","DailySnowDepth","DailySnowfall","DailySustainedWindDirection","DailySustainedWindSpeed","DailyWeather","MonthlyAverageRH","MonthlyDaysWithGT001Precip","MonthlyDaysWithGT010Precip","MonthlyDaysWithGT32Temp","MonthlyDaysWithGT90Temp","MonthlyDaysWithLT0Temp","MonthlyDaysWithLT32Temp","MonthlyDepartureFromNormalAverageTemperature","MonthlyDepartureFromNormalCoolingDegreeDays","MonthlyDepartureFromNormalHeatingDegreeDays","MonthlyDepartureFromNormalMaximumTemperature","MonthlyDepartureFromNormalMinimumTemperature","MonthlyDepartureFromNormalPrecipitation","MonthlyDewpointTemperature","MonthlyGreatestPrecip","MonthlyGreatestPrecipDate","MonthlyGreatestSnowDepth","MonthlyGreatestSnowDepthDate","MonthlyGreatestSnowfall","MonthlyGreatestSnowfallDate","MonthlyMaxSeaLevelPressureValue","MonthlyMaxSeaLevelPressureValueDate","MonthlyMaxSeaLevelPressureValueTime","MonthlyMaximumTemperature","MonthlyMeanTemperature","MonthlyMinSeaLevelPressureValue","MonthlyMinSeaLevelPressureValueDate","MonthlyMinSeaLevelPressureValueTime","MonthlyMinimumTemperature","MonthlySeaLevelPressure","MonthlyStationPressure","MonthlyTotalLiquidPrecipitation","MonthlyTotalSnowfall","MonthlyWetBulb","AWND","CDSD","CLDD","DSNW","HDSD","HTDD","DYTS","DYHF","NormalsCoolingDegreeDay","NormalsHeatingDegreeDay","ShortDurationEndDate005","ShortDurationEndDate010","ShortDurationEndDate015","ShortDurationEndDate020","ShortDurationEndDate030","ShortDurationEndDate045","ShortDurationEndDate060","ShortDurationEndDate080","ShortDurationEndDate100","ShortDurationEndDate120","ShortDurationEndDate150","ShortDurationEndDate180","ShortDurationPrecipitationValue005","ShortDurationPrecipitationValue010","ShortDurationPrecipitationValue015","ShortDurationPrecipitationValue020","ShortDurationPrecipitationValue030","ShortDurationPrecipitationValue045","ShortDurationPrecipitationValue060","ShortDurationPrecipitationValue080","ShortDurationPrecipitationValue100","ShortDurationPrecipitationValue120","ShortDurationPrecipitationValue150","ShortDurationPrecipitationValue180","REM","BackupDirection","BackupDistance","BackupDistanceUnit","BackupElements","BackupElevation","BackupEquipment","BackupLatitude","BackupLongitude","BackupName","WindEquipmentChangeDate"
"01001799999","2005-01-01T06:50:00","59.98","2.25","48.0","FRIGG, NO","FM-15","4","29.68","37","45","","","","","76","VV:09 0","","","7.00","","250","","36","","","","","","","","","","","","","","","","","","","","","","","","","","","","","","","","","","","","","","","","","","","","","","","","","","","","","","","","","","","","","","","","","","","","","","","","","","","","","","","","","","","","","","","","","","","MET044ENFR 010650Z 25031KT 9999 VV/// 07/03 Q1005;","","","","","","","","","",""
"01001799999","2005-01-01T09:50:00","59.98","2.25","48.0","FRIGG, NO","FM-15","4","29.59","37","46","","","","","71","","","","6.15","","230","","32","","","","","","","","","","","","","","","","","","","","","","","","","","","","","","","","","","","","","","","","","","","","","","","","","","","","","","","","","","","","","","","","","","","","","","","","","","","","","","","","","","","","","","","","","","","MET039ENFR 010950Z 23028KT CAVOK 08/03 Q1002;","","","","","","","","","",""
"01001799999","2005-01-01T10:50:00","59.98","2.25","48.0","FRIGG, NO","FM-15","4","29.53","37","46","","","","","71","BKN:07 20","","","7.00","","230","","34","","","","","","","","","","","","","","","","","","","","","","","","","","","","","","","","","","","","","","","","","","","","","","","","","","","","","","","","","","","","","","","","","","","","","","","","","","","","","","","","","","","","","","","","","","","MET045ENFR 011050Z 23030KT 9999 BKN020 08/03 Q1000;","","","","","","","","","",""
"01001799999","2005-01-01T11:50:00","59.98","2.25","48.0","FRIGG, NO","FM-15","4","29.44","39","46","","","","","76","SCT:04 20 BKN:07","","","7.00","","230","40","32","","","","","","","","","","","","","","","","","","","","","","","","","","","","","","","","","","","","","","","","","","","","","","","","","","","","","","","","","","","","","","","","","","","","","","","","","","","","","","","","","","","","","","","","","","","MET055ENFR 011150Z 23028G35KT 9999 SCT020 BKNABV 08/04 Q0997;","","","","","","","","","",""
"01001799999","2005-01-01T13:50:00","59.98","2.25","48.0","FRIGG, NO","FM-15","4","29.32","39","45","","||RA","","","81","OVC:08 5","","","4.35","","220","46","41","","","","","","","","","","","","","","","","","","","","","","","","","","","","","","","","","","","","","","","","","","","","","","","","","","","","","","","","","","","","","","","","","","","","","","","","","","","","","","","","","","","","","","","","","","","MET051ENFR 011350Z 22036G40KT 7000 RA OVC005 07/04 Q0993;","","","","","","","","","",""
"01001799999","2005-01-01T14:50:00","59.98","2.25","48.0","FRIGG, NO","FM-15","4","29.23s","39","46","","||RA","","","76","OVC:08 5","","","4.35","","220","57","46","","","","","","","","","","","","","","","","","","","","","","","","","","","","","","","","","","","","","","","","","","","","","","","","","","","","","","","","","","","","","","","","","","","","","","","","","","","","","","","","","","","","","","","","","","","MET051ENFR 011450Z 22040G50KT 7000 RA OVC005 08/04 Q0990;","","","","","","","","","",""
"01001799999","2005-01-02T05:50:00","59.98","2.25","48.0","FRIGG, NO","FM-15","4","29.12","30","39","","","","","70","VV:09 0","","","7.00","","300","","47","","","","","","","","","","","","","","","","","","","","","","","","","","","","","","","","","","","","","","","","","","","","","","","","","","","","","","","","","","","","","","","","","","","","","","","","","","","","","","","","","","","","","","","","","","","MET045ENFR 020550Z 30041KT 9999 VV/// 04/M01 Q0986;","","","","","","","","","",""
"01001799999","2005-01-02T06:50:00","59.98","2.25","48.0","FRIGG, NO","FM-15","4","29.15","30","41","","","","","66","VV:09 0","","","7.00","","300","","38","","","","","","","","","","","","","","","","","","","","","","","","","","","","","","","","","","","","","","","","","","","","","","","","","","","","","","","","","","","","","","","","","","","","","","","","","","","","","","","","","","","","","","","","","","","MET045ENFR 020650Z 30033KT 9999 VV/// 05/M01 Q0987;","","","","","","","","","",""
"01001799999","2005-01-02T08:50:00","59.98","2.25","48.0","FRIGG, NO","FM-15","4","29.21","27","41","","","","","57","BKN:07 30","","","7.00","","290","","34","","","","","","","","","","","","","","","","","","","","","","","","","","","","","","","","","","","","","","","","","","","","","","","","","","","","","","","","","","","","","","","","","","","","","","","","","","","","","","","","","","","","","","","","","","","MET046ENFR 020850Z 29030KT 9999 BKN030 05/M03 Q0989;","","","","","","","","","",""
"01001799999","2005-01-02T10:50:00","59.98","2.25","48.0","FRIGG, NO","FM-15","4","29.26","30","37","","||SHSN SH","","","75","FEW:02 10 BKN:07 30","","","1.24","","320","","40","","","","","","","","","","","","","","","","","","","","","","","","","","","","","","","","","","","","","","","","","","","","","","","","","","","","","","","","","","","","","","","","","","","","","","","","","","","","","","","","","","","","","","","","","","","MET061ENFR 021050Z 32035KT 2000 +SHSNGR FEW010 BKN030 03/M01 Q0991;","","","","","","","","","",""
"01001799999","2005-01-02T11:50:00","59.98","2.25","48.0","FRIGG, NO","FM-15","4","29.29","30","39","","||SHSN SH","","","70","FEW:02 10 BKN:07 30","","","1.24","","310","","33","","","","","","","","","","","","","","","","","","","","","","","","","","","","","","","","","","","","","","","","","","","","","","","","","","","","","","","","","","","","","","","","","","","","","","","","","","","","","","","","","","","","","","","","","","","MET061ENFR 021150Z 31029KT 2000 +SHSNGR FEW010 BKN030 04/M01 Q0992;","","","","","","","","","",""
"01001799999","2005-01-02T14:50:00","59.98","2.25","48.0","FRIGG, NO","FM-15","4","29.35","25","39","","||SHSN SH","","","56","SCT:04 10 BKN:07 30","","","1.24","","310","57","52","","","","","","","","","","","","","","","","","","","","","","","","","","","","","","","","","","","","","","","","","","","","","","","","","","","","","","","","","","","","","","","","","","","","","","","","","","","","","","","","","","","","","","","","","","","MET064ENFR 021450Z 31045G50KT 2000 +SHSNGR SCT010 BKN030 04/M04 Q0994;","","","","","","","","","",""
"01001799999","2005-01-03T05:50:00","59.98","2.25","48.0","FRIGG, NO","FM-15","4","29.80","23","41","","","","","49","","","","6.15","","310","","44","","","","","","","","","","","","","","","","","","","","","","","","","","","","","","","","","","","","","","","","","","","","","","","","","","","","","","","","","","","","","","","","","","","","","","","","","","","","","","","","","","","","","","","","","","","MET040ENFR 030550Z 31038KT CAVOK 05/M05 Q1009;","","","","","","","","","",""
"01001799999","2005-01-03T06:50:00","59.98","2.25","48.0","FRIGG, NO","FM-15","4","29.83","27","41","","","","","57","","","","6.15","","310","","32","","","","","","","","","","","","","","","","","","","","","","","","","","","","","","","","","","","","","","","","","","","","","","","","","","","","","","","","","","","","","","","","","","","","","","","","","","","","","","","","","","","","","","","","","","","MET046METAR ENFR 030650Z 31028KT CAVOK 05/M03 Q1010;","","","","","","","","","",""
"01001799999","2005-01-03T07:50:00","59.98","2.25","48.0","FRIGG, NO","FM-15","4","29.83","30","43","","","","","61","VV:09 0","","","7.00","","300","","29","","","","","","","","","","","","","","","","","","","","","","","","","","","","","","","","","","","","","","","","","","","","","","","","","","","","","","","","","","","","","","","","","","","","","","","","","","","","","","","","","","","","","","","","","","","MET045ENFR 030750Z 30025KT 9999 VV/// 06/M01 Q1010;","","","","","","","","","",""
"01001799999","2005-01-03T09:50:00","59.98","2.25","48.0","FRIGG, NO","FM-15","4","29.80","36","43","","||RA","","","76","OVC:08 20","","","7.00","","270","","14","","","","","","","","","","","","","","","","","","","","","","","","","","","","","","","","","","","","","","","","","","","","","","","","","","","","","","","","","","","","","","","","","","","","","","","","","","","","","","","","","","","","","","","","","","","MET051ENFR 030950Z 27012KT 9999 -RABR OVC020 06/02 Q1009;","","","","","","","","","",""
"01001799999","2005-01-03T10:50:00","59.98","2.25","48.0","FRIGG, NO","FM-15","4","29.74","39","43","","||RA","","","87","OVC:08 5","","","2.49","","230","","24","","","","","","","","","","","","","","","","","","","","","","","","","","","","","","","","","","","","","","","","","","","","","","","","","","","","","","","","","","","","","","","","","","","","","","","","","","","","","","","","","","","","","","","","","","","MET050ENFR 031050Z 23021KT 4000 RABR OVC005 06/04 Q1007;","","","","","","","","","",""
"01001799999","2005-01-03T11:50:00","59.98","2.25","48.0","FRIGG, NO","FM-15","4","29.71","43","46","","||RA","","","87","OVC:08 5","","","2.49","","270","","41","","","","","","","","","","","","","","","","","","","","","","","","","","","","","","","","","","","","","","","","","","","","","","","","","","","","","","","","","","","","","","","","","","","","","","","","","","","","","","","","","","","","","","","","","","","MET056METAR ENFR 031150Z 27036KT 4000 RABR OVC005 08/06 Q1006;","","","","","","","","","",""
"01001799999","2005-01-03T12:50:00","59.98","2.25","48.0","FRIGG, NO","FM-15","4","29.68","43","46","","||RA","","","87","OVC:08 5","","","4.97","","280","48","40","","","","","","","","","","","","","","","","","","","","","","","","","","","","","","","","","","","","","","","","","","","","","","","","","","","","","","","","","","","","","","","","","","","","","","","","","","","","","","","","","","","","","","","","","","","MET053ENFR 031250Z 28035G42KT 8000 RABR OVC005 08/06 Q1005;","","","","","","","","","",""
"01001799999","2005-01-03T14:50:00","59.98","2.25","48.0","FRIGG, NO","FM-15","4","29.68","43","46","","||RA","","","87","OVC:08 5","","","4.35","","280","","37","","","","","","","","","","","","","","","","","","","","","","","","","","","","","","","","","","","","","","","","","","","","","","","","","","","","","","","","","","","","","","","","","","","","","","","","","","","","","","","","","","","","","","","","","","","MET050ENFR 031450Z 28032KT 7000 RABR OVC005 08/06 Q1005;","","","","","","","","","",""
"01001799999","2005-01-03T15:50:00","59.98","2.25","48.0","FRIGG, NO","FM-15","4","29.68","43","46","","","","","87","OVC:08 5","","","3.73","","270","","34","","","","","","","","","","","","","","","","","","","","","","","","","","","","","","","","","","","","","","","","","","","","","","","","","","","","","","","","","","","","","","","","","","","","","","","","","","","","","","","","","","","","","","","","","","","MET045ENFR 031550Z 27030KT 6000 OVC005 08/06 Q1005;","","","","","","","","","",""
"01001799999","2005-01-03T16:50:00","59.98","2.25","48.0","FRIGG, NO","FM-15","4","29.65","43","46","","","","","87","OVC:08 5","","","3.73","","260","","31","","","","","","","","","","","","","","","","","","","","","","","","","","","","","","","","","","","","","","","","","","","","","","","","","","","","","","","","","","","","","","","","","","","","","","","","","","","","","","","","","","","","","","","","","","","MET045ENFR 031650Z 26027KT 6000 OVC005 08/06 Q1004;","","","","","","","","","",""
"01001799999","2005-01-04T05:50:00","59.98","2.25","48.0","FRIGG, NO","FM-15","4","29.41","43","48","","","","","82","VV:09 0","","","7.00","","230","","33","","","","","","","","","","","","","","","","","","","","","","","","","","","","","","","","","","","","","","","","","","","","","","","","","","","","","","","","","","","","","","","","","","","","","","","","","","","","","","","","","","","","","","","","","","","MET044ENFR 040550Z 23029KT 9999 VV/// 09/06 Q0996;","","","","","","","","","",""
"01001799999","2005-01-04T07:50:00","59.98","2.25","48.0","FRIGG, NO","FM-15","4","29.32","43","48","","","","","82","VV:09 0","","","7.00","","230","49","41","","","","","","","","","","","","","","","","","","","","","","","","","","","","","","","","","","","","","","","","","","","","","","","","","","","","","","","","","","","","","","","","","","","","","","","","","","","","","","","","","","","","","","","","","","","MET047ENFR 040750Z 23036G43KT 9999 VV/// 09/06 Q0993;","","","","","","","","","",""
"01001799999","2005-01-04T09:50:00","59.98","2.25","48.0","FRIGG, NO","FM-15","4","29.29","45","48","","||RA","","","87","OVC:08 7","","","4.35","","230","49","45","","","","","","","","","","","","","","","","","","","","","","","","","","","","","","","","","","","","","","","","","","","","","","","","","","","","","","","","","","","","","","","","","","","","","","","","","","","","","","","","","","","","","","","","","","","MET052ENFR 040950Z 23039G43KT 7000 +RA OVC007 09/07 Q0992;","","","","","","","","","",""
"01001799999","2005-01-04T10:50:00","59.98","2.25","48.0","FRIGG, NO","FM-15","4","29.26","43","46","","||RA","","","87","OVC:08 7","","","4.35","","280","55","48","","","","","","","","","","","","","","","","","","","","","","","","","","","","","","","","","","","","","","","","","","","","","","","","","","","","","","","","","","","","","","","","","","","","","","","","","","","","","","","","","","","","","","","","","","","MET055ENFR 041050Z 28042G48KT 7000 +RA BR OVC007 08/06 Q0991;","","","","","","","","","",""
"01001799999","2005-01-04T11:50:00","59.98","2.25","48.0","FRIGG, NO","FM-15","4","29.32","37","46","","||SHRA","","","71","BKN:07 10","","","4.35","","310","","44","","","","","","","","","","","","","","","","","","","","","","","","","","","","","","","","","","","","","","","","","","","","","","","","","","","","","","","","","","","","","","","","","","","","","","","","","","","","","","","","","","","","","","","","","","","MET051ENFR 041150Z 31038KT 7000 +SHRA BKN010 08/03 Q0993;","","","","","","","","","",""
"01001799999","2005-01-04T12:50:00","59.98","2.25","48.0","FRIGG, NO","FM-15","4","29.35","36","45","","","","","71","","","","6.15","","300","","45","","","","","","","","","","","","","","","","","","","","","","","","","","","","","","","","","","","","","","","","","","","","","","","","","","","","","","","","","","","","","","","","","","","","","","","","","","","","","","","","","","","","","","","","","","","MET039ENFR 041250Z 30039KT CAVOK 07/02 Q0994;","","","","","","","","","",""
"01001799999","2005-01-04T13:50:00","59.98","2.25","48.0","FRIGG, NO","FM-15","4","29.44","32","45","","","","","61","","","","7.00","","290","61","51","","","","","","","","","","","","","","","","","","","","","","","","","","","","","","","","","","","","","","","","","","","","","","","","","","","","","","","","","","","","","","","","","","","","","","","","","","","","","","","","","","","","","","","","","","","MET047ENFR 041350Z 29044G53KT 9999 FE015 07/00 Q0997;","","","","","","","","","",""
"01001799999","2005-01-04T14:50:00","59.98","2.25","48.0","FRIGG, NO","FM-15","4","29.47","32","43","","||SHRA","","","66","FEW:02 15 SCT:04 39","","","7.00","","290","52","43","","","","","","","","","","","","","","","","","","","","","","","","","","","","","","","","","","","","","","","","","","","","","","","","","","","","","","","","","","","","","","","","","","","","","","","","","","","","","","","","","","","","","","","","","","","MET063ENFR 041450Z 29037G45KT 9999 SHRAVC FEW015 SCT040 06/M00 Q0998;","","","","","","","","","",""
"01001799999","2005-01-05T06:50:00","59.98","2.25","48.0","FRIGG, NO","FM-15","4","29.59","37","45","","","","","76","VV:09 0","","","7.00","","250","","43","","","","","","","","","","","","","","","","","","","","","","","","","","","","","","","","","","","","","","","","","","","","","","","","","","","","","","","","","","","","","","","","","","","","","","","","","","","","","","","","","","","","","","","","","","","MET044ENFR 050650Z 25037KT 9999 VV/// 07/03 Q1002;","","","","","","","","","",""
"01001799999","2005-01-05T07:50:00","59.98","2.25","48.0","FRIGG, NO","FM-15","4","29.59","37","45","","","","","76","VV:09 0","","","7.00","","250","","38","","","","","","","","","","","","","","","","","","","","","","","","","","","","","","","","","","","","","","","","","","","","","","","","","","","","","","","","","","","","","","","","","","","","","","","","","","","","","","","","","","","","","","","","","","","MET044ENFR 050750Z 25033KT 9999 VV/// 07/03 Q1002;","","","","","","","","","",""
"01001799999","2005-01-05T09:50:00","59.98","2.25","48.0","FRIGG, NO","FM-15","4","29.53","37","45","","","","","76","FEW:02 15","","","7.00","","230","43","37","","","","","","","","","","","","","","","","","","","","","","","","","","","","","","","","","","","","","","","","","","","","","","","","","","","","","","","","","","","","","","","","","","","","","","","","","","","","","","","","","","","","","","","","","","","MET048ENFR 050950Z 23032G37KT 9999 FEW015 07/03 Q1000;","","","","","","","","","",""
"01001799999","2005-01-05T10:50:00","59.98","2.25","48.0","FRIGG, NO","FM-15","4","29.50","39","45","","","","","81","FEW:02 15","","","7.00","","240","44","38","","","","","","","","","","","","","","","","","","","","","","","","","","","","","","","","","","","","","","","","","","","","","","","","","","","","","","","","","","","","","","","","","","","","","","","","","","","","","","","","","","","","","","","","","","","MET048ENFR 051050Z 24033G38KT 9999 FEW015 07/04 Q0999;","","","","","","","","","",""
"01001799999","2005-01-05T11:50:00","59.98","2.25","48.0","FRIGG, NO","FM-15","4","29.44","39","45","","","","","81","FEW:02 15 SCT:04","","","7.00","","220","49","43","","","","","","","","","","","","","","","","","","","","","","","","","","","","","","","","","","","","","","","","","","","","","","","","","","","","","","","","","","","","","","","","","","","","","","","","","","","","","","","","","","","","","","","","","","","MET055ENFR 051150Z 22037G43KT 9999 FEW015 SCTABV 07/04 Q0997;","","","","","","","","","",""
"01001799999","2005-01-05T12:50:00","59.98","2.25","48.0","FRIGG, NO","FM-15","4","29.41","37","46","","","","","71","BKN:07 30","","","7.00","","220","61","48","","","","","","","","","","","","","","","","","","","","","","","","","","","","","","","","","","","","","","","","","","","","","","","","","","","","","","","","","","","","","","","","","","","","","","","","","","","","","","","","","","","","","","","","","","","MET048ENFR 051250Z 22042G53KT 9999 BKN030 08/03 Q0996;","","","","","","","","","",""
"01001799999","2005-01-05T13:50:00","59.98","2.25","48.0","FRIGG, NO","FM-15","4","29.35","37","46","","","","","71","BKN:07 20","","","4.35","","220","60","55","","","","","","","","","","","","","","","","","","","","","","","","","","","","","","","","","","","","","","","","","","","","","","","","","","","","","","","","","","","","","","","","","","","","","","","","","","","","","","","","","","","","","","","","","","","MET051ENFR 051350Z 22048G52KT 7000 BR BKN020 08/03 Q0994;","","","","","","","","","",""
"01001799999","2005-01-05T15:50:00","59.98","2.25","48.0","FRIGG, NO","FM-15","4","29.26","39","46","","||SHRA","","","76","OVC:08 5","","","4.35","","230","69","55","","","","","","","","","","","","","","","","","","","","","","","","","","","","","","","","","","","","","","","","","","","","","","","","","","","","","","","","","","","","","","","","","","","","","","","","","","","","","","","","","","","","","","","","","","","MET057ENFR 051550Z 23048G60KT 7000 +SHRA BR OVC005 08/04 Q0991;","","","","","","","","","",""
"01001799999","2005-01-05T16:50:00","59.98","2.25","48.0","FRIGG, NO","FM-15","4","29.26","39","46","","||SHRA","","","76","OVC:08 5","","","4.35","","240","63","53","","","","","","","","","","","","","","","","","","","","","","","","","","","","","","","","","","","","","","","","","","","","","","","","","","","","","","","","","","","","","","","","","","","","","","","","","","","","","","","","","","","","","","","","","","","MET057ENFR 051650Z 24046G55KT 7000 +SHRA BR OVC005 08/04 Q0991;","","","","","","","","","",""
"01001799999","2005-01-05T17:50:00","59.98","2.25","48.0","FRIGG, NO","FM-15","4","29.26","37","45","","||SHRA","","","76","VV:09 0","","","4.35","","260","69","54","","","","","","","","","","","","","","","","","","","","","","","","","","","","","","","","","","","","","","","","","","","","","","","","","","","","","","","","","","","","","","","","","","","","","","","","","","","","","","","","","","","","","","","","","","","MET053ENFR 051750Z 26047G60KT 7000 +SHRA VV/// 07/03 Q0991;","","","","","","","","","",""
"01001799999","2005-01-05T19:50:00","59.98","2.25","48.0","FRIGG, NO","FM-15","4","29.32","36","43","","||SHRA","","","76","VV:09 0","","","5.59","","290","","39","","","","","","","","","","","","","","","","","","","","","","","","","","","","","","","","","","","","","","","","","","","","","","","","","","","","","","","","","","","","","","","","","","","","","","","","","","","","","","","","","","","","","","","","","","","MET049ENFR 051950Z 29034KT 9000 SHRA VV/// 06/02 Q0993;","","","","","","","","","",""
"01001799999","2005-01-06T05:50:00","59.98","2.25","48.0","FRIGG, NO","FM-15","4","29.56","28","45","","","","","53","VV:09 0","","","7.00","","290","55","48","","","","","","","","","","","","","","","","","","","","","","","","","","","","","","","","","","","","","","","","","","","","","","","","","","","","","","","","","","","","","","","","","","","","","","","","","","","","","","","","","","","","","","","","","","","MET048ENFR 060550Z 29042G48KT 9999 VV/// 07/M02 Q1001;","","","","","","","","","",""
"01001799999","2005-01-06T06:50:00","59.98","2.25","48.0","FRIGG, NO","FM-15","4","29.62","32","43","","","","","66","VV:09 0","","","7.00","","280","52","45","","","","","","","","","","","","","","","","","","","","","","","","","","","","","","","","","","","","","","","","","","","","","","","","","","","","","","","","","","","","","","","","","","","","","","","","","","","","","","","","","","","","","","","","","","","MET047ENFR 060650Z 28039G45KT 9999 VV/// 06/00 Q1003;","","","","","","","","","",""
"01001799999","2005-01-06T07:50:00","59.98","2.25","48.0","FRIGG, NO","FM-15","4","29.65","34","43","","","","","71","VV:09 0","","","7.00","","270","","37","","","","","","","","","","","","","","","","","","","","","","","","","","","","","","","","","","","","","","","","","","","","","","","","","","","","","","","","","","","","","","","","","","","","","","","","","","","","","","","","","","","","","","","","","","","MET044ENFR 060750Z 27032KT 9999 VV/// 06/01 Q1004;","","","","","","","","","",""
"01001799999","2005-01-06T08:50:00","59.98","2.25","48.0","FRIGG, NO","FM-15","4","29.65","36","45","","","","","71","FEW:02 15","","","7.00","","260","","39","","","","","","","","","","","","","","","","","","","","","","","","","","","","","","","","","","","","","","","","","","","","","","","","","","","","","","","","","","","","","","","","","","","","","","","","","","","","","","","","","","","","","","","","","","","MET045ENFR 060850Z 26034KT 9999 FEW015 07/02 Q1004;","","","","","","","","","",""
"01001799999","2005-01-06T13:50:00","59.98","2.25","48.0","FRIGG, NO","FM-15","4","29.44","37","43","","||RA","","","81","BKN:07 10","","","4.97","","220","","46","","","","","","","","","","","","","","","","","","","","","","","","","","","","","","","","","","","","","","","","","","","","","","","","","","","","","","","","","","","","","","","","","","","","","","","","","","","","","","","","","","","","","","","","","","","MET048ENFR 061350Z 22040KT 8000 RA BKN010 06/03 Q0997;","","","","","","","","","",""
"01001799999","2005-01-06T14:50:00","59.98","2.25","48.0","FRIGG, NO","FM-15","4","29.38","41","45","","||RA","","","87","BKN:07 9","","","2.49","","220","","46","","","","","","","","","","","","","","","","","","","","","","","","","","","","","","","","","","","","","","","","","","","","","","","","","","","","","","","","","","","","","","","","","","","","","","","","","","","","","","","","","","","","","","","","","","","MET048ENFR 061450Z 22040KT 4000 RA BKN009 07/05 Q0995;","","","","","","","","","",""
"01001799999","2005-01-06T15:50:00","59.98","2.25","48.0","FRIGG, NO","FM-15","4","29.35","43","46","","||RA","","","87","BKN:07 9","","","3.73","","230","","51","","","","","","","","","","","","","","","","","","","","","","","","","","","","","","","","","","","","","","","","","","","","","","","","","","","","","","","","","","","","","","","","","","","","","","","","","","","","","","","","","","","","","","","","","","","MET048ENFR 061550Z 23044KT 6000 RA BKN009 08/06 Q0994;","","","","","","","","","",""
"01001799999","2005-01-07T07:50:00","59.98","2.25","48.0","FRIGG, NO","FM-15","4","29.18","43","48","","","","","82","BKN:07 15","","","7.00","","270","","46","","","","","","","","","","","","","","","","","","","","","","","","","","","","","","","","","","","","","","","","","","","","","","","","","","","","","","","","","","","","","","","","","","","","","","","","","","","","","","","","","","","","","","","","","","","MET045ENFR 070750Z 27040KT 9999 BKN015 09/06 Q0988;","","","","","","","","","",""
"01001799999","2005-01-07T08:50:00","59.98","2.25","48.0","FRIGG, NO","FM-15","4","29.21","41","48","","","","","76","BKN:07 20","","","7.00","","270","","46","","","","","","","","","","","","","","","","","","","","","","","","","","","","","","","","","","","","","","","","","","","","","","","","","","","","","","","","","","","","","","","","","","","","","","","","","","","","","","","","","","","","","","","","","","","MET045ENFR 070850Z 27040KT 9999 BKN020 09/05 Q0989;","","","","","","","","","",""
"01001799999","2005-01-07T09:50:00","59.98","2.25","48.0","FRIGG, NO","FM-15","4","29.26","39","48","","","","","71","SCT:04 15","","","7.00","","270","","41","","","","","","","","","","","","","","","","","","","","","","","","","","","","","","","","","","","","","","","","","","","","","","","","","","","","","","","","","","","","","","","","","","","","","","","","","","","","","","","","","","","","","","","","","","","MET045ENFR 070950Z 27036KT 9999 SCT015 09/04 Q0991;","","","","","","","","","",""
"01001799999","2005-01-07T10:50:00","59.98","2.25","48.0","FRIGG, NO","FM-15","4","29.26","37","45","","||SHRA","","","76","BKN:07 12","","","7.00","","290","","39","","","","","","","","","","","","","","","","","","","","","","","","","","","","","","","","","","","","","","","","","","","","","","","","","","","","","","","","","","","","","","","","","","","","","","","","","","","","","","","","","","","","","","","","","","","MET050ENFR 071050Z 29034KT 9999 SHRA BKN012 07/03 Q0991;","","","","","","","","","",""
"01001799999","2005-01-07T11:50:00","59.98","2.25","48.0","FRIGG, NO","FM-15","4","29.29","39","46","","","","","76","BKN:07 12","","","7.00","","280","","32","","","","","","","","","","","","","","","","","","","","","","","","","","","","","","","","","","","","","","","","","","","","","","","","","","","","","","","","","","","","","","","","","","","","","","","","","","","","","","","","","","","","","","","","","","","MET045ENFR 071150Z 28028KT 9999 BKN012 08/04 Q0992;","","","","","","","","","",""
"01001799999","2005-01-07T12:50:00","59.98","2.25","48.0","FRIGG, NO","FM-15","4","29.32","37","46","","","","","71","BKN:07 12","","","7.00","","270","","32","","","","","","","","","","","","","","","","","","","","","","","","","","","","","","","","","","","","","","","","","","","","","","","","","","","","","","","","","","","","","","","","","","","","","","","","","","","","","","","","","","","","","","","","","","","MET045ENFR 071250Z 27028KT 9999 BKN012 08/03 Q0993;","","","","","","","","","",""
"01001799999","2005-01-07T14:20:00","59.98","2.25","48.0","FRIGG, NO","FM-15","4","29.29","41","46","","","","","82","BKN:07 20","","","5.59","","250","","28","","","","","","","","","","","","","","","","","","","","","","","","","","","","","","","","","","","","","","","","","","","","","","","","","","","","","","","","","","","","","","","","","","","","","","","","","","","","","","","","","","","","","","","","","","","MET045ENFR 071420Z 25024KT 9000 BKN020 08/05 Q0992;","","","","","","","","","",""
"01001799999","2005-01-07T14:50:00","59.98","2.25","48.0","FRIGG, NO","FM-15","4","29.29","41","46","","","","","82","BKN:07 20","","","5.59","","240","","28","","","","","","","","","","","","","","","","","","","","","","","","","","","","","","","","","","","","","","","","","","","","","","","","","","","","","","","","","","","","","","","","","","","","","","","","","","","","","","","","","","","","","","","","","","","MET045ENFR 071450Z 24024KT 9000 BKN020 08/05 Q0992;","","","","","","","","","",""
"01001799999","2005-01-08T07:50:00","59.98","2.25","48.0","FRIGG, NO","FM-15","4","28.64","36","41","","","","","81","BKN:07 10","","","3.73","","090","","30","","","","","","","","","","","","","","","","","","","","","","","","","","","","","","","","","","","","","","","","","","","","","","","","","","","","","","","","","","","","","","","","","","","","","","","","","","","","","","","","","","","","","","","","","","","MET048ENFR 080750Z 09026KT 6000 BKN010 RA 05/02 Q0970;","","","","","","","","","",""
"01001799999","2005-01-08T09:50:00","59.98","2.25","48.0","FRIGG, NO","FM-15","4","28.53","36","41","","||RA","","","81","BKN:07 8","","","4.35","","070","","30","","","","","","","","","","","","","","","","","","","","","","","","","","","","","","","","","","","","","","","","","","","","","","","","","","","","","","","","","","","","","","","","","","","","","","","","","","","","","","","","","","","","","","","","","","","MET048ENFR 080950Z 07026KT 7000 RA BKN008 05/02 Q0966;","","","","","","","","","",""
"01001799999","2005-01-08T10:50:00","59.98","2.25","48.0","FRIGG, NO","FM-15","4","28.53","36","39","","||RA","","","87","BKN:07 8","","","4.35","","030","","24","","","","","","","","","","","","","","","","","","","","","","","","","","","","","","","","","","","","","","","","","","","","","","","","","","","","","","","","","","","","","","","","","","","","","","","","","","","","","","","","","","","","","","","","","","","MET048ENFR 081050Z 03021KT 7000 RA BKN008 04/02 Q0966;","","","","","","","","","",""
"01001799999","2005-01-08T11:50:00","59.98","2.25","48.0","FRIGG, NO","FM-15","4","28.59","36","41","","||RA","","","81","BKN:07 8","","","4.35","","360","","55","","","","","","","","","","","","","","","","","","","","","","","","","","","","","","","","","","","","","","","","","","","","","","","","","","","","","","","","","","","","","","","","","","","","","","","","","","","","","","","","","","","","","","","","","","","MET049ENFR 081150Z 00048KT 7000 -RA BKN008 05/02 Q0968;","","","","","","","","","",""
"01001799999","2005-01-08T12:50:00","59.98","2.25","48.0","FRIGG, NO","FM-15","4","28.64","36","39","","","","","87","BKN:07 7","","","3.73","","340","","59","","","","","","","","","","","","","","","","","","","","","","","","","","","","","","","","","","","","","","","","","","","","","","","","","","","","","","","","","","","","","","","","","","","","","","","","","","","","","","","","","","","","","","","","","","","MET045ENFR 081250Z 34051KT 6000 BKN007 04/02 Q0970;","","","","","","","","","",""
"01001799999","2005-01-08T13:50:00","59.98","2.25","48.0","FRIGG, NO","FM-15","4","28.73","34","43","","","","","71","BKN:07 7","","","3.73","","330","","46","","","","","","","","","","","","","","","","","","","","","","","","","","","","","","","","","","","","","","","","","","","","","","","","","","","","","","","","","","","","","","","","","","","","","","","","","","","","","","","","","","","","","","","","","","","MET045ENFR 081350Z 33040KT 6000 BKN007 06/01 Q0973;","","","","","","","","","",""
"01001799999","2005-01-10T06:50:00","59.98","2.25","48.0","FRIGG, NO","FM-15","4","28.91","45","50","","","","","82","","","","4.35","","230","","52","","","","","","","","","","","","","","","","","","","","","","","","","","","","","","","","","","","","","","","","","","","","","","","","","","","","","","","","","","","","","","","","","","","","","","","","","","","","","","","","","","","","","","","","","","","MET045ENFR 100650Z 23045KT 7000 VVV/// 10/07 Q0979;","","","","","","","","","",""
"01001799999","2005-01-10T07:50:00","59.98","2.25","48.0","FRIGG, NO","FM-15","4","28.91","43","50","","","","","76","BKN:07 15","","","7.00","","230","","52","","","","","","","","","","","","","","","","","","","","","","","","","","","","","","","","","","","","","","","","","","","","","","","","","","","","","","","","","","","","","","","","","","","","","","","","","","","","","","","","","","","","","","","","","","","MET045ENFR 100750Z 23045KT 9999 BKN015 10/06 Q0979;","","","","","","","","","",""
"01001799999","2005-01-10T08:50:00","59.98","2.25","48.0","FRIGG, NO","FM-15","4","28.91","43","50","","","","","76","BKN:07 15","","","5.59","","230","","52","","","","","","","","","","","","","","","","","","","","","","","","","","","","","","","","","","","","","","","","","","","","","","","","","","","","","","","","","","","","","","","","","","","","","","","","","","","","","","","","","","","","","","","","","","","MET045ENFR 100850Z 23045KT 9000 BKN015 10/06 Q0979;","","","","","","","","","",""
"01001799999","2005-01-10T10:50:00","59.98","2.25","48.0","FRIGG, NO","FM-15","4","29.00","43","48","","","","","82","BKN:07 12","","","5.59","","260","","53","","","","","","","","","","","","","","","","","","","","","","","","","","","","","","","","","","","","","","","","","","","","","","","","","","","","","","","","","","","","","","","","","","","","","","","","","","","","","","","","","","","","","","","","","","","MET045ENFR 101050Z 26046KT 9000 BKN012 09/06 Q0982;","","","","","","","","","",""
"01001799999","2005-01-10T11:50:00","59.98","2.25","48.0","FRIGG, NO","FM-15","4","29.06","39","48","","","","","71","BKN:07 12","","","5.59","","270","","51","","","","","","","","","","","","","","","","","","","","","","","","","","","","","","","","","","","","","","","","","","","","","","","","","","","","","","","","","","","","","","","","","","","","","","","","","","","","","","","","","","","","","","","","","","","MET045ENFR 101150Z 27044KT 9000 BKN012 09/04 Q0984;","","","","","","","","","",""
"01001799999","2005-01-10T12:50:00","59.98","2.25","48.0","FRIGG, NO","FM-15","4","","37","48","","","","","66","FEW:02 15","","","3.11","","280","","54","","","","","","","","","","","","","","","","","","","","","","","","","","","","","","","","","","","","","","","","","","","","","","","","","","","","","","","","","","","","","","","","","","","","","","","","","","","","","","","","","","","","","","","","","","","MET044ENFR 101250Z 28047KT 5000 FEW015 09/03 Q986;","","","","","","","","","",""
"01001799999","2005-01-10T13:50:00","59.98","2.25","48.0","FRIGG, NO","FM-15","4","29.18","39","48","","","","","71","SCT:04 12","","","5.59","","280","","51","","","","","","","","","","","","","","","","","","","","","","","","","","","","","","","","","","","","","","","","","","","","","","","","","","","","","","","","","","","","","","","","","","","","","","","","","","","","","","","","","","","","","","","","","","","MET045ENFR 101350Z 28044KT 9000 SCT012 09/04 Q0988;","","","","","","","","","",""
"01001799999","2005-01-10T14:50:00","59.98","2.25","48.0","FRIGG, NO","FM-15","4","29.26","37","46","","","","","71","SCT:04 15","","","5.59","","280","","48","","","","","","","","","","","","","","","","","","","","","","","","","","","","","","","","","","","","","","","","","","","","","","","","","","","","","","","","","","","","","","","","","","","","","","","","","","","","","","","","","","","","","","","","","","","MET045ENFR 101450Z 28042KT 9000 SCT015 08/03 Q0991;","","","","","","","","","",""
"01001799999","2005-01-11T06:50:00","59.98","2.25","48.0","FRIGG, NO","FM-15","4","29.62","37","46","","","","","71","","","","7.00","","260","","33","","","","","","","","","","","","","","","","","","","","","","","","","","","","","","","","","","","","","","","","","","","","","","","","","","","","","","","","","","","","","","","","","","","","","","","","","","","","","","","","","","","","","","","","","","","MET045ENFR 110650Z 26029KT 9999 VVV/// 08/03 Q1003;","","","","","","","","","",""
"01001799999","2005-01-11T07:50:00","59.98","2.25","48.0","FRIGG, NO","FM-15","4","29.62","36","46","","","","","66","BKN:07 15","","","7.00","","270","","26","","","","","","","","","","","","","","","","","","","","","","","","","","","","","","","","","","","","","","","","","","","","","","","","","","","","","","","","","","","","","","","","","","","","","","","","","","","","","","","","","","","","","","","","","","","MET045ENFR 110750Z 27023KT 9999 BKN015 08/02 Q1003;","","","","","","","","","",""
"01001799999","2005-01-11T08:50:00","59.98","2.25","48.0","FRIGG, NO","FM-15","4","29.62","37","46","","","","","71","BKN:07 20","","","7.00","","250","","21","","","","","","","","","","","","","","","","","","","","","","","","","","","","","","","","","","","","","","","","","","","","","","","","","","","","","","","","","","","","","","","","","","","","","","","","","","","","","","","","","","","","","","","","","","","MET045ENFR 110850Z 25018KT 9999 BKN020 08/03 Q1003;","","","","","","","","","",""
"01001799999","2005-01-11T09:50:00","59.98","2.25","48.0","FRIGG, NO","FM-15","4","29.62","41","46","","","","","82","BKN:07 20","","","7.00","","220","","19","","","","","","","","","","","","","","","","","","","","","","","","","","","","","","","","","","","","","","","","","","","","","","","","","","","","","","","","","","","","","","","","","","","","","","","","","","","","","","","","","","","","","","","","","","","MET045ENFR 110950Z 22017KT 9999 BKN020 08/05 Q1003;","","","","","","","","","",""
"01001799999","2005-01-11T10:50:00","59.98","2.25","48.0","FRIGG, NO","FM-15","4","29.59","39","46","","","","","76","BKN:07 18","","","7.00","","220","","16","","","","","","","","","","","","","","","","","","","","","","","","","","","","","","","","","","","","","","","","","","","","","","","","","","","","","","","","","","","","","","","","","","","","","","","","","","","","","","","","","","","","","","","","","","","MET045ENFR 111050Z 22014KT 9999 BKN018 08/04 Q1002;","","","","","","","","","",""
"01001799999","2005-01-11T12:50:00","59.98","2.25","48.0","FRIGG, NO","FM-15","4","29.53","43","46","","","","","87","BKN:07 15","","","4.97","","190","","28","","","","","","","","","","","","","","","","","","","","","","","","","","","","","","","","","","","","","","","","","","","","","","","","","","","","","","","","","","","","","","","","","","","","","","","","","","","","","","","","","","","","","","","","","","","MET045ENFR 111250Z 19024KT 8000 BKN015 08/06 Q1000;","","","","","","","","","",""
"01001799999","2005-01-11T13:50:00","59.98","2.25","48.0","FRIGG, NO","FM-15","4","29.50","41","46","","","","","82","BKN:07 8","","","4.97","","190","","34","","","","","","","","","","","","","","","","","","","","","","","","","","","","","","","","","","","","","","","","","","","","","","","","","","","","","","","","","","","","","","","","","","","","","","","","","","","","","","","","","","","","","","","","","","","MET045ENFR 111350Z 19030KT 8000 BKN008 08/05 Q0999;","","","","","","","","","",""
"01001799999","2005-01-11T14:50:00","59.98","2.25","48.0","FRIGG, NO","FM-15","4","29.44","43","46","","","","","87","BKN:07 7","","","4.97","","200","","37","","","","","","","","","","","","","","","","","","","","","","","","","","","","","","","","","","","","","","","","","","","","","","","","","","","","","","","","","","","","","","","","","","","","","","","","","","","","","","","","","","","","","","","","","","","MET045ENFR 111450Z 20032KT 8000 BKN007 08/06 Q0997;","","","","","","","","","",""
"01001799999","2005-01-11T16:50:00","59.98","2.25","48.0","FRIGG, NO","FM-15","4","29.29","43","46","","","","","87","","","","4.35","","180","","43","","","","","","","","","","","","","","","","","","","","","","","","","","","","","","","","","","","","","","","","","","","","","","","","","","","","","","","","","","","","","","","","","","","","","","","","","","","","","","","","","","","","","","","","","","","MET045ENFR 111650Z 18037KT 7000 VVV/// 08/06 Q0992;","","","","","","","","","",""
"01001799999","2005-01-13T05:50:00","59.98","2.25","48.0","FRIGG, NO","FM-15","4","29.59","32","41","","","","","70","","","","7.00","","210","","52","","","","","","","","","","","","","","","","","","","","","","","","","","","","","","","","","","","","","","","","","","","","","","","","","","","","","","","","","","","","","","","","","","","","","","","","","","","","","","","","","","","","","","","","","","","MET046ENFR 130550Z 21045KT 9999 BKNO12 05/M00 Q1002;","","","","","","","","","",""
"01001799999","2005-01-13T06:50:00","59.98","2.25","48.0","FRIGG, NO","AUTO ","4","29.62","27","41","","","","","57","","","","7.00","","310","","52","","","","","","","","","","","","","","","","","","","","","","","","","","","","","","","","","","","","","","","","","","","","","","","","","","","","","","","","","","","","","","","","","","","","","","","","","","","","","","","","","","","","","","","","","","","MET046ENFR 130650Z 31045KT 9999 BKNO12 05/M03 Q1003;","","","","","","","","","",""
"01001799999","2005-01-13T07:50:00","59.98","2.25","48.0","FRIGG, NO","FM-15","4","29.68","28","39","","","","","65","","","","7.00","","310","","46","","","","","","","","","","","","","","","","","","","","","","","","","","","","","","","","","","","","","","","","","","","","","","","","","","","","","","","","","","","","","","","","","","","","","","","","","","","","","","","","","","","","","","","","","","","MET046ENFR 130750Z 31040KT 9999 BKNO12 04/M02 Q1005;","","","","","","","","","",""
"01001799999","2005-01-13T08:50:00","59.98","2.25","48.0","FRIGG, NO","FM-15","4","29.71","30","39","","","","","70","BKN:07 10","","","7.00","","310","","46","","","","","","","","","","","","","","","","","","","","","","","","","","","","","","","","","","","","","","","","","","","","","","","","","","","","","","","","","","","","","","","","","","","","","","","","","","","","","","","","","","","","","","","","","","","MET046ENFR 130850Z 31040KT 9999 BKN010 04/M01 Q1006;","","","","","","","","","",""
"01001799999","2005-01-13T09:50:00","59.98","2.25","48.0","FRIGG, NO","FM-15","4","29.74","30","41","","","","","66","BKN:07 10","","","7.00","","310","","46","","","","","","","","","","","","","","","","","","","","","","","","","","","","","","","","","","","","","","","","","","","","","","","","","","","","","","","","","","","","","","","","","","","","","","","","","","","","","","","","","","","","","","","","","","","MET046ENFR 130950Z 31040KT 9999 BKN010 05/M01 Q1007;","","","","","","","","","",""
"01001799999","2005-01-13T10:50:00","59.98","2.25","48.0","FRIGG, NO","FM-15","4","29.74","30","41","","","","","66","SCT:04 10","","","7.00","","310","","46","","","","","","","","","","","","","","","","","","","","","","","","","","","","","","","","","","","","","","","","","","","","","","","","","","","","","","","","","","","","","","","","","","","","","","","","","","","","","","","","","","","","","","","","","","","MET046ENFR 131050Z 31040KT 9999 SCT010 05/M01 Q1007;","","","","","","","","","",""
"01001799999","2005-01-13T11:50:00","59.98","2.25","48.0","FRIGG, NO","FM-15","4","29.80","32","39","","||SHRA","","","75","BKN:07 10","","","7.00","","320","","41","","","","","","","","","","","","","","","","","","","","","","","","","","","","","","","","","","","","","","","","","","","","","","","","","","","","","","","","","","","","","","","","","","","","","","","","","","","","","","","","","","","","","","","","","","","MET051ENFR 131150Z 32036KT 9999 SHRA BKN010 04/M00 Q1009;","","","","","","","","","",""
"01001799999","2005-01-13T12:50:00","59.98","2.25","48.0","FRIGG, NO","FM-15","4","29.80","32","41","","||SHRA","","","70","BKN:07 10","","","7.00","","310","","41","","","","","","","","","","","","","","","","","","","","","","","","","","","","","","","","","","","","","","","","","","","","","","","","","","","","","","","","","","","","","","","","","","","","","","","","","","","","","","","","","","","","","","","","","","","MET051ENFR 131250Z 31036KT 9999 SHRA BKN010 05/M00 Q1009;","","","","","","","","","",""
"01001799999","2005-01-13T13:50:00","59.98","2.25","48.0","FRIGG, NO","FM-15","4","29.83","34","41","","","","","76","BKN:07 10","","","7.00","","300","","41","","","","","","","","","","","","","","","","","","","","","","","","","","","","","","","","","","","","","","","","","","","","","","","","","","","","","","","","","","","","","","","","","","","","","","","","","","","","","","","","","","","","","","","","","","","MET045ENFR 131350Z 30036KT 9999 BKN010 05/01 Q1010;","","","","","","","","","",""
"01001799999","2005-01-13T14:50:00","59.98","2.25","48.0","FRIGG, NO","FM-15","4","29.83","37","41","","","","","87","BKN:07 10","","","7.00","","300","","32","","","","","","","","","","","","","","","","","","","","","","","","","","","","","","","","","","","","","","","","","","","","","","","","","","","","","","","","","","","","","","","","","","","","","","","","","","","","","","","","","","","","","","","","","","","MET045ENFR 131450Z 30028KT 9999 BKN010 05/03 Q1010;","","","","","","","","","",""
"01001799999","2005-01-13T15:50:00","59.98","2.25","48.0","FRIGG, NO","FM-15","4","29.85","37","43","","||SHRA","","","81","BKN:07 10","","","7.00","","340","","21","","","","","","","","","","","","","","","","","","","","","","","","","","","","","","","","","","","","","","","","","","","","","","","","","","","","","","","","","","","","","","","","","","","","","","","","","","","","","","","","","","","","","","","","","","","MET050ENFR 131550Z 34018KT 9999 SHRA BKN010 06/03 Q1011;","","","","","","","","","",""
"01001799999","2005-01-13T16:50:00","59.98","2.25","48.0","FRIGG, NO","FM-15","4","29.91","36","43","","","","","76","BKN:07 12","","","7.00","","020","","25","","","","","","","","","","","","","","","","","","","","","","","","","","","","","","","","","","","","","","","","","","","","","","","","","","","","","","","","","","","","","","","","","","","","","","","","","","","","","","","","","","","","","","","","","","","MET045ENFR 131650Z 02022KT 9999 BKN012 06/02 Q1013;","","","","","","","","","",""
"01001799999","2005-01-13T17:50:00","59.98","2.25","48.0","FRIGG, NO","FM-15","4","29.94","36","45","","","","","71","SCT:04 12","","","7.00","","020","","23","","","","","","","","","","","","","","","","","","","","","","","","","","","","","","","","","","","","","","","","","","","","","","","","","","","","","","","","","","","","","","","","","","","","","","","","","","","","","","","","","","","","","","","","","","","MET045ENFR 131750Z 02020KT 9999 SCT012 07/02 Q1014;","","","","","","","","","",""
"01001799999","2005-01-13T18:50:00","59.98","2.25","48.0","FRIGG, NO","FM-15","4","30.00","36","45","","","","","71","SCT:04 12","","","7.00","","360","","23","","","","","","","","","","","","","","","","","","","","","","","","","","","","","","","","","","","","","","","","","","","","","","","","","","","","","","","","","","","","","","","","","","","","","","","","","","","","","","","","","","","","","","","","","","","MET045ENFR 131850Z 36020KT 9999 SCT012 07/02 Q1016;","","","","","","","","","",""
"01001799999","2005-01-14T05:50:00","59.98","2.25","48.0","FRIGG, NO","FM-15","4","30.24","30","43","","","","","61","FEW:02 15","","","7.00","","050","","7","","","","","","","","","","","","","","","","","","","","","","","","","","","","","","","","","","","","","","","","","","","","","","","","","","","","","","","","","","","","","","","","","","","","","","","","","","","","","","","","","","","","","","","","","","","MET046ENFR 140550Z 05006KT 9999 FEW015 06/M01 Q1024;","","","","","","","","","",""
"01001799999","2005-01-14T06:50:00","59.98","2.25","48.0","FRIGG, NO","FM-15","4","30.24","28","43","","","","","57","","","","6.15","","080","","11","","","","","","","","","","","","","","","","","","","","","","","","","","","","","","","","","","","","","","","","","","","","","","","","","","","","","","","","","","","","","","","","","","","","","","","","","","","","","","","","","","","","","","","","","","","MET040ENFR 140650Z 08010KT CAVOK 06/M02 Q1024;","","","","","","","","","",""
"01001799999","2005-01-14T07:50:00","59.98","2.25","48.0","FRIGG, NO","FM-15","4","30.24","28","43","","","","","57","","","","6.15","","080","","11","","","","","","","","","","","","","","","","","","","","","","","","","","","","","","","","","","","","","","","","","","","","","","","","","","","","","","","","","","","","","","","","","","","","","","","","","","","","","","","","","","","","","","","","","","","MET040ENFR 140750Z 08010KT CAVOK 06/M02 Q1024;","","","","","","","","","",""
"01001799999","2005-01-14T08:50:00","59.98","2.25","48.0","FRIGG, NO","FM-15","4","30.24","28","41","","","","","61","","","","6.15","","110","","10","","","","","","","","","","","","","","","","","","","","","","","","","","","","","","","","","","","","","","","","","","","","","","","","","","","","","","","","","","","","","","","","","","","","","","","","","","","","","","","","","","","","","","","","","","","MET040ENFR 140850Z 11009KT CAVOK 05/M02 Q1024;","","","","","","","","","",""
"01001799999","2005-01-14T09:50:00","59.98","2.25","48.0","FRIGG, NO","FM-15","4","30.27","28","43","","","","","57","SCT:04 20","","","7.00","","130","","10","","","","","","","","","","","","","","","","","","","","","","","","","","","","","","","","","","","","","","","","","","","","","","","","","","","","","","","","","","","","","","","","","","","","","","","","","","","","","","","","","","","","","","","","","","","MET046ENFR 140950Z 13009KT 9999 SCT020 06/M02 Q1025;","","","","","","","","","",""
"01001799999","2005-01-14T10:50:00","59.98","2.25","48.0","FRIGG, NO","FM-15","4","30.27","30","43","","","","","61","SCT:04 20","","","7.00","","140","","14","","","","","","","","","","","","","","","","","","","","","","","","","","","","","","","","","","","","","","","","","","","","","","","","","","","","","","","","","","","","","","","","","","","","","","","","","","","","","","","","","","","","","","","","","","","MET046ENFR 141050Z 14012KT 9999 SCT020 06/M01 Q1025;","","","","","","","","","",""
"01001799999","2005-01-14T11:50:00","59.98","2.25","48.0","FRIGG, NO","FM-15","4","30.27","30","43","","","","","61","SCT:04 20","","","7.00","","160","","15","","","","","","","","","","","","","","","","","","","","","","","","","","","","","","","","","","","","","","","","","","","","","","","","","","","","","","","","","","","","","","","","","","","","","","","","","","","","","","","","","","","","","","","","","","","MET046ENFR 141150Z 16013KT 9999 SCT020 06/M01 Q1025;","","","","","","","","","",""
"01001799999","2005-01-15T06:50:00","59.98","2.25","48.0","FRIGG, NO","FM-15","4","29.97","39","46","","","","","76","","","","5.59","","200","","44","","","","","","","","","","","","","","","","","","","","","","","","","","","","","","","","","","","","","","","","","","","","","","","","","","","","","","","","","","","","","","","","","","","","","","","","","","","","","","","","","","","","","","","","","","","MET045ENFR 150650Z 20038KT 9000 VVV/// 08/04 Q1015;","","","","","","","","","",""
"01001799999","2005-01-15T07:50:00","59.98","2.25","48.0","FRIGG, NO","FM-15","4","29.97","39","45","","","","","81","BKN:07 12","","","7.00","","190","","45","","","","","","","","","","","","","","","","","","","","","","","","","","","","","","","","","","","","","","","","","","","","","","","","","","","","","","","","","","","","","","","","","","","","","","","","","","","","","","","","","","","","","","","","","","","MET045ENFR 150750Z 19039KT 9999 BKN012 07/04 Q1015;","","","","","","","","","",""
"01001799999","2005-01-15T08:50:00","59.98","2.25","48.0","FRIGG, NO","FM-15","4","29.97","39","45","","||RA","","","81","BKN:07 10","","","4.35","","200","","46","","","","","","","","","","","","","","","","","","","","","","","","","","","","","","","","","","","","","","","","","","","","","","","","","","","","","","","","","","","","","","","","","","","","","","","","","","","","","","","","","","","","","","","","","","","MET049ENFR 150850Z 20040KT 7000 -RA BKN010 07/04 Q1015;","","","","","","","","","",""
"01001799999","2005-01-15T09:50:00","59.98","2.25","48.0","FRIGG, NO","FM-15","4","29.94","41","45","","||RA","","","87","BKN:07 9","","","3.11","","190","","44","","","","","","","","","","","","","","","","","","","","","","","","","","","","","","","","","","","","","","","","","","","","","","","","","","","","","","","","","","","","","","","","","","","","","","","","","","","","","","","","","","","","","","","","","","","MET049ENFR 150950Z 19038KT 5000 -RA BKN009 07/05 Q1014;","","","","","","","","","",""
"01001799999","2005-01-15T10:50:00","59.98","2.25","48.0","FRIGG, NO","FM-15","4","29.91","41","45","","","","","87","BKN:07 8","","","3.11","","200","","51","","","","","","","","","","","","","","","","","","","","","","","","","","","","","","","","","","","","","","","","","","","","","","","","","","","","","","","","","","","","","","","","","","","","","","","","","","","","","","","","","","","","","","","","","","","MET045ENFR 151050Z 20044KT 5000 BKN008 07/05 Q1013;","","","","","","","","","",""
"01001799999","2005-01-17T06:50:00","59.98","2.25","48.0","FRIGG, NO","FM-15","4","29.32","39","45","","","","","81","SCT:04 15","","","7.00","","270","","25","","","","","","","","","","","","","","","","","","","","","","","","","","","","","","","","","","","","","","","","","","","","","","","","","","","","","","","","","","","","","","","","","","","","","","","","","","","","","","","","","","","","","","","","","","","MET045ENFR 170650Z 27022KT 9999 SCT015 07/04 Q0993;","","","","","","","","","",""
"01001799999","2005-01-17T07:50:00","59.98","2.25","48.0","FRIGG, NO","FM-15","4","29.29","37","45","","","","","76","SCT:04 18","","","7.00","","250","","22","","","","","","","","","","","","","","","","","","","","","","","","","","","","","","","","","","","","","","","","","","","","","","","","","","","","","","","","","","","","","","","","","","","","","","","","","","","","","","","","","","","","","","","","","","","MET045ENFR 170750Z 25019KT 9999 SCT018 07/03 Q0992;","","","","","","","","","",""
"01001799999","2005-01-17T08:50:00","59.98","2.25","48.0","FRIGG, NO","FM-15","4","29.29","39","45","","","","","81","SCT:04 15","","","7.00","","240","","23","","","","","","","","","","","","","","","","","","","","","","","","","","","","","","","","","","","","","","","","","","","","","","","","","","","","","","","","","","","","","","","","","","","","","","","","","","","","","","","","","","","","","","","","","","","MET045ENFR 170850Z 24020KT 9999 SCT015 07/04 Q0992;","","","","","","","","","",""
"01001799999","2005-01-17T09:50:00","59.98","2.25","48.0","FRIGG, NO","FM-15","4","29.29","34","45","","","","","66","BKN:07 12","","","7.00","","250","","39","","","","","","","","","","","","","","","","","","","","","","","","","","","","","","","","","","","","","","","","","","","","","","","","","","","","","","","","","","","","","","","","","","","","","","","","","","","","","","","","","","","","","","","","","","","MET045ENFR 170950Z 25034KT 9999 BKN012 07/01 Q0992;","","","","","","","","","",""
"01001799999","2005-01-17T10:50:00","59.98","2.25","48.0","FRIGG, NO","FM-15","4","29.23","34","45","","","","","66","SCT:04 12","","","7.00","","240","","32","","","","","","","","","","","","","","","","","","","","","","","","","","","","","","","","","","","","","","","","","","","","","","","","","","","","","","","","","","","","","","","","","","","","","","","","","","","","","","","","","","","","","","","","","","","MET045ENFR 171050Z 24028KT 9999 SCT012 07/01 Q0990;","","","","","","","","","",""
"01001799999","2005-01-17T11:50:00","59.98","2.25","48.0","FRIGG, NO","FM-15","4","29.23","36","43","","","","","76","SCT:04 12","","","7.00","","240","","28","","","","","","","","","","","","","","","","","","","","","","","","","","","","","","","","","","","","","","","","","","","","","","","","","","","","","","","","","","","","","","","","","","","","","","","","","","","","","","","","","","","","","","","","","","","MET045ENFR 171150Z 24024KT 9999 SCT012 06/02 Q0990;","","","","","","","","","",""
"01001799999","2005-01-17T12:50:00","59.98","2.25","48.0","FRIGG, NO","FM-15","4","29.21","36","43","","","","","76","SCT:04 15","","","7.00","","230","","26","","","","","","","","","","","","","","","","","","","","","","","","","","","","","","","","","","","","","","","","","","","","","","","","","","","","","","","","","","","","","","","","","","","","","","","","","","","","","","","","","","","","","","","","","","","MET045ENFR 171250Z 23023KT 9999 SCT015 06/02 Q0989;","","","","","","","","","",""
"01001799999","2005-01-17T13:50:00","59.98","2.25","48.0","FRIGG, NO","FM-15","4","29.15","36","43","","","","","76","BKN:07 12","","","7.00","","230","","25","","","","","","","","","","","","","","","","","","","","","","","","","","","","","","","","","","","","","","","","","","","","","","","","","","","","","","","","","","","","","","","","","","","","","","","","","","","","","","","","","","","","","","","","","","","MET045ENFR 171350Z 23022KT 9999 BKN012 06/02 Q0987;","","","","","","","","","",""
"01001799999","2005-01-17T14:50:00","59.98","2.25","48.0","FRIGG, NO","FM-15","4","29.12","36","45","","","","","71","BKN:07 12","","","7.00","","240","","34","","","","","","","","","","","","","","","","","","","","","","","","","","","","","","","","","","","","","","","","","","","","","","","","","","","","","","","","","","","","","","","","","","","","","","","","","","","","","","","","","","","","","","","","","","","MET045ENFR 171450Z 24030KT 9999 BKN012 07/02 Q0986;","","","","","","","","","",""
"01001799999","2005-01-17T15:50:00","59.98","2.25","48.0","FRIGG, NO","FM-15","4","29.09","34","43","","||SHRA","","","71","BKN:07 12","","","7.00","","240","","40","","","","","","","","","","","","","","","","","","","","","","","","","","","","","","","","","","","","","","","","","","","","","","","","","","","","","","","","","","","","","","","","","","","","","","","","","","","","","","","","","","","","","","","","","","","MET050ENFR 171550Z 24035KT 9999 SHRA BKN012 06/01 Q0985;","","","","","","","","","",""
"01001799999","2005-01-18T05:50:00","59.98","2.25","48.0","FRIGG, NO","FM-15","4","28.94","27","39","","","","","61","SCT:04 15","","","7.00","","240","","29","","","","","","","","","","","","","","","","","","","","","","","","","","","","","","","","","","","","","","","","","","","","","","","","","","","","","","","","","","","","","","","","","","","","","","","","","","","","","","","","","","","","","","","","","","","MET046ENFR 180550Z 24025KT 9999 SCT015 04/M03 Q0980;","","","","","","","","","",""
"01001799999","2005-01-18T06:50:00","59.98","2.25","48.0","FRIGG, NO","FM-15","4","28.94","27","41","","","","","57","SCT:04 15","","","7.00","","240","","21","","","","","","","","","","","","","","","","","","","","","","","","","","","","","","","","","","","","","","","","","","","","","","","","","","","","","","","","","","","","","","","","","","","","","","","","","","","","","","","","","","","","","","","","","","","MET046ENFR 180650Z 24018KT 9999 SCT015 05/M03 Q0980;","","","","","","","","","",""
"01001799999","2005-01-18T07:50:00","59.98","2.25","48.0","FRIGG, NO","FM-15","4","28.94","28","39","","","","","65","BKN:07 12","","","7.00","","250","","18","","","","","","","","","","","","","","","","","","","","","","","","","","","","","","","","","","","","","","","","","","","","","","","","","","","","","","","","","","","","","","","","","","","","","","","","","","","","","","","","","","","","","","","","","","","MET046ENFR 180750Z 25016KT 9999 BKN012 04/M02 Q0980;","","","","","","","","","",""
"01001799999","2005-01-18T08:50:00","59.98","2.25","48.0","FRIGG, NO","FM-15","4","28.94","27","39","","||SHRA SHSN","","","61","BKN:07 10","","","7.00","","240","","21","","","","","","","","","","","","","","","","","","","","","","","","","","","","","","","","","","","","","","","","","","","","","","","","","","","","","","","","","","","","","","","","","","","","","","","","","","","","","","","","","","","","","","","","","","","MET053ENFR 180850Z 24018KT 9999 SHSNRA BKN010 04/M03 Q0980;","","","","","","","","","",""
"01001799999","2005-01-18T09:50:00","59.98","2.25","48.0","FRIGG, NO","FM-15","4","28.94","27","39","","","","","61","BKN:07 12","","","7.00","","230","","17","","","","","","","","","","","","","","","","","","","","","","","","","","","","","","","","","","","","","","","","","","","","","","","","","","","","","","","","","","","","","","","","","","","","","","","","","","","","","","","","","","","","","","","","","","","MET046ENFR 180950Z 23015KT 9999 BKN012 04/M03 Q0980;","","","","","","","","","",""
"01001799999","2005-01-18T12:50:00","59.98","2.25","48.0","FRIGG, NO","FM-15","4","28.94","27","39","","","","","61","BKN:07 12","","","7.00","","240","","11","","","","","","","","","","","","","","","","","","","","","","","","","","","","","","","","","","","","","","","","","","","","","","","","","","","","","","","","","","","","","","","","","","","","","","","","","","","","","","","","","","","","","","","","","","","MET046ENFR 181250Z 24010KT 9999 BKN012 04/M03 Q0980;","","","","","","","","","",""
"01001799999","2005-01-18T13:50:00","59.98","2.25","48.0","FRIGG, NO","FM-15","4","28.97","30","39","","","","","70","BKN:07 12","","","7.00","","200","","16","","","","","","","","","","","","","","","","","","","","","","","","","","","","","","","","","","","","","","","","","","","","","","","","","","","","","","","","","","","","","","","","","","","","","","","","","","","","","","","","","","","","","","","","","","","MET046ENFR 181350Z 20014KT 9999 BKN012 04/M01 Q0981;","","","","","","","","","",""
"01001799999","2005-01-18T14:50:00","59.98","2.25","48.0","FRIGG, NO","FM-15","4","28.97","28","37","","","","","70","BKN:07 12","","","7.00","","220","","7","","","","","","","","","","","","","","","","","","","","","","","","","","","","","","","","","","","","","","","","","","","","","","","","","","","","","","","","","","","","","","","","","","","","","","","","","","","","","","","","","","","","","","","","","","","MET046ENFR 181450Z 22006KT 9999 BKN012 03/M02 Q0981;","","","","","","","","","",""
"01001799999","2005-01-18T15:50:00","59.98","2.25","48.0","FRIGG, NO","FM-15","4","29.00","28","39","","","","","65","BKN:07 10","","","7.00","","320","","9","","","","","","","","","","","","","","","","","","","","","","","","","","","","","","","","","","","","","","","","","","","","","","","","","","","","","","","","","","","","","","","","","","","","","","","","","","","","","","","","","","","","","","","","","","","MET046ENFR 181550Z 32008KT 9999 BKN010 04/M02 Q0982;","","","","","","","","","",""
"01001799999","2005-01-19T05:50:00","59.98","2.25","48.0","FRIGG, NO","FM-15","4","29.21","23","41","","","","","49","FEW:02 15","","","7.00","","330","","37","","","","","","","","","","","","","","","","","","","","","","","","","","","","","","","","","","","","","","","","","","","","","","","","","","","","","","","","","","","","","","","","","","","","","","","","","","","","","","","","","","","","","","","","","","","MET046ENFR 190550Z 33032KT 9999 FEW015 05/M05 Q0989;","","","","","","","","","",""
"01001799999","2005-01-19T06:50:00","59.98","2.25","48.0","FRIGG, NO","FM-15","4","29.23","28","39","","","","","65","FEW:02 15","","","7.00","","340","","34","","","","","","","","","","","","","","","","","","","","","","","","","","","","","","","","","","","","","","","","","","","","","","","","","","","","","","","","","","","","","","","","","","","","","","","","","","","","","","","","","","","","","","","","","","","MET046ENFR 190650Z 34030KT 9999 FEW015 04/M02 Q0990;","","","","","","","","","",""
"01001799999","2005-01-19T07:50:00","59.98","2.25","48.0","FRIGG, NO","FM-15","4","29.29","28","39","","","","","65","BKN:07 15","","","7.00","","340","","37","","","","","","","","","","","","","","","","","","","","","","","","","","","","","","","","","","","","","","","","","","","","","","","","","","","","","","","","","","","","","","","","","","","","","","","","","","","","","","","","","","","","","","","","","","","MET046ENFR 190750Z 34032KT 9999 BKN015 04/M02 Q0992;","","","","","","","","","",""
"01001799999","2005-01-19T08:50:00","59.98","2.25","48.0","FRIGG, NO","FM-15","4","29.32","25","41","","","","","53","BKN:07 12","","","7.00","","330","","34","","","","","","","","","","","","","","","","","","","","","","","","","","","","","","","","","","","","","","","","","","","","","","","","","","","","","","","","","","","","","","","","","","","","","","","","","","","","","","","","","","","","","","","","","","","MET046ENFR 190850Z 33030KT 9999 BKN012 05/M04 Q0993;","","","","","","","","","",""
"01001799999","2005-01-19T10:20:00","59.98","2.25","48.0","FRIGG, NO","FM-15","4","29.38","25","41","","","","","53","BKN:07 12","","","7.00","","320","","29","","","","","","","","","","","","","","","","","","","","","","","","","","","","","","","","","","","","","","","","","","","","","","","","","","","","","","","","","","","","","","","","","","","","","","","","","","","","","","","","","","","","","","","","","","","MET046ENFR 191020Z 32025KT 9999 BKN012 05/M04 Q0995;","","","","","","","","","",""
"01001799999","2005-01-19T10:50:00","59.98","2.25","48.0","FRIGG, NO","FM-15","4","29.38","30","39","","","","","70","SCT:04 12","","","7.00","","340","","29","","","","","","","","","","","","","","","","","","","","","","","","","","","","","","","","","","","","","","","","","","","","","","","","","","","","","","","","","","","","","","","","","","","","","","","","","","","","","","","","","","","","","","","","","","","MET046ENFR 191050Z 34025KT 9999 SCT012 04/M01 Q0995;","","","","","","","","","",""
"01001799999","2005-01-19T11:50:00","59.98","2.25","48.0","FRIGG, NO","FM-15","4","29.38","28","41","","","","","61","SCT:04 15","","","7.00","","320","","17","","","","","","","","","","","","","","","","","","","","","","","","","","","","","","","","","","","","","","","","","","","","","","","","","","","","","","","","","","","","","","","","","","","","","","","","","","","","","","","","","","","","","","","","","","","MET046ENFR 191150Z 32015KT 9999 SCT015 05/M02 Q0995;","","","","","","","","","",""
"01001799999","2005-01-19T12:50:00","59.98","2.25","48.0","FRIGG, NO","FM-15","4","29.38","23","41","","","","","49","SCT:04 15","","","7.00","","290","","17","","","","","","","","","","","","","","","","","","","","","","","","","","","","","","","","","","","","","","","","","","","","","","","","","","","","","","","","","","","","","","","","","","","","","","","","","","","","","","","","","","","","","","","","","","","MET046ENFR 191250Z 29015KT 9999 SCT015 05/M05 Q0995;","","","","","","","","","",""
"01001799999","2005-01-19T13:50:00","59.98","2.25","48.0","FRIGG, NO","FM-15","4","29.38","25","41","","","","","53","SCT:04 15","","","7.00","","260","","21","","","","","","","","","","","","","","","","","","","","","","","","","","","","","","","","","","","","","","","","","","","","","","","","","","","","","","","","","","","","","","","","","","","","","","","","","","","","","","","","","","","","","","","","","","","MET046ENFR 191350Z 26018KT 9999 SCT015 05/M04 Q0995;","","","","","","","","","",""
"01001799999","2005-01-19T14:50:00","59.98","2.25","48.0","FRIGG, NO","FM-15","4","29.32","28","41","","","","","61","SCT:04 15","","","7.00","","240","","21","","","","","","","","","","","","","","","","","","","","","","","","","","","","","","","","","","","","","","","","","","","","","","","","","","","","","","","","","","","","","","","","","","","","","","","","","","","","","","","","","","","","","","","","","","","MET046ENFR 191450Z 24018KT 9999 SCT015 05/M02 Q0993;","","","","","","","","","",""
"01001799999","2005-01-19T15:50:00","59.98","2.25","48.0","FRIGG, NO","FM-15","4","29.29","28","41","","","","","61","BKN:07 18","","","7.00","","220","","23","","","","","","","","","","","","","","","","","","","","","","","","","","","","","","","","","","","","","","","","","","","","","","","","","","","","","","","","","","","","","","","","","","","","","","","","","","","","","","","","","","","","","","","","","","","MET046ENFR 191550Z 22020KT 9999 BKN018 05/M02 Q0992;","","","","","","","","","",""
"01001799999","2005-01-19T16:50:00","59.98","2.25","48.0","FRIGG, NO","FM-15","4","29.21","28","41","","","","","61","BKN:07 15","","","7.00","","210","","32","","","","","","","","","","","","","","","","","","","","","","","","","","","","","","","","","","","","","","","","","","","","","","","","","","","","","","","","","","","","","","","","","","","","","","","","","","","","","","","","","","","","","","","","","","","MET046ENFR 191650Z 21028KT 9999 BKN015 05/M02 Q0989;","","","","","","","","","",""
"01001799999","2005-01-20T06:50:00","59.98","2.25","48.0","FRIGG, NO","FM-15","4","28.67","37","41","","||RA","","","87","","","","2.49","","320","72","60","","","","","","","","","","","","","","","","","","","","","","","","","","","","","","","","","","","","","","","","","","","","","","","","","","","","","","","","","","","","","","","","","","","","","","","","","","","","","","","","","","","","","","","","","","","MET054ENFR 200650Z 32052KTG63KT 4000 +RA VVV/// 05/03 Q0971;","","","","","","","","","",""
"01001799999","2005-01-20T08:50:00","59.98","2.25","48.0","FRIGG, NO","FM-15","4","28.76","36","43","","","","","76","BKN:07 10","","","7.00","","310","","69","","","","","","","","","","","","","","","","","","","","","","","","","","","","","","","","","","","","","","","","","","","","","","","","","","","","","","","","","","","","","","","","","","","","","","","","","","","","","","","","","","","","","","","","","","","MET045ENFR 200850Z 31060KT 9999 BKN010 06/02 Q0974;","","","","","","","","","",""
"01001799999","2005-01-20T09:50:00","59.98","2.25","48.0","FRIGG, NO","FM-15","4","28.82","36","43","","","","","76","BKN:07 10","","","5.59","","320","67","55","","","","","","","","","","","","","","","","","","","","","","","","","","","","","","","","","","","","","","","","","","","","","","","","","","","","","","","","","","","","","","","","","","","","","","","","","","","","","","","","","","","","","","","","","","","MET048ENFR 200950Z 32048G58KT 9000 BKN010 06/02 Q0976;","","","","","","","","","",""
"01001799999","2005-01-20T10:50:00","59.98","2.25","48.0","FRIGG, NO","FM-15","4","28.82","34","41","","","","","76","BKN:07 10","","","4.97","","320","","57","","","","","","","","","","","","","","","","","","","","","","","","","","","","","","","","","","","","","","","","","","","","","","","","","","","","","","","","","","","","","","","","","","","","","","","","","","","","","","","","","","","","","","","","","","","MET045ENFR 201050Z 32050KT 8000 BKN010 05/01 Q0976;","","","","","","","","","",""
"01001799999","2005-01-20T11:50:00","59.98","2.25","48.0","FRIGG, NO","FM-15","4","28.85","34","41","","||SHRA","","","76","BKN:07 10","","","7.00","","330","","57","","","","","","","","","","","","","","","","","","","","","","","","","","","","","","","","","","","","","","","","","","","","","","","","","","","","","","","","","","","","","","","","","","","","","","","","","","","","","","","","","","","","","","","","","","","MET050ENFR 201150Z 33050KT 9999 SHRA BKN010 05/01 Q0977;","","","","","","","","","",""
"01001799999","2005-01-20T12:50:00","59.98","2.25","48.0","FRIGG, NO","FM-15","4","28.91","34","41","","","","","76","BKN:07 10","","","5.59","","330","","55","","","","","","","","","","","","","","","","","","","","","","","","","","","","","","","","","","","","","","","","","","","","","","","","","","","","","","","","","","","","","","","","","","","","","","","","","","","","","","","","","","","","","","","","","","","MET045ENFR 201250Z 33048KT 9000 BKN010 05/01 Q0979;","","","","","","","","","",""
"01001799999","2005-01-20T13:50:00","59.98","2.25","48.0","FRIGG, NO","FM-15","4","28.94","34","39","","","","","81","BKN:07 10","","","5.59","","330","","51","","","","","","","","","","","","","","","","","","","","","","","","","","","","","","","","","","","","","","","","","","","","","","","","","","","","","","","","","","","","","","","","","","","","","","","","","","","","","","","","","","","","","","","","","","","MET045ENFR 201350Z 33044KT 9000 BKN010 04/01 Q0980;","","","","","","","","","",""
"01001799999","2005-01-20T14:50:00","59.98","2.25","48.0","FRIGG, NO","FM-15","4","28.97","30","39","","||SHRA","","","70","BKN:07 10","","","5.59","","320","","48","","","","","","","","","","","","","","","","","","","","","","","","","","","","","","","","","","","","","","","","","","","","","","","","","","","","","","","","","","","","","","","","","","","","","","","","","","","","","","","","","","","","","","","","","","","MET051ENFR 201450Z 32042KT 9000 SHRA BKN010 04/M01 Q0981;","","","","","","","","","",""
"01001799999","2005-01-21T05:50:00","59.98","2.25","48.0","FRIGG, NO","FM-15","4","29.21","28","39","","","","","65","BKN:07 12","","","7.00","","330","","51","","","","","","","","","","","","","","","","","","","","","","","","","","","","","","","","","","","","","","","","","","","","","","","","","","","","","","","","","","","","","","","","","","","","","","","","","","","","","","","","","","","","","","","","","","","MET046ENFR 210550Z 33044KT 9999 BKN012 04/M02 Q0989;","","","","","","","","","",""
"01001799999","2005-01-21T06:50:00","59.98","2.25","48.0","FRIGG, NO","FM-15","4","29.23","30","39","","","","","70","BKN:07 12","","","7.00","","320","","46","","","","","","","","","","","","","","","","","","","","","","","","","","","","","","","","","","","","","","","","","","","","","","","","","","","","","","","","","","","","","","","","","","","","","","","","","","","","","","","","","","","","","","","","","","","MET046ENFR 210650Z 32040KT 9999 BKN012 04/M01 Q0990;","","","","","","","","","",""
"01001799999","2005-01-21T07:50:00","59.98","2.25","48.0","FRIGG, NO","FM-15","4","29.23","30","39","","||SH","","","70","BKN:07 12","","","7.00","","340","","46","","","","","","","","","","","","","","","","","","","","","","","","","","","","","","","","","","","","","","","","","","","","","","","","","","","","","","","","","","","","","","","","","","","","","","","","","","","","","","","","","","","","","","","","","","","MET051ENFR 210750Z 34040KT 9999 SHGS BKN012 04/M01 Q0990;","","","","","","","","","",""
"01001799999","2005-01-21T10:20:00","59.98","2.25","48.0","FRIGG, NO","FM-15","4","29.26","30","41","","||SH","","","66","FEW:02 10 BKN:07 15","","","7.00","","330","","54","","","","","","","","","","","","","","","","","","","","","","","","","","","","","","","","","","","","","","","","","","","","","","","","","","","","","","","","","","","","","","","","","","","","","","","","","","","","","","","","","","","","","","","","","","","MET058ENFR 211020Z 33047KT 9999 SHGS FEW010 BKN015 05/M01 Q0991;","","","","","","","","","",""
"01001799999","2005-01-21T10:50:00","59.98","2.25","48.0","FRIGG, NO","FM-15","4","29.23","30","41","","||SH","","","66","FEW:02 10 BKN:07 15","","","7.00","","320","","89","","","","","","","","","","","","","","","","","","","","","","","","","","","","","","","","","","","","","","","","","","","","","","","","","","","","","","","","","","","","","","","","","","","","","","","","","","","","","","","","","","","","","","","","","","","MET058ENFR 211050Z 32077KT 9999 SHGS FEW010 BKN015 05/M01 Q0990;","","","","","","","","","",""
"01001799999","2005-01-21T12:50:00","59.98","2.25","48.0","FRIGG, NO","FM-15","4","29.38","30","39","","","","","70","FEW:02 15 BKN:07 25","","","7.00","","010","","46","","","","","","","","","","","","","","","","","","","","","","","","","","","","","","","","","","","","","","","","","","","","","","","","","","","","","","","","","","","","","","","","","","","","","","","","","","","","","","","","","","","","","","","","","","","MET053ENFR 211250Z 01040KT 9999 FEW015 BKN025 04/M01 Q0995;","","","","","","","","","",""
"01001799999","2005-01-21T13:50:00","59.98","2.25","48.0","FRIGG, NO","FM-15","4","29.44","32","39","","||SHRA","","","75","FEW:02 5 BKN:07 15","","","7.00","","020","","34","","","","","","","","","","","","","","","","","","","","","","","","","","","","","","","","","","","","","","","","","","","","","","","","","","","","","","","","","","","","","","","","","","","","","","","","","","","","","","","","","","","","","","","","","","","MET058ENFR 211350Z 02030KT 9999 SHRA FEW005 BKN015 04/M00 Q0997;","","","","","","","","","",""
"01001799999","2005-01-21T15:50:00","59.98","2.25","48.0","FRIGG, NO","FM-15","4","29.50","32","39","","||SHRA","","","75","FEW:02 5 BKN:07 15","","","7.00","","360","","48","","","","","","","","","","","","","","","","","","","","","","","","","","","","","","","","","","","","","","","","","","","","","","","","","","","","","","","","","","","","","","","","","","","","","","","","","","","","","","","","","","","","","","","","","","","MET058ENFR 211550Z 36042KT 9999 SHRA FEW005 BKN015 04/M00 Q0999;","","","","","","","","","",""
"01001799999","2005-01-21T16:50:00","59.98","2.25","48.0","FRIGG, NO","FM-15","4","29.53","32","41","","","","","70","FEW:02 8 BKN:07 15","","","7.00","","010","","46","","","","","","","","","","","","","","","","","","","","","","","","","","","","","","","","","","","","","","","","","","","","","","","","","","","","","","","","","","","","","","","","","","","","","","","","","","","","","","","","","","","","","","","","","","","MET053ENFR 211650Z 01040KT 9999 FEW008 BKN015 05/M00 Q1000;","","","","","","","","","",""
"01001799999","2005-01-22T09:50:00","59.98","2.25","48.0","FRIGG, NO","FM-15","4","29.94","28","36","","","","","75","FEW:02 10 SCT:04 34","","","7.00","","340","","36","","","","","","","","","","","","","","","","","","","","","","","","","","","","","","","","","","","","","","","","","","","","","","","","","","","","","","","","","","","","","","","","","","","","","","","","","","","","","","","","","","","","","","","","","","","MET053ENFR 220950Z 34031KT 9999 FEW010 SCT035 02/M02 Q1014;","","","","","","","","","",""
"01001799999","2005-01-24T07:20:00","59.98","2.25","48.0","FRIGG, NO","FM-15","4","30.45","28","37","","","","","70","FEW:02 10 SCT:04 30","","","7.00","","010","","31","","","","","","","","","","","","","","","","","","","","","","","","","","","","","","","","","","","","","","","","","","","","","","","","","","","","","","","","","","","","","","","","","","","","","","","","","","","","","","","","","","","","","","","","","","","MET053ENFR 240720Z 01027KT 9999 FEW010 SCT030 03/M02 Q1031;","","","","","","","","","",""
"01001799999","2005-01-24T07:50:00","59.98","2.25","48.0","FRIGG, NO","FM-15","4","30.45","25","39","","","","","56","BKN:07 49","","","7.00","","020","","29","","","","","","","","","","","","","","","","","","","","","","","","","","","","","","","","","","","","","","","","","","","","","","","","","","","","","","","","","","","","","","","","","","","","","","","","","","","","","","","","","","","","","","","","","","","MET054ENFR 240750Z 02025KT 9999 FEW0310 BKN050 04/M04 Q1031;","","","","","","","","","",""
"01001799999","2005-01-24T10:20:00","59.98","2.25","48.0","FRIGG, NO","FM-15","4","30.47","30","39","","||SHRA","","","70","FEW:02 10 SCT:04 20 BKN:07 39","","","7.00","","010","","36","","","","","","","","","","","","","","","","","","","","","","","","","","","","","","","","","","","","","","","","","","","","","","","","","","","","","","","","","","","","","","","","","","","","","","","","","","","","","","","","","","","","","","","","","","","MET066ENFR 241020Z 01031KT 9999 -SHRA FEW010 SCT020 BKN040 04/M01 Q1032;","","","","","","","","","",""
"01001799999","2005-01-24T12:50:00","59.98","2.25","48.0","FRIGG, NO","FM-15","4","30.47","28","37","","","","","70","FEW:02 20 SCT:04 34 BKN:07 44","","","7.00","","050","","21","","","","","","","","","","","","","","","","","","","","","","","","","","","","","","","","","","","","","","","","","","","","","","","","","","","","","","","","","","","","","","","","","","","","","","","","","","","","","","","","","","","","","","","","","","","MET060ENFR 241250Z 05018KT 9999 FEW020 SCT035 BKN045 03/M02 Q1032;","","","","","","","","","",""
"01001799999","2005-01-24T13:50:00","59.98","2.25","48.0","FRIGG, NO","FM-15","4","30.47","30","37","","","","","75","FEW:02 20 SCT:04 34 BKN:07 79","","","7.00","","040","","21","","","","","","","","","","","","","","","","","","","","","","","","","","","","","","","","","","","","","","","","","","","","","","","","","","","","","","","","","","","","","","","","","","","","","","","","","","","","","","","","","","","","","","","","","","","MET060ENFR 241350Z 04018KT 9999 FEW020 SCT035 BKN080 03/M01 Q1032;","","","","","","","","","",""
"01001799999","2005-01-24T15:50:00","59.98","2.25","48.0","FRIGG, NO","FM-15","4","30.47","27","37","","","","","65","FEW:02 20 SCT:04 30 BKN:07 59","","","7.00","","020","","21","","","","","","","","","","","","","","","","","","","","","","","","","","","","","","","","","","","","","","","","","","","","","","","","","","","","","","","","","","","","","","","","","","","","","","","","","","","","","","","","","","","","","","","","","","","MET060ENFR 241550Z 02018KT 9999 FEW020 SCT030 BKN060 03/M03 Q1032;","","","","","","","","","",""
"01001799999","2005-01-25T05:50:00","59.98","2.25","48.0","FRIGG, NO","FM-15","4","30.45","32","37","","","","","81","FEW:02 5 BKN:07 15","","","7.00","","170","","5","","","","","","","","","","","","","","","","","","","","","","","","","","","","","","","","","","","","","","","","","","","","","","","","","","","","","","","","","","","","","","","","","","","","","","","","","","","","","","","","","","","","","","","","","","","MET052ENFR 250550Z 17004KT 9999 FEW005 BKN015 03/00 Q1031;","","","","","","","","","",""
"01001799999","2005-01-25T07:50:00","59.98","2.25","48.0","FRIGG, NO","FM-15","4","30.42","34","39","","||DZ","","","81","SCT:04 10 OVC:08 25","","","7.00","","150","","11","","","","","","","","","","","","","","","","","","","","","","","","","","","","","","","","","","","","","","","","","","","","","","","","","","","","","","","","","","","","","","","","","","","","","","","","","","","","","","","","","","","","","","","","","","","MET055ENFR 250750Z 15010KT 9999 DZ SCT010 OVC025 04/01 Q1030;","","","","","","","","","",""
"01001799999","2005-01-25T10:20:00","59.98","2.25","48.0","FRIGG, NO","FM-15","4","30.45","34","39","","||DZ","","","81","FEW:02 5 SCT:04 10 OVC:08 34","","","7.00","","190","","11","","","","","","","","","","","","","","","","","","","","","","","","","","","","","","","","","","","","","","","","","","","","","","","","","","","","","","","","","","","","","","","","","","","","","","","","","","","","","","","","","","","","","","","","","","","MET062ENFR 251020Z 19010KT 9999 DZ FEW005 SCT010 OVC035 04/01 Q1031;","","","","","","","","","",""
"01001799999","2005-01-25T12:50:00","59.98","2.25","48.0","FRIGG, NO","FM-15","4","30.45","34","39","","||DZ","","","81","FEW:02 5 SCT:04 15 OVC:08 34","","","7.00","","200","","11","","","","","","","","","","","","","","","","","","","","","","","","","","","","","","","","","","","","","","","","","","","","","","","","","","","","","","","","","","","","","","","","","","","","","","","","","","","","","","","","","","","","","","","","","","","MET062ENFR 251250Z 20010KT 9999 DZ FEW005 SCT015 OVC035 04/01 Q1031;","","","","","","","","","",""
"01001799999","2005-01-25T13:50:00","59.98","2.25","48.0","FRIGG, NO","FM-15","4","30.45","34","39","","||DZ","","","81","FEW:02 5 SCT:04 15 OVC:08 34","","","7.00","","190","","11","","","","","","","","","","","","","","","","","","","","","","","","","","","","","","","","","","","","","","","","","","","","","","","","","","","","","","","","","","","","","","","","","","","","","","","","","","","","","","","","","","","","","","","","","","","MET062ENFR 251350Z 19010KT 9999 DZ FEW005 SCT015 OVC035 04/01 Q1031;","","","","","","","","","",""
"01001799999","2005-01-25T15:50:00","59.98","2.25","48.0","FRIGG, NO","FM-15","4","30.45","34","39","","","","","81","FEW:02 8 SCT:04 20 OVC:08 34","","","7.00","","210","","18","","","","","","","","","","","","","","","","","","","","","","","","","","","","","","","","","","","","","","","","","","","","","","","","","","","","","","","","","","","","","","","","","","","","","","","","","","","","","","","","","","","","","","","","","","","MET059ENFR 251550Z 21016KT 9999 FEW008 SCT020 OVC035 04/01 Q1031;","","","","","","","","","",""
"01001799999","2005-01-25T16:50:00","59.98","2.25","48.0","FRIGG, NO","FM-15","4","30.45","34","39","","","","","81","FEW:02 8 SCT:04 20 OVC:08 34","","","7.00","","220","","21","","","","","","","","","","","","","","","","","","","","","","","","","","","","","","","","","","","","","","","","","","","","","","","","","","","","","","","","","","","","","","","","","","","","","","","","","","","","","","","","","","","","","","","","","","","MET059ENFR 251650Z 22018KT 9999 FEW008 SCT020 OVC035 04/01 Q1031;","","","","","","","","","",""
"01001799999","2005-01-26T05:50:00","59.98","2.25","48.0","FRIGG, NO","FM-15","4","30.47","34","43","","","","","71","FEW:02 5 SCT:04 30","","","7.00","","020","","24","","","","","","","","","","","","","","","","","","","","","","","","","","","","","","","","","","","","","","","","","","","","","","","","","","","","","","","","","","","","","","","","","","","","","","","","","","","","","","","","","","","","","","","","","","","MET052ENFR 260550Z 02021KT 9999 FEW005 SCT030 06/01 Q1032;","","","","","","","","","",""
"01001799999","2005-01-26T06:50:00","59.98","2.25","48.0","FRIGG, NO","FM-15","4","","32","43","","","","","66","FEW:02 8 SCT:04 34","","","7.00","","020","","24","","","","","","","","","","","","","","","","","","","","","","","","","","","","","","","","","","","","","","","","","","","","","","","","","","","","","","","","","","","","","","","","","","","","","","","","","","","","","","","","","","","","","","","","","","","MET052ENFR 260650Z 02021KT 9999 FEW008 SCT035 06/00 Q1023;","","","","","","","","","",""
"01001799999","2005-01-26T07:50:00","59.98","2.25","48.0","FRIGG, NO","FM-15","4","30.47","34","45","","","","","66","FEW:02 8 SCT:04 34","","","7.00","","020","","24","","","","","","","","","","","","","","","","","","","","","","","","","","","","","","","","","","","","","","","","","","","","","","","","","","","","","","","","","","","","","","","","","","","","","","","","","","","","","","","","","","","","","","","","","","","MET052ENFR 260750Z 02021KT 9999 FEW008 SCT035 07/01 Q1032;","","","","","","","","","",""
"01001799999","2005-01-26T14:50:00","59.98","2.25","48.0","FRIGG, NO","FM-15","4","30.47","32","45","","","","","61","","","","6.15","","350","","24","","","","","","","","","","","","","","","","","","","","","","","","","","","","","","","","","","","","","","","","","","","","","","","","","","","","","","","","","","","","","","","","","","","","","","","","","","","","","","","","","","","","","","","","","","","MET040ENFR 261450Z 35021KT CAVOK 07/M00 Q1032;","","","","","","","","","",""
"01001799999","2005-01-26T15:50:00","59.98","2.25","48.0","FRIGG, NO","FM-15","4","30.47","32","45","","","","","61","","","","6.15","","350","","24","","","","","","","","","","","","","","","","","","","","","","","","","","","","","","","","","","","","","","","","","","","","","","","","","","","","","","","","","","","","","","","","","","","","","","","","","","","","","","","","","","","","","","","","","","","MET040ENFR 261550Z 35021KT CAVOK 07/M00 Q1032;","","","","","","","","","",""
"01001799999","2005-01-27T05:50:00","59.98","2.25","48.0","FRIGG, NO","FM-15","4","30.33","41","45","","","","","87","SCT:04 39","","","7.00","","350","","33","","","","","","","","","","","","","","","","","","","","","","","","","","","","","","","","","","","","","","","","","","","","","","","","","","","","","","","","","","","","","","","","","","","","","","","","","","","","","","","","","","","","","","","","","","","MET045ENFR 270550Z 35029KT 9999 SCT040 07/05 Q1027;","","","","","","","","","",""
"01001799999","2005-01-27T07:50:00","59.98","2.25","48.0","FRIGG, NO","FM-15","4","30.30","41","46","","","","","82","FEW:02 15 BKN:07 30","","","7.00","","350","","36","","","","","","","","","","","","","","","","","","","","","","","","","","","","","","","","","","","","","","","","","","","","","","","","","","","","","","","","","","","","","","","","","","","","","","","","","","","","","","","","","","","","","","","","","","","MET052ENFR 270750Z 35031KT 9999 FEW015 BKN030 08/05 Q1026;","","","","","","","","","",""
"01001799999","2005-01-27T10:20:00","59.98","2.25","48.0","FRIGG, NO","FM-15","4","30.27","39","46","","","","","76","FEW:02 15 BKN:07 30","","","7.00","","350","","32","","","","","","","","","","","","","","","","","","","","","","","","","","","","","","","","","","","","","","","","","","","","","","","","","","","","","","","","","","","","","","","","","","","","","","","","","","","","","","","","","","","","","","","","","","","MET052ENFR 271020Z 35028KT 9999 FEW015 BKN030 08/04 Q1025;","","","","","","","","","",""
"01001799999","2005-01-27T10:50:00","59.98","2.25","48.0","FRIGG, NO","FM-15","4","30.27","39","46","","","","","76","FEW:02 15 BKN:07 30","","","7.00","","350","","32","","","","","","","","","","","","","","","","","","","","","","","","","","","","","","","","","","","","","","","","","","","","","","","","","","","","","","","","","","","","","","","","","","","","","","","","","","","","","","","","","","","","","","","","","","","MET052ENFR 271050Z 35028KT 9999 FEW015 BKN030 08/04 Q1025;","","","","","","","","","",""
"01001799999","2005-01-27T13:50:00","59.98","2.25","48.0","FRIGG, NO","FM-15","4","30.21","39","46","","","","","76","FEW:02 15 BKN:07 30","","","7.00","","350","","37","","","","","","","","","","","","","","","","","","","","","","","","","","","","","","","","","","","","","","","","","","","","","","","","","","","","","","","","","","","","","","","","","","","","","","","","","","","","","","","","","","","","","","","","","","","MET052ENFR 271350Z 35032KT 9999 FEW015 BKN030 08/04 Q1023;","","","","","","","","","",""
"01001799999","2005-01-28T10:20:00","59.98","2.25","48.0","FRIGG, NO","FM-15","4","30.12","36","45","","","","","71","SCT:04 25 OVC:08 44","","","7.00","","020","","25","","","","","","","","","","","","","","","","","","","","","","","","","","","","","","","","","","","","","","","","","","","","","","","","","","","","","","","","","","","","","","","","","","","","","","","","","","","","","","","","","","","","","","","","","","","MET052ENFR 281020Z 02022KT 9999 SCT025 OVC045 07/02 Q1020;","","","","","","","","","",""
"01001799999","2005-01-28T11:20:00","59.98","2.25","48.0","FRIGG, NO","FM-15","4","30.12","36","45","","","","","71","SCT:04 25 OVC:08 44","","","7.00","","020","","25","","","","","","","","","","","","","","","","","","","","","","","","","","","","","","","","","","","","","","","","","","","","","","","","","","","","","","","","","","","","","","","","","","","","","","","","","","","","","","","","","","","","","","","","","","","MET052ENFR 281120Z 02022KT 9999 SCT025 OVC045 07/02 Q1020;","","","","","","","","","",""
"01001799999","2005-01-31T07:50:00","59.98","2.25","48.0","FRIGG, NO","FM-15","4","30.06","28","41","","","","","61","FEW:02 8 OVC:08 12","","","7.00","","330","","34","","","","","","","","","","","","","","","","","","","","","","","","","","","","","","","","","","","","","","","","","","","","","","","","","","","","","","","","","","","","","","","","","","","","","","","","","","","","","","","","","","","","","","","","","","","MET053ENFR 310750Z 33030KT 9999 FEW008 OVC012 05/M02 Q1018;","","","","","","","","","",""
"01001799999","2005-01-31T08:20:00","59.98","2.25","48.0","FRIGG, NO","FM-15","4","30.06","28","41","","","","","61","FEW:02 8 BKN:07 12 OVC:08 30","","","7.00","","340","","40","","","","","","","","","","","","","","","","","","","","","","","","","","","","","","","","","","","","","","","","","","","","","","","","","","","","","","","","","","","","","","","","","","","","","","","","","","","","","","","","","","","","","","","","","","","MET060ENFR 310820Z 34035KT 9999 FEW008 BKN012 OVC030 05/M02 Q1018;","","","","","","","","","",""
"01001799999","2005-01-31T09:50:00","59.98","2.25","48.0","FRIGG, NO","FM-15","4","30.06","30","41","","","","","66","FEW:02 5 BKN:07 12 OVC:08 39","","","7.00","","340","","37","","","","","","","","","","","","","","","","","","","","","","","","","","","","","","","","","","","","","","","","","","","","","","","","","","","","","","","","","","","","","","","","","","","","","","","","","","","","","","","","","","","","","","","","","","","MET060ENFR 310950Z 34032KT 9999 FEW005 BKN012 OVC040 05/M01 Q1018;","","","","","","","","","",""
"01001799999","2005-01-31T11:20:00","59.98","2.25","48.0","FRIGG, NO","FM-15","4","30.06","28","43","","","","","57","FEW:02 5 BKN:07 12 OVC:08 39","","","7.00","","340","","37","","","","","","","","","","","","","","","","","","","","","","","","","","","","","","","","","","","","","","","","","","","","","","","","","","","","","","","","","","","","","","","","","","","","","","","","","","","","","","","","","","","","","","","","","","","MET060ENFR 311120Z 34032KT 9999 FEW005 BKN012 OVC040 06/M02 Q1018;","","","","","","","","","",""
"01001799999","2005-02-01T06:50:00","59.98","2.25","48.0","FRIGG, NO","FM-15","4","30.30","28","41","","","","","61","FEW:02 15 SCT:04 39","","","7.00","","350","","34","","","","","","","","","","","","","","","","","","","","","","","","","","","","","","","","","","","","","","","","","","","","","","","","","","","","","","","","","","","","","","","","","","","","","","","","","","","","","","","","","","","","","","","","","","","MET059METAR ENFR 010650Z 35030KT 9999 FEW015 SCT040 05/M02 Q1026;","","","","","","","","","",""
"01001799999","2005-02-01T07:50:00","59.98","2.25","48.0","FRIGG, NO","FM-15","4","30.30","28","41","","","","","61","FEW:02 10 SCT:04 39","","","7.00","","350","","34","","","","","","","","","","","","","","","","","","","","","","","","","","","","","","","","","","","","","","","","","","","","","","","","","","","","","","","","","","","","","","","","","","","","","","","","","","","","","","","","","","","","","","","","","","","MET053ENFR 010750Z 35030KT 9999 FEW010 SCT040 05/M02 Q1026;","","","","","","","","","",""
"01001799999","2005-02-01T10:20:00","59.98","2.25","48.0","FRIGG, NO","FM-15","4","30.33","30","41","","","","","66","FEW:02 10 SCT:04 39","","","7.00","","340","","34","","","","","","","","","","","","","","","","","","","","","","","","","","","","","","","","","","","","","","","","","","","","","","","","","","","","","","","","","","","","","","","","","","","","","","","","","","","","","","","","","","","","","","","","","","","MET053ENFR 011020Z 34030KT 9999 FEW010 SCT040 05/M01 Q1027;","","","","","","","","","",""
"01001799999","2005-02-01T10:50:00","59.98","2.25","48.0","FRIGG, NO","FM-15","4","30.33","30","43","","","","","61","FEW:02 20 SCT:04 39","","","7.00","","340","","23","","","","","","","","","","","","","","","","","","","","","","","","","","","","","","","","","","","","","","","","","","","","","","","","","","","","","","","","","","","","","","","","","","","","","","","","","","","","","","","","","","","","","","","","","","","MET053ENFR 011050Z 34020KT 9999 FEW020 SCT040 06/M01 Q1027;","","","","","","","","","",""
"01001799999","2005-02-02T06:50:00","59.98","2.25","48.0","FRIGG, NO","FM-15","4","30.21","39","43","","","","","87","FEW:02 10 BKN:07 20","","","7.00","","330","","40","","","","","","","","","","","","","","","","","","","","","","","","","","","","","","","","","","","","","","","","","","","","","","","","","","","","","","","","","","","","","","","","","","","","","","","","","","","","","","","","","","","","","","","","","","","MET052ENFR 020650Z 33035KT 9999 FEW010 BKN020 06/04 Q1023;","","","","","","","","","",""
"01001799999","2005-02-02T07:50:00","59.98","2.25","48.0","FRIGG, NO","FM-15","4","30.24","39","43","","","","","87","FEW:02 10 OVC:08 20","","","7.00","","","","","","","","","","","","","","","","","","","","","","","","","","","","","","","","","","","","","","","","","","","","","","","","","","","","","","","","","","","","","","","","","","","","","","","","","","","","","","","","","","","","","","","","","","","","","","","MET054ENFR 020750Z 2033035KT 9999 FEW010 OVC020 06/04 Q1024;","","","","","","","","","",""
"01001799999","2005-02-02T09:50:00","59.98","2.25","48.0","FRIGG, NO","FM-15","4","30.27","39","45","","","","","81","FEW:02 10 BKN:07 20","","","7.00","","330","","29","","","","","","","","","","","","","","","","","","","","","","","","","","","","","","","","","","","","","","","","","","","","","","","","","","","","","","","","","","","","","","","","","","","","","","","","","","","","","","","","","","","","","","","","","","","MET052ENFR 020950Z 33025KT 9999 FEW010 BKN020 07/04 Q1025;","","","","","","","","","",""
"01001799999","2005-02-02T14:20:00","59.98","2.25","48.0","FRIGG, NO","FM-15","4","30.30","39","46","","","","","76","","","","6.15","","320","","21","","","","","","","","","","","","","","","","","","","","","","","","","","","","","","","","","","","","","","","","","","","","","","","","","","","","","","","","","","","","","","","","","","","","","","","","","","","","","","","","","","","","","","","","","","","MET039ENFR 021420Z 32018KT CAVOK 08/04 Q1026;","","","","","","","","","",""
"01001799999","2005-02-02T14:50:00","59.98","2.25","48.0","FRIGG, NO","FM-15","4","30.30","39","46","","","","","76","","","","6.15","","320","","21","","","","","","","","","","","","","","","","","","","","","","","","","","","","","","","","","","","","","","","","","","","","","","","","","","","","","","","","","","","","","","","","","","","","","","","","","","","","","","","","","","","","","","","","","","","MET039ENFR 021450Z 32018KT CAVOK 08/04 Q1026;","","","","","","","","","",""
"01001799999","2005-02-03T06:50:00","59.98","2.25","48.0","FRIGG, NO","FM-15","4","30.30","41","45","","","","","87","FEW:02 30 SCT:04 148","","","7.00","","290","","26","","","","","","","","","","","","","","","","","","","","","","","","","","","","","","","","","","","","","","","","","","","","","","","","","","","","","","","","","","","","","","","","","","","","","","","","","","","","","","","","","","","","","","","","","","","MET052ENFR 030650Z 29023KT 9999 FEW030 SCT150 07/05 Q1026;","","","","","","","","","",""
"01001799999","2005-02-03T07:50:00","59.98","2.25","48.0","FRIGG, NO","FM-15","4","30.33","41","45","","","","","87","FEW:02 30 SCT:04 148","","","7.00","","","","","","","","","","","","","","","","","","","","","","","","","","","","","","","","","","","","","","","","","","","","","","","","","","","","","","","","","","","","","","","","","","","","","","","","","","","","","","","","","","","","","","","","","","","","","","","MET057METAR ENFR 030750Z 2802KT 9999 FEW030 SCT150 07/05 Q1027;","","","","","","","","","",""
"01001799999","2005-02-03T09:50:00","59.98","2.25","48.0","FRIGG, NO","FM-15","4","30.33","41","46","","","","","82","FEW:02 10 FEW:02 25 BKN:07","","","7.00","","270","","17","","","","","","","","","","","","","","","","","","","","","","","","","","","","","","","","","","","","","","","","","","","","","","","","","","","","","","","","","","","","","","","","","","","","","","","","","","","","","","","","","","","","","","","","","","","MET059ENFR 030950Z 27015KT 9999 FEW010 FEW025 BKNABV 08/05 Q1027;","","","","","","","","","",""
"01001799999","2005-02-03T11:50:00","59.98","2.25","48.0","FRIGG, NO","FM-15","4","30.33","41","46","","","","","82","FEW:02 10 BKN:07","","","7.00","","250","","21","","","","","","","","","","","","","","","","","","","","","","","","","","","","","","","","","","","","","","","","","","","","","","","","","","","","","","","","","","","","","","","","","","","","","","","","","","","","","","","","","","","","","","","","","","","MET052ENFR 031150Z 25018KT 9999 FEW010 BKNABV 08/05 Q1027;","","","","","","","","","",""
"01001799999","2005-02-03T12:50:00","59.98","2.25","48.0","FRIGG, NO","FM-15","4","30.30","41","45","","","","","87","SCT:04 10 BKN:07","","","7.00","","260","","23","","","","","","","","","","","","","","","","","","","","","","","","","","","","","","","","","","","","","","","","","","","","","","","","","","","","","","","","","","","","","","","","","","","","","","","","","","","","","","","","","","","","","","","","","","","MET052ENFR 031250Z 26020KT 9999 SCT010 BKNABV 07/05 Q1026;","","","","","","","","","",""
"01001799999","2005-02-03T13:50:00","59.98","2.25","48.0","FRIGG, NO","FM-15","4","30.27","41","45","","","","","87","SCT:04 10 BKN:07","","","7.00","","240","","19","","","","","","","","","","","","","","","","","","","","","","","","","","","","","","","","","","","","","","","","","","","","","","","","","","","","","","","","","","","","","","","","","","","","","","","","","","","","","","","","","","","","","","","","","","","MET052ENFR 031350Z 24017KT 9999 SCT010 BKNABV 07/05 Q1025;","","","","","","","","","",""
"01001799999","2005-02-04T05:50:00","59.98","2.25","48.0","FRIGG, NO","FM-15","4","30.06","39","46","","","","","76","VV:09 0","","","7.00","","250","","25","","","","","","","","","","","","","","","","","","","","","","","","","","","","","","","","","","","","","","","","","","","","","","","","","","","","","","","","","","","","","","","","","","","","","","","","","","","","","","","","","","","","","","","","","","","MET044ENFR 040550Z 25022KT 9999 VV/// 08/04 Q1018;","","","","","","","","","",""
"01001799999","2005-02-04T07:50:00","59.98","2.25","48.0","FRIGG, NO","FM-15","4","30.06","37","45","","||SHRA","","","76","SCT:04 7 BKN:07 39","","","2.49","","250","","30","","","","","","","","","","","","","","","","","","","","","","","","","","","","","","","","","","","","","","","","","","","","","","","","","","","","","","","","","","","","","","","","","","","","","","","","","","","","","","","","","","","","","","","","","","","MET057ENFR 040750Z 25026KT 4000 SHRA SCT007 BKN040 07/03 Q1018;","","","","","","","","","",""
"01001799999","2005-02-04T09:50:00","59.98","2.25","48.0","FRIGG, NO","FM-15","4","30.06","39","46","","||SHRA","","","76","SCT:04 7 BKN:07 39","","","5.59","","260","","31","","","","","","","","","","","","","","","","","","","","","","","","","","","","","","","","","","","","","","","","","","","","","","","","","","","","","","","","","","","","","","","","","","","","","","","","","","","","","","","","","","","","","","","","","","","MET059ENFR 040950Z 26027KT 9000 SHRAVC SCT007 BKN040 08/04 Q1018;","","","","","","","","","",""
"01001799999","2005-02-04T10:50:00","59.98","2.25","48.0","FRIGG, NO","FM-15","4","30.06","39","46","","||SHRA","","","76","SCT:04 7 BKN:07 39","","","5.59","","240","","19","","","","","","","","","","","","","","","","","","","","","","","","","","","","","","","","","","","","","","","","","","","","","","","","","","","","","","","","","","","","","","","","","","","","","","","","","","","","","","","","","","","","","","","","","","","MET059ENFR 041050Z 24017KT 9000 SHRAVC SCT007 BKN040 08/04 Q1018;","","","","","","","","","",""
"01001799999","2005-02-04T13:50:00","59.98","2.25","48.0","FRIGG, NO","FM-15","4","30.00","39","45","","","","","81","OVC:08 7","","","5.59","","220","","21","","","","","","","","","","","","","","","","","","","","","","","","","","","","","","","","","","","","","","","","","","","","","","","","","","","","","","","","","","","","","","","","","","","","","","","","","","","","","","","","","","","","","","","","","","","MET048ENFR 041350Z 22018KT 9000 BR OVC007 07/04 Q1016;","","","","","","","","","",""
"01001799999","2005-02-04T16:50:00","59.98","2.25","48.0","FRIGG, NO","FM-15","4","29.91","41","45","","||RA","","","87","OVC:08 7","","","5.59","","220","","24","","","","","","","","","","","","","","","","","","","","","","","","","","","","","","","","","","","","","","","","","","","","","","","","","","","","","","","","","","","","","","","","","","","","","","","","","","","","","","","","","","","","","","","","","","","MET058METAR ENFR 041650Z 22021KT 9000 -RA BR OVC007 07/05 Q1013;","","","","","","","","","",""
"01001799999","2005-02-05T05:50:00","59.98","2.25","48.0","FRIGG, NO","FM-15","4","29.83","41","45","","||RA","","","87","VV:09 0","","","3.11","","220","","36","","","","","","","","","","","","","","","","","","","","","","","","","","","","","","","","","","","","","","","","","","","","","","","","","","","","","","","","","","","","","","","","","","","","","","","","","","","","","","","","","","","","","","","","","","","MET048ENFR 050550Z 22031KT 5000 -RA VV/// 07/05 Q1010;","","","","","","","","","",""
"01001799999","2005-02-06T07:50:00","59.98","2.25","48.0","FRIGG, NO","FM-15","4","30.15","36","41","","","","","81","BKN:07 20","","","7.00","","150","","34","","","","","","","","","","","","","","","","","","","","","","","","","","","","","","","","","","","","","","","","","","","","","","","","","","","","","","","","","","","","","","","","","","","","","","","","","","","","","","","","","","","","","","","","","","","MET051ENFR 060750Z 15030KT 9999 SH-RA BKN020 05/02 Q1021;","","","","","","","","","",""
"01001799999","2005-02-06T10:50:00","59.98","2.25","48.0","FRIGG, NO","FM-15","4","30.18","36","43","","","","","76","OVC:08 10","","","7.00","","170","","34","","","","","","","","","","","","","","","","","","","","","","","","","","","","","","","","","","","","","","","","","","","","","","","","","","","","","","","","","","","","","","","","","","","","","","","","","","","","","","","","","","","","","","","","","","","MET048ENFR 061050Z 17030KT 9999 BR OVC010 06/02 Q1022;","","","","","","","","","",""
"01001799999","2005-02-07T05:50:00","59.98","2.25","48.0","FRIGG, NO","FM-15","4","30.12","39","45","","||RA","","","81","VV:09 0","","","7.00","","220","","34","","","","","","","","","","","","","","","","","","","","","","","","","","","","","","","","","","","","","","","","","","","","","","","","","","","","","","","","","","","","","","","","","","","","","","","","","","","","","","","","","","","","","","","","","","","MET048ENFR 070550Z 22030KT 9999 -RA VV/// 07/04 Q1020;","","","","","","","","","",""
"01001799999","2005-02-07T06:50:00","59.98","2.25","48.0","FRIGG, NO","FM-15","4","30.15","37","43","","||SHRA","","","81","VV:09 0","","","7.00","","230","","40","","","","","","","","","","","","","","","","","","","","","","","","","","","","","","","","","","","","","","","","","","","","","","","","","","","","","","","","","","","","","","","","","","","","","","","","","","","","","","","","","","","","","","","","","","","MET050ENFR 070650Z 23035KT 9999 +SHRA VV/// 06/03 Q1021;","","","","","","","","","",""
"01001799999","2005-02-07T07:50:00","59.98","2.25","48.0","FRIGG, NO","FM-15","4","30.15","36","43","","||SHRA","","","76","BKN:07 20","","","7.00","","230","43","36","","","","","","","","","","","","","","","","","","","","","","","","","","","","","","","","","","","","","","","","","","","","","","","","","","","","","","","","","","","","","","","","","","","","","","","","","","","","","","","","","","","","","","","","","","","MET054ENFR 070750Z 23031G37KT 9999 +SHRA BKN020 06/02 Q1021;","","","","","","","","","",""
"01001799999","2005-02-07T08:50:00","59.98","2.25","48.0","FRIGG, NO","FM-15","4","30.18","36","43","","||SHRA","","","76","FEW:02 7 BKN:07 20 SCT:04","","","7.00","","220","41","33","","","","","","","","","","","","","","","","","","","","","","","","","","","","","","","","","","","","","","","","","","","","","","","","","","","","","","","","","","","","","","","","","","","","","","","","","","","","","","","","","","","","","","","","","","","MET068ENFR 070850Z 22029G36KT 9999 +SHRA FEW007 BKN020 SCTABV 06/02 Q1022;","","","","","","","","","",""
"01001799999","2005-02-07T09:50:00","59.98","2.25","48.0","FRIGG, NO","FM-15","4","30.15","36","45","","||SHRA","","","71","FEW:02 7 FEW:02 20 BKN:07","","","7.00","","200","","34","","","","","","","","","","","","","","","","","","","","","","","","","","","","","","","","","","","","","","","","","","","","","","","","","","","","","","","","","","","","","","","","","","","","","","","","","","","","","","","","","","","","","","","","","","","MET066ENFR 070950Z 20030KT 9999 SHRAVC FEW007 FEW020 BKNABV 07/02 Q1021;","","","","","","","","","",""
"01001799999","2005-02-07T10:50:00","59.98","2.25","48.0","FRIGG, NO","FM-15","4","30.15","36","45","","||SHRA","","","71","FEW:02 7 FEW:02 20 BKN:07","","","7.00","","210","","40","","","","","","","","","","","","","","","","","","","","","","","","","","","","","","","","","","","","","","","","","","","","","","","","","","","","","","","","","","","","","","","","","","","","","","","","","","","","","","","","","","","","","","","","","","","MET066ENFR 071050Z 21035KT 9999 SHRAVC FEW007 FEW020 BKNABV 07/02 Q1021;","","","","","","","","","",""
"01001799999","2005-02-07T11:50:00","59.98","2.25","48.0","FRIGG, NO","FM-15","4","30.12","37","45","","||SHRA","","","76","FEW:02 7 FEW:02 20 BKN:07","","","4.97","","200","","41","","","","","","","","","","","","","","","","","","","","","","","","","","","","","","","","","","","","","","","","","","","","","","","","","","","","","","","","","","","","","","","","","","","","","","","","","","","","","","","","","","","","","","","","","","","MET066ENFR 071150Z 20036KT 8000 SHRAVC FEW007 FEW020 BKNABV 07/03 Q1020;","","","","","","","","","",""
"01001799999","2005-02-07T12:50:00","59.98","2.25","48.0","FRIGG, NO","FM-15","4","30.12","36","45","","||SHRA","","","71","FEW:02 7 FEW:02 20 BKN:07","","","4.97","","200","","46","","","","","","","","","","","","","","","","","","","","","","","","","","","","","","","","","","","","","","","","","","","","","","","","","","","","","","","","","","","","","","","","","","","","","","","","","","","","","","","","","","","","","","","","","","","MET066ENFR 071250Z 20040KT 8000 SHRAVC FEW007 FEW020 BKNABV 07/02 Q1020;","","","","","","","","","",""
"01001799999","2005-02-07T13:50:00","59.98","2.25","48.0","FRIGG, NO","FM-15","4","30.12","34","43","","||SHRA","","","71","FEW:02 7 BKN:07 20 BKN:07","","","4.97","","200","","49","","","","","","","","","","","","","","","","","","","","","","","","","","","","","","","","","","","","","","","","","","","","","","","","","","","","","","","","","","","","","","","","","","","","","","","","","","","","","","","","","","","","","","","","","","","MET066ENFR 071350Z 20043KT 8000 SHRAVC FEW007 BKN020 BKNABV 06/01 Q1020;","","","","","","","","","",""
"01001799999","2005-02-07T14:50:00","59.98","2.25","48.0","FRIGG, NO","FM-15","4","30.09","37","43","","||SHRA","","","81","OVC:08 7","","","2.49","","190","","41","","","","","","","","","","","","","","","","","","","","","","","","","","","","","","","","","","","","","","","","","","","","","","","","","","","","","","","","","","","","","","","","","","","","","","","","","","","","","","","","","","","","","","","","","","","MET051ENFR 071450Z 19036KT 4000 +SHRA OVC007 06/03 Q1019;","","","","","","","","","",""
"01001799999","2005-02-08T05:50:00","59.98","2.25","48.0","FRIGG, NO","FM-15","4","29.94","37","45","","||SHRA","","","76","VV:09 0","","","3.11","","210","51","44","","","","","","","","","","","","","","","","","","","","","","","","","","","","","","","","","","","","","","","","","","","","","","","","","","","","","","","","","","","","","","","","","","","","","","","","","","","","","","","","","","","","","","","","","","","MET052ENFR 080550Z 21038G44KT 5000 SHRA VV/// 07/03 Q1014;","","","","","","","","","",""
"01001799999","2005-02-08T06:50:00","59.98","2.25","48.0","FRIGG, NO","FM-15","4","29.94","37","45","","||SHRA","","","76","VV:09 0","","","3.11","","210","51","43","","","","","","","","","","","","","","","","","","","","","","","","","","","","","","","","","","","","","","","","","","","","","","","","","","","","","","","","","","","","","","","","","","","","","","","","","","","","","","","","","","","","","","","","","","","MET052ENFR 080650Z 21037G44KT 5000 SHRA VV/// 07/03 Q1014;","","","","","","","","","",""
"01001799999","2005-02-08T07:50:00","59.98","2.25","48.0","FRIGG, NO","FM-15","4","29.97","39","45","","||SHRA","","","81","SCT:04 8 BKN:07","","","3.11","","220","51","41","","","","","","","","","","","","","","","","","","","","","","","","","","","","","","","","","","","","","","","","","","","","","","","","","","","","","","","","","","","","","","","","","","","","","","","","","","","","","","","","","","","","","","","","","","","MET060ENFR 080750Z 22036G44KT 5000 SHRA SCT008 BKNABV 07/04 Q1015;","","","","","","","","","",""
"01001799999","2005-02-08T08:50:00","59.98","2.25","48.0","FRIGG, NO","FM-15","4","29.97","39","45","","||SHRA","","","81","BKN:07 8 BKN:07","","","3.11","","210","51","43","","","","","","","","","","","","","","","","","","","","","","","","","","","","","","","","","","","","","","","","","","","","","","","","","","","","","","","","","","","","","","","","","","","","","","","","","","","","","","","","","","","","","","","","","","","MET060ENFR 080850Z 21037G44KT 5000 SHRA BKN008 BKNABV 07/04 Q1015;","","","","","","","","","",""
"01001799999","2005-02-08T09:50:00","59.98","2.25","48.0","FRIGG, NO","FM-15","4","29.97","39","45","","||SHRA","","","81","BKN:07 7 BKN:07","","","3.11","","200","51","44","","","","","","","","","","","","","","","","","","","","","","","","","","","","","","","","","","","","","","","","","","","","","","","","","","","","","","","","","","","","","","","","","","","","","","","","","","","","","","","","","","","","","","","","","","","MET060ENFR 080950Z 20038G44KT 5000 SHRA BKN007 BKNABV 07/04 Q1015;","","","","","","","","","",""
"01001799999","2005-02-08T10:50:00","59.98","2.25","48.0","FRIGG, NO","FM-15","4","29.97","37","45","","||SHRA","","","76","BKN:07 7 BKN:07","","","3.11","","200","51","44","","","","","","","","","","","","","","","","","","","","","","","","","","","","","","","","","","","","","","","","","","","","","","","","","","","","","","","","","","","","","","","","","","","","","","","","","","","","","","","","","","","","","","","","","","","MET060ENFR 081050Z 20038G44KT 5000 SHRA BKN007 BKNABV 07/03 Q1015;","","","","","","","","","",""
"01001799999","2005-02-08T12:50:00","59.98","2.25","48.0","FRIGG, NO","FM-15","4","29.94","39","45","","||RA","","","81","OVC:08 7","","","3.11","","210","51","43","","","","","","","","","","","","","","","","","","","","","","","","","","","","","","","","","","","","","","","","","","","","","","","","","","","","","","","","","","","","","","","","","","","","","","","","","","","","","","","","","","","","","","","","","","","MET052ENFR 081250Z 21037G44KT 5000 -RA OVC007 07/04 Q1014;","","","","","","","","","",""
"01001799999","2005-02-08T13:50:00","59.98","2.25","48.0","FRIGG, NO","FM-15","4","29.91","39","45","","||RA","","","81","OVC:08 7","","","3.11","","210","51","43","","","","","","","","","","","","","","","","","","","","","","","","","","","","","","","","","","","","","","","","","","","","","","","","","","","","","","","","","","","","","","","","","","","","","","","","","","","","","","","","","","","","","","","","","","","MET052ENFR 081350Z 21037G44KT 5000 -RA OVC007 07/04 Q1013;","","","","","","","","","",""
"01001799999","2005-02-08T14:50:00","59.98","2.25","48.0","FRIGG, NO","FM-15","4","29.91","39","45","","||RA","","","81","OVC:08 7","","","3.11","","210","51","44","","","","","","","","","","","","","","","","","","","","","","","","","","","","","","","","","","","","","","","","","","","","","","","","","","","","","","","","","","","","","","","","","","","","","","","","","","","","","","","","","","","","","","","","","","","MET052ENFR 081450Z 21038G44KT 5000 -RA OVC007 07/04 Q1013;","","","","","","","","","",""
"01001799999","2005-02-08T15:50:00","59.98","2.25","48.0","FRIGG, NO","FM-15","4","29.91","41","45","","||RA","","","87","OVC:08 7","","","3.11","","210","46","38","","","","","","","","","","","","","","","","","","","","","","","","","","","","","","","","","","","","","","","","","","","","","","","","","","","","","","","","","","","","","","","","","","","","","","","","","","","","","","","","","","","","","","","","","","","MET055ENFR 081550Z 21033G40KT 5000 -RA BR OVC007 07/05 Q1013;","","","","","","","","","",""
"01001799999","2005-02-08T16:50:00","59.98","2.25","48.0","FRIGG, NO","FM-15","4","29.91","41","45","","||RA","","","87","OVC:08 7","","","3.11","","210","46","40","","","","","","","","","","","","","","","","","","","","","","","","","","","","","","","","","","","","","","","","","","","","","","","","","","","","","","","","","","","","","","","","","","","","","","","","","","","","","","","","","","","","","","","","","","","MET055ENFR 081650Z 21035G40KT 5000 -RA BR OVC007 07/05 Q1013;","","","","","","","","","",""
"01001799999","2005-02-09T05:50:00","59.98","2.25","48.0","FRIGG, NO","FM-15","4","29.71","41","45","","||RA","","","87","VV:09 0","","","7.00","","220","48","40","","","","","","","","","","","","","","","","","","","","","","","","","","","","","","","","","","","","","","","","","","","","","","","","","","","","","","","","","","","","","","","","","","","","","","","","","","","","","","","","","","","","","","","","","","","MET051ENFR 090550Z 22035G42KT 9999 -RA VV/// 07/05 Q1006;","","","","","","","","","",""
"01001799999","2005-02-09T06:50:00","59.98","2.25","48.0","FRIGG, NO","FM-15","4","29.71","41","45","","||RA","","","87","VV:09 0","","","7.00","","230","46","38","","","","","","","","","","","","","","","","","","","","","","","","","","","","","","","","","","","","","","","","","","","","","","","","","","","","","","","","","","","","","","","","","","","","","","","","","","","","","","","","","","","","","","","","","","","MET051ENFR 090650Z 23033G40KT 9999 -RA VV/// 07/05 Q1006;","","","","","","","","","",""
"01001799999","2005-02-09T07:50:00","59.98","2.25","48.0","FRIGG, NO","FM-15","4","29.71","41","45","","||RA","","","87","BKN:07 7","","","7.00","","230","46","34","","","","","","","","","","","","","","","","","","","","","","","","","","","","","","","","","","","","","","","","","","","","","","","","","","","","","","","","","","","","","","","","","","","","","","","","","","","","","","","","","","","","","","","","","","","MET052ENFR 090750Z 23030G40KT 9999 -RA BKN007 07/05 Q1006;","","","","","","","","","",""
"01001799999","2005-02-09T09:50:00","59.98","2.25","48.0","FRIGG, NO","FM-15","4","29.71","41","46","","","","","82","FEW:02 10 SCT:04","","","7.00","","230","","32","","","","","","","","","","","","","","","","","","","","","","","","","","","","","","","","","","","","","","","","","","","","","","","","","","","","","","","","","","","","","","","","","","","","","","","","","","","","","","","","","","","","","","","","","","","MET052ENFR 090950Z 23028KT 9999 FEW010 SCTABV 08/05 Q1006;","","","","","","","","","",""
"01001799999","2005-02-09T10:50:00","59.98","2.25","48.0","FRIGG, NO","FM-15","4","29.68","41","46","","","","","82","FEW:02 10 SCT:04","","","7.00","","230","","31","","","","","","","","","","","","","","","","","","","","","","","","","","","","","","","","","","","","","","","","","","","","","","","","","","","","","","","","","","","","","","","","","","","","","","","","","","","","","","","","","","","","","","","","","","","MET052ENFR 091050Z 23027KT 9999 FEW010 SCTABV 08/05 Q1005;","","","","","","","","","",""
"01001799999","2005-02-09T11:50:00","59.98","2.25","48.0","FRIGG, NO","FM-15","4","29.68","39","46","","","","","76","FEW:02 10 SCT:04","","","7.00","","230","","32","","","","","","","","","","","","","","","","","","","","","","","","","","","","","","","","","","","","","","","","","","","","","","","","","","","","","","","","","","","","","","","","","","","","","","","","","","","","","","","","","","","","","","","","","","","MET052ENFR 091150Z 23028KT 9999 FEW010 SCTABV 08/04 Q1005;","","","","","","","","","",""
"01001799999","2005-02-09T12:50:00","59.98","2.25","48.0","FRIGG, NO","FM-15","4","29.68","39","46","","","","","76","FEW:02 10 SCT:04","","","7.00","","240","","29","","","","","","","","","","","","","","","","","","","","","","","","","","","","","","","","","","","","","","","","","","","","","","","","","","","","","","","","","","","","","","","","","","","","","","","","","","","","","","","","","","","","","","","","","","","MET052ENFR 091250Z 24025KT 9999 FEW010 SCTABV 08/04 Q1005;","","","","","","","","","",""
"01001799999","2005-02-09T13:50:00","59.98","2.25","48.0","FRIGG, NO","FM-15","4","29.65","39","46","","||SHRA","","","76","FEW:02 10 SCT:04 49 SCT:04","","","7.00","","230","","36","","","","","","","","","","","","","","","","","","","","","","","","","","","","","","","","","","","","","","","","","","","","","","","","","","","","","","","","","","","","","","","","","","","","","","","","","","","","","","","","","","","","","","","","","","","MET065ENFR 091350Z 23031KT 9999 -SHRA FEW010 SCT050 SCTABV 08/04 Q1004;","","","","","","","","","",""
"01001799999","2005-02-09T14:50:00","59.98","2.25","48.0","FRIGG, NO","FM-15","4","29.62","39","46","","||SHRA","","","76","FEW:02 49 SCT:04","","","7.00","","230","","32","","","","","","","","","","","","","","","","","","","","","","","","","","","","","","","","","","","","","","","","","","","","","","","","","","","","","","","","","","","","","","","","","","","","","","","","","","","","","","","","","","","","","","","","","","","MET058ENFR 091450Z 23028KT 9999 -SHRA FEW050 SCTABV 08/04 Q1003;","","","","","","","","","",""
"01001799999","2005-02-10T05:50:00","59.98","2.25","48.0","FRIGG, NO","FM-15","4","29.29","28","39","","","","","65","VV:09 0","","","7.00","","280","47","37","","","","","","","","","","","","","","","","","","","","","","","","","","","","","","","","","","","","","","","","","","","","","","","","","","","","","","","","","","","","","","","","","","","","","","","","","","","","","","","","","","","","","","","","","","","MET048ENFR 100550Z 28032G41KT 9999 VV/// 04/M02 Q0992;","","","","","","","","","",""
"01001799999","2005-02-10T06:50:00","59.98","2.25","48.0","FRIGG, NO","FM-15","4","29.32","30","39","","","","","70","VV:09 0","","","7.00","","260","57","41","","","","","","","","","","","","","","","","","","","","","","","","","","","","","","","","","","","","","","","","","","","","","","","","","","","","","","","","","","","","","","","","","","","","","","","","","","","","","","","","","","","","","","","","","","","MET048ENFR 100650Z 26036G50KT 9999 VV/// 04/M01 Q0993;","","","","","","","","","",""
"01001799999","2005-02-10T07:50:00","59.98","2.25","48.0","FRIGG, NO","FM-15","4","29.32","30","41","","||SHRA","","","66","BKN:07 15 BKN:07","","","1.86","","270","46","38","","","","","","","","","","","","","","","","","","","","","","","","","","","","","","","","","","","","","","","","","","","","","","","","","","","","","","","","","","","","","","","","","","","","","","","","","","","","","","","","","","","","","","","","","","","MET063ENFR 100750Z 27033G40KT 3000 SHRAVC BKN015 BKNABV 05/M01 Q0993;","","","","","","","","","",""
"01001799999","2005-02-10T08:50:00","59.98","2.25","48.0","FRIGG, NO","FM-15","4","29.35","30","41","","||SH","","","66","OVC:08 10","","","1.86","","270","63","52","","","","","","","","","","","","","","","","","","","","","","","","","","","","","","","","","","","","","","","","","","","","","","","","","","","","","","","","","","","","","","","","","","","","","","","","","","","","","","","","","","","","","","","","","","","MET057ENFR 100850Z 27045G55KT 3000 +SHGRVC OVC010 05/M01 Q0994;","","","","","","","","","",""
"01001799999","2005-02-10T09:50:00","59.98","2.25","48.0","FRIGG, NO","FM-15","4","29.32","30","41","","||SH","","","66","OVC:08 5 SCT:04","","","1.86","","270","60","43","","","","","","","","","","","","","","","","","","","","","","","","","","","","","","","","","","","","","","","","","","","","","","","","","","","","","","","","","","","","","","","","","","","","","","","","","","","","","","","","","","","","","","","","","","","MET062ENFR 100950Z 27037G52KT 3000 +SHGR OVC005 SCTABV 05/M01 Q0993;","","","","","","","","","",""
"01001799999","2005-02-10T10:50:00","59.98","2.25","48.0","FRIGG, NO","FM-15","4","29.32","28","41","","||SH","","","61","SCT:04 5 SCT:04 39 SCT:04","","","1.86","","290","60","46","","","","","","","","","","","","","","","","","","","","","","","","","","","","","","","","","","","","","","","","","","","","","","","","","","","","","","","","","","","","","","","","","","","","","","","","","","","","","","","","","","","","","","","","","","","MET069ENFR 101050Z 29040G52KT 3000 +SHGR SCT005 SCT040 SCTABV 05/M02 Q0993;","","","","","","","","","",""
"01001799999","2005-02-10T11:50:00","59.98","2.25","48.0","FRIGG, NO","FM-15","4","29.35","30","36","","||SHRA SH","","","81","BKN:07 5 SCT:04 39 SCT:04","","","1.86","","290","60","39","","","","","","","","","","","","","","","","","","","","","","","","","","","","","","","","","","","","","","","","","","","","","","","","","","","","","","","","","","","","","","","","","","","","","","","","","","","","","","","","","","","","","","","","","","","MET071ENFR 101150Z 29034G52KT 3000 +SHRAGR BKN005 SCT040 SCTABV 02/M01 Q0994;","","","","","","","","","",""
"01001799999","2005-02-10T12:50:00","59.98","2.25","48.0","FRIGG, NO","FM-15","4","29.35","30","36","","||SHRA SH","","","81","BKN:07 5 SCT:04 39 SCT:04","","","1.86","","310","61","46","","","","","","","","","","","","","","","","","","","","","","","","","","","","","","","","","","","","","","","","","","","","","","","","","","","","","","","","","","","","","","","","","","","","","","","","","","","","","","","","","","","","","","","","","","","MET071ENFR 101250Z 31040G53KT 3000 +SHRAGR BKN005 SCT040 SCTABV 02/M01 Q0994;","","","","","","","","","",""
"01001799999","2005-02-14T06:50:00","59.98","2.25","48.0","FRIGG, NO","FM-15","4","29.80","34","41","","||SH","","","76","VV:09 0","","","1.86","","010","63","53","","","","","","","","","","","","","","","","","","","","","","","","","","","","","","","","","","","","","","","","","","","","","","","","","","","","","","","","","","","","","","","","","","","","","","","","","","","","","","","","","","","","","","","","","","","MET053ENFR 140650Z 01046G55KT 3000 +SHGR VV/// 05/01 Q1009;","","","","","","","","","",""
"01001799999","2005-02-14T07:50:00","59.98","2.25","48.0","FRIGG, NO","FM-15","4","29.83","34","39","","||SH","","","81","BKN:07 10 SCT:04","","","1.86","","010","52","32","","","","","","","","","","","","","","","","","","","","","","","","","","","","","","","","","","","","","","","","","","","","","","","","","","","","","","","","","","","","","","","","","","","","","","","","","","","","","","","","","","","","","","","","","","","MET061ENFR 140750Z 01028G45KT 3000 +SHGR BKN010 SCTABV 04/01 Q1010;","","","","","","","","","",""
"01001799999","2005-02-14T08:50:00","59.98","2.25","48.0","FRIGG, NO","FM-15","4","29.83","32","41","","||SH","","","70","SCT:04 10 SCT:04","","","3.11","","010","52","40","","","","","","","","","","","","","","","","","","","","","","","","","","","","","","","","","","","","","","","","","","","","","","","","","","","","","","","","","","","","","","","","","","","","","","","","","","","","","","","","","","","","","","","","","","","MET062ENFR 140850Z 01035G45KT 5000 +SHGR SCT010 SCTABV 05/-00 Q1010;","","","","","","","","","",""
"01001799999","2005-02-14T09:50:00","59.98","2.25","48.0","FRIGG, NO","FM-15","4","29.85","30","39","","||SH","","","70","FEW:02 5 BKN:07 10 SCT:04","","","3.11","","020","51","34","","","","","","","","","","","","","","","","","","","","","","","","","","","","","","","","","","","","","","","","","","","","","","","","","","","","","","","","","","","","","","","","","","","","","","","","","","","","","","","","","","","","","","","","","","","MET069ENFR 140950Z 02030G44KT 5000 +SHGR FEW005 BKN010 SCTABV 04/-01 Q1011;","","","","","","","","","",""
"01001799999","2005-02-14T10:50:00","59.98","2.25","48.0","FRIGG, NO","FM-15","4","29.85","28","41","","||SH","","","61","FEW:02 5 SCT:04 10 SCT:04","","","3.11","","030","46","32","","","","","","","","","","","","","","","","","","","","","","","","","","","","","","","","","","","","","","","","","","","","","","","","","","","","","","","","","","","","","","","","","","","","","","","","","","","","","","","","","","","","","","","","","","","MET069ENFR 141050Z 03028G40KT 5000 +SHGR FEW005 SCT010 SCTABV 05/-02 Q1011;","","","","","","","","","",""
"01001799999","2005-02-14T11:50:00","59.98","2.25","48.0","FRIGG, NO","FM-15","4","29.88","28","41","","","","","61","SCT:04 30 FEW:02","","","7.00","","030","46","26","","","","","","","","","","","","","","","","","","","","","","","","","","","","","","","","","","","","","","","","","","","","","","","","","","","","","","","","","","","","","","","","","","","","","","","","","","","","","","","","","","","","","","","","","","","MET056ENFR 141150Z 03023G40KT 9999 SCT030 FEWABV 05/-02 Q1012;","","","","","","","","","",""
"01001799999","2005-02-15T06:50:00","59.98","2.25","48.0","FRIGG, NO","FM-15","4","30.24","27","39","","","","","61","FEW:02 49","","","7.00","","040","","19","","","","","","","","","","","","","","","","","","","","","","","","","","","","","","","","","","","","","","","","","","","","","","","","","","","","","","","","","","","","","","","","","","","","","","","","","","","","","","","","","","","","","","","","","","","MET046ENFR 150650Z 04017KT 9999 FEW050 04/M03 Q1024;","","","","","","","","","",""
"01001799999","2005-02-15T07:50:00","59.98","2.25","48.0","FRIGG, NO","FM-15","4","30.27","25","39","","","","","56","FEW:02 30","","","7.00","","040","","21","","","","","","","","","","","","","","","","","","","","","","","","","","","","","","","","","","","","","","","","","","","","","","","","","","","","","","","","","","","","","","","","","","","","","","","","","","","","","","","","","","","","","","","","","","","MET046ENFR 150750Z 04018KT 9999 FEW030 04/M04 Q1025;","","","","","","","","","",""
"01001799999","2005-02-15T08:50:00","59.98","2.25","48.0","FRIGG, NO","FM-15","4","30.27","25","39","","","","","56","FEW:02 30","","","7.00","","040","","21","","","","","","","","","","","","","","","","","","","","","","","","","","","","","","","","","","","","","","","","","","","","","","","","","","","","","","","","","","","","","","","","","","","","","","","","","","","","","","","","","","","","","","","","","","","MET046ENFR 150850Z 04018KT 9999 FEW030 04/M04 Q1025;","","","","","","","","","",""
"01001799999","2005-02-15T09:50:00","59.98","2.25","48.0","FRIGG, NO","FM-15","4","30.27","27","39","","","","","61","FEW:02 30","","","7.00","","050","","21","","","","","","","","","","","","","","","","","","","","","","","","","","","","","","","","","","","","","","","","","","","","","","","","","","","","","","","","","","","","","","","","","","","","","","","","","","","","","","","","","","","","","","","","","","","MET046ENFR 150950Z 05018KT 9999 FEW030 04/M03 Q1025;","","","","","","","","","",""
"01001799999","2005-02-15T10:50:00","59.98","2.25","48.0","FRIGG, NO","FM-15","4","30.27","27","39","","","","","61","FEW:02 49","","","7.00","","040","","15","","","","","","","","","","","","","","","","","","","","","","","","","","","","","","","","","","","","","","","","","","","","","","","","","","","","","","","","","","","","","","","","","","","","","","","","","","","","","","","","","","","","","","","","","","","MET046ENFR 151050Z 04013KT 9999 FEW050 04/M03 Q1025;","","","","","","","","","",""
"01001799999","2005-02-15T11:50:00","59.98","2.25","48.0","FRIGG, NO","FM-15","4","30.30","27","39","","","","","61","FEW:02 49","","","7.00","","040","","11","","","","","","","","","","","","","","","","","","","","","","","","","","","","","","","","","","","","","","","","","","","","","","","","","","","","","","","","","","","","","","","","","","","","","","","","","","","","","","","","","","","","","","","","","","","MET046ENFR 151150Z 04010KT 9999 FEW050 04/M03 Q1026;","","","","","","","","","",""
"01001799999","2005-02-15T13:50:00","59.98","2.25","48.0","FRIGG, NO","FM-15","4","30.30","27","41","","","","","57","FEW:02 49","","","7.00","","360","","3","","","","","","","","","","","","","","","","","","","","","","","","","","","","","","","","","","","","","","","","","","","","","","","","","","","","","","","","","","","","","","","","","","","","","","","","","","","","","","","","","","","","","","","","","","","MET046ENFR 151350Z 36003KT 9999 FEW050 05/M03 Q1026;","","","","","","","","","",""
"01001799999","2005-02-15T14:50:00","59.98","2.25","48.0","FRIGG, NO","FM-15","4","30.30","27","41","","","","","57","","","","6.15","","030","","3","","","","","","","","","","","","","","","","","","","","","","","","","","","","","","","","","","","","","","","","","","","","","","","","","","","","","","","","","","","","","","","","","","","","","","","","","","","","","","","","","","","","","","","","","","","MET040ENFR 151450Z 03003KT CAVOK 05/M03 Q1026;","","","","","","","","","",""
"01001799999","2005-02-16T06:50:00","59.98","2.25","48.0","FRIGG, NO","FM-15","4","30.24","30","41","","","","","66","VV:09 0","","","7.00","","220","","34","","","","","","","","","","","","","","","","","","","","","","","","","","","","","","","","","","","","","","","","","","","","","","","","","","","","","","","","","","","","","","","","","","","","","","","","","","","","","","","","","","","","","","","","","","","MET045ENFR 160650Z 22030KT 9999 VV/// 05/M01 Q1024;","","","","","","","","","",""
"01001799999","2005-02-16T07:50:00","59.98","2.25","48.0","FRIGG, NO","FM-15","4","30.24","30","41","","","","","66","BKN:07 20","","","7.00","","220","","33","","","","","","","","","","","","","","","","","","","","","","","","","","","","","","","","","","","","","","","","","","","","","","","","","","","","","","","","","","","","","","","","","","","","","","","","","","","","","","","","","","","","","","","","","","","MET046ENFR 160750Z 22029KT 9999 BKN020 05/M01 Q1024;","","","","","","","","","",""
"01001799999","2005-02-16T08:50:00","59.98","2.25","48.0","FRIGG, NO","FM-15","4","30.18","32","43","","","","","66","BKN:07 20","","","7.00","","220","","36","","","","","","","","","","","","","","","","","","","","","","","","","","","","","","","","","","","","","","","","","","","","","","","","","","","","","","","","","","","","","","","","","","","","","","","","","","","","","","","","","","","","","","","","","","","MET045ENFR 160850Z 22031KT 9999 BKN020 06/00 Q1022;","","","","","","","","","",""
"01001799999","2005-02-16T09:50:00","59.98","2.25","48.0","FRIGG, NO","FM-15","4","30.21","32","43","","","","","66","BKN:07 20","","","7.00","","220","","44","","","","","","","","","","","","","","","","","","","","","","","","","","","","","","","","","","","","","","","","","","","","","","","","","","","","","","","","","","","","","","","","","","","","","","","","","","","","","","","","","","","","","","","","","","","MET045ENFR 160950Z 22038KT 9999 BKN020 06/00 Q1023;","","","","","","","","","",""
"01001799999","2005-02-16T10:50:00","59.98","2.25","48.0","FRIGG, NO","FM-15","4","30.18","32","43","","","","","66","BKN:07 20","","","7.00","","210","","44","","","","","","","","","","","","","","","","","","","","","","","","","","","","","","","","","","","","","","","","","","","","","","","","","","","","","","","","","","","","","","","","","","","","","","","","","","","","","","","","","","","","","","","","","","","MET045ENFR 161050Z 21038KT 9999 BKN020 06/00 Q1022;","","","","","","","","","",""
"01001799999","2005-02-16T11:50:00","59.98","2.25","48.0","FRIGG, NO","FM-15","4","30.18","34","41","","","","","76","OVC:08 7","","","4.35","","210","","46","","","","","","","","","","","","","","","","","","","","","","","","","","","","","","","","","","","","","","","","","","","","","","","","","","","","","","","","","","","","","","","","","","","","","","","","","","","","","","","","","","","","","","","","","","","MET048ENFR 161150Z 21040KT 7000 BR OVC007 05/01 Q1022;","","","","","","","","","",""
"01001799999","2005-02-16T12:50:00","59.98","2.25","48.0","FRIGG, NO","FM-15","4","30.15","34","43","","","","","71","OVC:08 7","","","4.35","","220","","46","","","","","","","","","","","","","","","","","","","","","","","","","","","","","","","","","","","","","","","","","","","","","","","","","","","","","","","","","","","","","","","","","","","","","","","","","","","","","","","","","","","","","","","","","","","MET048ENFR 161250Z 22040KT 7000 BR OVC007 06/01 Q1021;","","","","","","","","","",""
"01001799999","2005-02-16T13:50:00","59.98","2.25","48.0","FRIGG, NO","FM-15","4","30.12","36","43","","","","","76","BKN:07 7 BKN:07","","","7.00","","220","","46","","","","","","","","","","","","","","","","","","","","","","","","","","","","","","","","","","","","","","","","","","","","","","","","","","","","","","","","","","","","","","","","","","","","","","","","","","","","","","","","","","","","","","","","","","","MET052ENFR 161350Z 22040KT 9999 BKN007 BKNABV 06/02 Q1020;","","","","","","","","","",""
"01001799999","2005-02-16T14:50:00","59.98","2.25","48.0","FRIGG, NO","FM-15","4","30.12","37","43","","||RA","","","81","OVC:08 7","","","4.35","","220","","34","","","","","","","","","","","","","","","","","","","","","","","","","","","","","","","","","","","","","","","","","","","","","","","","","","","","","","","","","","","","","","","","","","","","","","","","","","","","","","","","","","","","","","","","","","","MET052ENFR 161450Z 22030KT 7000 -RA BR OVC007 06/03 Q1020;","","","","","","","","","",""
"01001799999","2005-02-17T06:50:00","59.98","2.25","48.0","FRIGG, NO","FM-15","4","30.12","37","45","","","","","76","FEW:02 39","","","7.00","","300","","21","","","","","","","","","","","","","","","","","","","","","","","","","","","","","","","","","","","","","","","","","","","","","","","","","","","","","","","","","","","","","","","","","","","","","","","","","","","","","","","","","","","","","","","","","","","MET045ENFR 170650Z 30018KT 9999 FEW040 07/03 Q1020;","","","","","","","","","",""
"01001799999","2005-02-17T07:50:00","59.98","2.25","48.0","FRIGG, NO","FM-15","4","30.12","37","45","","","","","76","SCT:04 39","","","7.00","","310","","19","","","","","","","","","","","","","","","","","","","","","","","","","","","","","","","","","","","","","","","","","","","","","","","","","","","","","","","","","","","","","","","","","","","","","","","","","","","","","","","","","","","","","","","","","","","MET045ENFR 170750Z 31017KT 9999 SCT040 07/03 Q1020;","","","","","","","","","",""
"01001799999","2005-02-17T08:50:00","59.98","2.25","48.0","FRIGG, NO","FM-15","4","30.12","36","45","","","","","71","FEW:02 30","","","7.00","","300","","18","","","","","","","","","","","","","","","","","","","","","","","","","","","","","","","","","","","","","","","","","","","","","","","","","","","","","","","","","","","","","","","","","","","","","","","","","","","","","","","","","","","","","","","","","","","MET045ENFR 170850Z 30016KT 9999 FEW030 07/02 Q1020;","","","","","","","","","",""
"01001799999","2005-02-17T09:50:00","59.98","2.25","48.0","FRIGG, NO","FM-15","4","30.12","36","45","","","","","71","FEW:02 20","","","7.00","","300","","19","","","","","","","","","","","","","","","","","","","","","","","","","","","","","","","","","","","","","","","","","","","","","","","","","","","","","","","","","","","","","","","","","","","","","","","","","","","","","","","","","","","","","","","","","","","MET045ENFR 170950Z 30017KT 9999 FEW020 07/02 Q1020;","","","","","","","","","",""
"01001799999","2005-02-17T10:50:00","59.98","2.25","48.0","FRIGG, NO","FM-15","4","30.12","36","45","","","","","71","FEW:02 20","","","7.00","","300","","19","","","","","","","","","","","","","","","","","","","","","","","","","","","","","","","","","","","","","","","","","","","","","","","","","","","","","","","","","","","","","","","","","","","","","","","","","","","","","","","","","","","","","","","","","","","MET045ENFR 171050Z 30017KT 9999 FEW020 07/02 Q1020;","","","","","","","","","",""
"01001799999","2005-02-17T11:50:00","59.98","2.25","48.0","FRIGG, NO","FM-15","4","30.12","36","45","","","","","71","FEW:02 20","","","7.00","","290","","19","","","","","","","","","","","","","","","","","","","","","","","","","","","","","","","","","","","","","","","","","","","","","","","","","","","","","","","","","","","","","","","","","","","","","","","","","","","","","","","","","","","","","","","","","","","MET045ENFR 171150Z 29017KT 9999 FEW020 07/02 Q1020;","","","","","","","","","",""
"01001799999","2005-02-17T12:50:00","59.98","2.25","48.0","FRIGG, NO","FM-15","4","30.12","36","45","","","","","71","FEW:02 20","","","7.00","","280","","17","","","","","","","","","","","","","","","","","","","","","","","","","","","","","","","","","","","","","","","","","","","","","","","","","","","","","","","","","","","","","","","","","","","","","","","","","","","","","","","","","","","","","","","","","","","MET045ENFR 171250Z 28015KT 9999 FEW020 07/02 Q1020;","","","","","","","","","",""
"01001799999","2005-02-17T14:50:00","59.98","2.25","48.0","FRIGG, NO","FM-15","4","30.09","37","45","","","","","76","SCT:04 15","","","7.00","","280","","23","","","","","","","","","","","","","","","","","","","","","","","","","","","","","","","","","","","","","","","","","","","","","","","","","","","","","","","","","","","","","","","","","","","","","","","","","","","","","","","","","","","","","","","","","","","MET045ENFR 171450Z 28020KT 9999 SCT015 07/03 Q1019;","","","","","","","","","",""
"01001799999","2005-02-21T06:50:00","59.98","2.25","48.0","FRIGG, NO","FM-15","4","30.12","27","39","","","","","61","FEW:02 15","","","7.00","","110","","23","","","","","","","","","","","","","","","","","","","","","","","","","","","","","","","","","","","","","","","","","","","","","","","","","","","","","","","","","","","","","","","","","","","","","","","","","","","","","","","","","","","","","","","","","","","MET046ENFR 210650Z 11020KT 9999 FEW015 04/-03 Q1020;","","","","","","","","","",""
"01001799999","2005-02-21T07:50:00","59.98","2.25","48.0","FRIGG, NO","FM-15","4","30.15","23","41","","","","","49","FEW:02 20","","","7.00","","110","","11","","","","","","","","","","","","","","","","","","","","","","","","","","","","","","","","","","","","","","","","","","","","","","","","","","","","","","","","","","","","","","","","","","","","","","","","","","","","","","","","","","","","","","","","","","","MET046ENFR 210750Z 11010KT 9999 FEW020 05/-05 Q1021;","","","","","","","","","",""
"01001799999","2005-02-21T09:50:00","59.98","2.25","48.0","FRIGG, NO","FM-15","4","30.18","23","39","","","","","52","","","","6.15","","100","","2","","","","","","","","","","","","","","","","","","","","","","","","","","","","","","","","","","","","","","","","","","","","","","","","","","","","","","","","","","","","","","","","","","","","","","","","","","","","","","","","","","","","","","","","","","","MET040ENFR 210950Z 10002KT CAVOK 04/-05 Q1022;","","","","","","","","","",""
"01001799999","2005-02-22T06:50:00","59.98","2.25","48.0","FRIGG, NO","FM-15","4","30.39","28","39","","","","","65","SCT:04 15","","","7.00","","050","","15","","","","","","","","","","","","","","","","","","","","","","","","","","","","","","","","","","","","","","","","","","","","","","","","","","","","","","","","","","","","","","","","","","","","","","","","","","","","","","","","","","","","","","","","","","","MET050ENFR 220650Z 05013KT 9999 SCT015 -SN 04/-02 Q1029;","","","","","","","","","",""
"01001799999","2005-02-22T07:50:00","59.98","2.25","48.0","FRIGG, NO","FM-15","4","30.39","25","39","","","","","56","SCT:04 15","","","7.00","","040","","19","","","","","","","","","","","","","","","","","","","","","","","","","","","","","","","","","","","","","","","","","","","","","","","","","","","","","","","","","","","","","","","","","","","","","","","","","","","","","","","","","","","","","","","","","","","MET046ENFR 220750Z 04017KT 9999 SCT015 04/-04 Q1029;","","","","","","","","","",""
"01001799999","2005-02-22T08:50:00","59.98","2.25","48.0","FRIGG, NO","FM-15","4","30.36","23","39","","","","","52","FEW:02 15","","","7.00","","060","","18","","","","","","","","","","","","","","","","","","","","","","","","","","","","","","","","","","","","","","","","","","","","","","","","","","","","","","","","","","","","","","","","","","","","","","","","","","","","","","","","","","","","","","","","","","","MET046ENFR 220850Z 06016KT 9999 FEW015 04/-05 Q1028;","","","","","","","","","",""
"01001799999","2005-02-22T09:50:00","59.98","2.25","48.0","FRIGG, NO","FM-15","4","30.36","25","41","","","","","53","FEW:02 15","","","7.00","","040","","18","","","","","","","","","","","","","","","","","","","","","","","","","","","","","","","","","","","","","","","","","","","","","","","","","","","","","","","","","","","","","","","","","","","","","","","","","","","","","","","","","","","","","","","","","","","MET046ENFR 220950Z 04016KT 9999 FEW015 05/-04 Q1028;","","","","","","","","","",""
"01001799999","2005-02-22T10:50:00","59.98","2.25","48.0","FRIGG, NO","FM-15","4","30.33","27","41","","","","","57","SCT:04 10","","","7.00","","040","","16","","","","","","","","","","","","","","","","","","","","","","","","","","","","","","","","","","","","","","","","","","","","","","","","","","","","","","","","","","","","","","","","","","","","","","","","","","","","","","","","","","","","","","","","","","","MET046ENFR 221050Z 04014KT 9999 SCT010 05/-03 Q1027;","","","","","","","","","",""
"01001799999","2005-02-22T11:50:00","59.98","2.25","48.0","FRIGG, NO","FM-15","4","30.33","28","39","","","","","65","FEW:02 15","","","7.00","","070","","23","","","","","","","","","","","","","","","","","","","","","","","","","","","","","","","","","","","","","","","","","","","","","","","","","","","","","","","","","","","","","","","","","","","","","","","","","","","","","","","","","","","","","","","","","","","MET046ENFR 221150Z 07020KT 9999 FEW015 04/-02 Q1027;","","","","","","","","","",""
"01001799999","2005-02-22T13:50:00","59.98","2.25","48.0","FRIGG, NO","FM-15","4","30.33","23","39","","","","","52","FEW:02 15","","","7.00","","080","","15","","","","","","","","","","","","","","","","","","","","","","","","","","","","","","","","","","","","","","","","","","","","","","","","","","","","","","","","","","","","","","","","","","","","","","","","","","","","","","","","","","","","","","","","","","","MET046ENFR 221350Z 08013KT 9999 FEW015 04/-05 Q1027;","","","","","","","","","",""
"01001799999","2005-02-22T14:50:00","59.98","2.25","48.0","FRIGG, NO","FM-15","4","30.33","21","39","","","","","48","FEW:02 15","","","7.00","","100","","7","","","","","","","","","","","","","","","","","","","","","","","","","","","","","","","","","","","","","","","","","","","","","","","","","","","","","","","","","","","","","","","","","","","","","","","","","","","","","","","","","","","","","","","","","","","MET046ENFR 221450Z 10006KT 9999 FEW015 04/-06 Q1027;","","","","","","","","","",""
"01001799999","2005-02-23T06:50:00","59.98","2.25","48.0","FRIGG, NO","FM-15","4","30.42","21","32","","","","","64","BKN:07 15","","","7.00","","150","","19","","","","","","","","","","","","","","","","","","","","","","","","","","","","","","","","","","","","","","","","","","","","","","","","","","","","","","","","","","","","","","","","","","","","","","","","","","","","","","","","","","","","","","","","","","","MET046ENFR 230650Z 15017KT 9999 BKN015 00/-06 Q1030;","","","","","","","","","",""
"01001799999","2005-02-23T07:50:00","59.98","2.25","48.0","FRIGG, NO","FM-15","4","30.42","19","32","","","","","60","FEW:02 20","","","7.00","","140","","21","","","","","","","","","","","","","","","","","","","","","","","","","","","","","","","","","","","","","","","","","","","","","","","","","","","","","","","","","","","","","","","","","","","","","","","","","","","","","","","","","","","","","","","","","","","MET045ENFR 230750Z 14018KT 9999 FEW020 00/-7 Q1030;","","","","","","","","","",""
"01001799999","2005-02-23T08:50:00","59.98","2.25","48.0","FRIGG, NO","FM-15","4","30.45","19","32","","","","","60","FEW:02 20","","","7.00","","150","","19","","","","","","","","","","","","","","","","","","","","","","","","","","","","","","","","","","","","","","","","","","","","","","","","","","","","","","","","","","","","","","","","","","","","","","","","","","","","","","","","","","","","","","","","","","","MET045ENFR 230850Z 15017KT 9999 FEW020 00/-7 Q1031;","","","","","","","","","",""
"01001799999","2005-02-23T09:50:00","59.98","2.25","48.0","FRIGG, NO","FM-15","4","30.47","18","30","","","","","59","FEW:02 20","","","7.00","","140","","21","","","","","","","","","","","","","","","","","","","","","","","","","","","","","","","","","","","","","","","","","","","","","","","","","","","","","","","","","","","","","","","","","","","","","","","","","","","","","","","","","","","","","","","","","","","MET046ENFR 230950Z 14018KT 9999 FEW020 -01/-8 Q1032;","","","","","","","","","",""
"01001799999","2005-02-23T10:50:00","59.98","2.25","48.0","FRIGG, NO","FM-15","4","30.47","19","32","","","","","60","FEW:02 20","","","7.00","","150","","21","","","","","","","","","","","","","","","","","","","","","","","","","","","","","","","","","","","","","","","","","","","","","","","","","","","","","","","","","","","","","","","","","","","","","","","","","","","","","","","","","","","","","","","","","","","MET047ENFR 231050Z 15018KT 9999 FEW020 -00/-07 Q1032;","","","","","","","","","",""
"01001799999","2005-02-23T11:50:00","59.98","2.25","48.0","FRIGG, NO","FM-15","4","30.50","18","32","","","","","55","SCT:04 15","","","7.00","","140","","10","","","","","","","","","","","","","","","","","","","","","","","","","","","","","","","","","","","","","","","","","","","","","","","","","","","","","","","","","","","","","","","","","","","","","","","","","","","","","","","","","","","","","","","","","","","MET047ENFR 231150Z 14009KT 9999 SCT015 -00/-08 Q1033;","","","","","","","","","",""
"01001799999","2005-02-24T06:50:00","59.98","2.25","48.0","FRIGG, NO","FM-15","4","30.39","23","36","","","","","60","","","","6.15","","070","","15","","","","","","","","","","","","","","","","","","","","","","","","","","","","","","","","","","","","","","","","","","","","","","","","","","","","","","","","","","","","","","","","","","","","","","","","","","","","","","","","","","","","","","","","","","","MET040ENFR 240650Z 07013KT CAVOK 02/-05 Q1029;","","","","","","","","","",""
"01001799999","2005-02-24T07:50:00","59.98","2.25","48.0","FRIGG, NO","FM-15","4","30.39","21","37","","","","","52","","","","6.15","","070","","15","","","","","","","","","","","","","","","","","","","","","","","","","","","","","","","","","","","","","","","","","","","","","","","","","","","","","","","","","","","","","","","","","","","","","","","","","","","","","","","","","","","","","","","","","","","MET040ENFR 240750Z 07013KT CAVOK 03/-06 Q1029;","","","","","","","","","",""
"01001799999","2005-02-24T08:50:00","59.98","2.25","48.0","FRIGG, NO","FM-15","4","30.39","23","37","","","","","56","","","","6.15","","100","","14","","","","","","","","","","","","","","","","","","","","","","","","","","","","","","","","","","","","","","","","","","","","","","","","","","","","","","","","","","","","","","","","","","","","","","","","","","","","","","","","","","","","","","","","","","","MET040ENFR 240850Z 10012KT CAVOK 03/-05 Q1029;","","","","","","","","","",""
"01001799999","2005-02-24T09:50:00","59.98","2.25","48.0","FRIGG, NO","FM-15","4","30.39","21","37","","","","","52","","","","6.15","","110","","14","","","","","","","","","","","","","","","","","","","","","","","","","","","","","","","","","","","","","","","","","","","","","","","","","","","","","","","","","","","","","","","","","","","","","","","","","","","","","","","","","","","","","","","","","","","MET040ENFR 240950Z 11012KT CAVOK 03/-06 Q1029;","","","","","","","","","",""
"01001799999","2005-02-24T10:50:00","59.98","2.25","48.0","FRIGG, NO","FM-15","4","30.39","21","37","","","","","52","","","","6.15","","100","","10","","","","","","","","","","","","","","","","","","","","","","","","","","","","","","","","","","","","","","","","","","","","","","","","","","","","","","","","","","","","","","","","","","","","","","","","","","","","","","","","","","","","","","","","","","","MET040ENFR 241050Z 10009KT CAVOK 03/-06 Q1029;","","","","","","","","","",""
"01001799999","2005-02-24T11:50:00","59.98","2.25","48.0","FRIGG, NO","FM-15","4","30.39","23","37","","","","","56","","","","6.15","","090","","8","","","","","","","","","","","","","","","","","","","","","","","","","","","","","","","","","","","","","","","","","","","","","","","","","","","","","","","","","","","","","","","","","","","","","","","","","","","","","","","","","","","","","","","","","","","MET040ENFR 241150Z 09007KT CAVOK 03/-05 Q1029;","","","","","","","","","",""
"01001799999","2005-02-28T06:50:00","59.98","2.25","48.0","FRIGG, NO","FM-15","4","29.94","32","37","","","","","81","BKN:07 10","","","3.11","","320","","17","","","","","","","","","","","","","","","","","","","","","","","","","","","","","","","","","","","","","","","","","","","","","","","","","","","","","","","","","","","","","","","","","","","","","","","","","","","","","","","","","","","","","","","","","","","MET050ENFR 280650Z 32015KT 5000 BKN010 -RA 03/M00 Q1014;","","","","","","","","","",""
