"STATION","DATE","LATITUDE","LONGITUDE","ELEVATION","NAME","REPORT_TYPE","SOURCE","HourlyAltimeterSetting","HourlyDewPointTemperature","HourlyDryBulbTemperature","HourlyPrecipitation","HourlyPresentWeatherType","HourlyPressureChange","HourlyPressureTendency","HourlyRelativeHumidity","HourlySkyConditions","HourlySeaLevelPressure","HourlyStationPressure","HourlyVisibility","HourlyWetBulbTemperature","HourlyWindDirection","HourlyWindGustSpeed","HourlyWindSpeed","Sunrise","Sunset","DailyAverageDewPointTemperature","DailyAverageDryBulbTemperature","DailyAverageRelativeHumidity","DailyAverageSeaLevelPressure","DailyAverageStationPressure","DailyAverageWetBulbTemperature","DailyAverageWindSpeed","DailyCoolingDegreeDays","DailyDepartureFromNormalAverageTemperature","DailyHeatingDegreeDays","DailyMaximumDryBulbTemperature","DailyMinimumDryBulbTemperature","DailyPeakWindDirection","DailyPeakWindSpeed","DailyPrecipitation","DailySnowDepth","DailySnowfall","DailySustainedWindDirection","DailySustainedWindSpeed","DailyWeather","MonthlyAverageRH","MonthlyDaysWithGT001Precip","MonthlyDaysWithGT010Precip","MonthlyDaysWithGT32Temp","MonthlyDaysWithGT90Temp","MonthlyDaysWithLT0Temp","MonthlyDaysWithLT32Temp","MonthlyDepartureFromNormalAverageTemperature","MonthlyDepartureFromNormalCoolingDegreeDays","MonthlyDepartureFromNormalHeatingDegreeDays","MonthlyDepartureFromNormalMaximumTemperature","MonthlyDepartureFromNormalMinimumTemperature","MonthlyDepartureFromNormalPrecipitation","MonthlyDewpointTemperature","MonthlyGreatestPrecip","MonthlyGreatestPrecipDate","MonthlyGreatestSnowDepth","MonthlyGreatestSnowDepthDate","MonthlyGreatestSnowfall","MonthlyGreatestSnowfallDate","MonthlyMaxSeaLevelPressureValue","MonthlyMaxSeaLevelPressureValueDate","MonthlyMaxSeaLevelPressureValueTime","MonthlyMaximumTemperature","MonthlyMeanTemperature","MonthlyMinSeaLevelPressureValue","MonthlyMinSeaLevelPressureValueDate","MonthlyMinSeaLevelPressureValueTime","MonthlyMinimumTemperature","MonthlySeaLevelPressure","MonthlyStationPressure","MonthlyTotalLiquidPrecipitation","MonthlyTotalSnowfall","MonthlyWetBulb","AWND","CDSD","CLDD","DSNW","HDSD","HTDD","DYTS","DYHF","NormalsCoolingDegreeDay","NormalsHeatingDegreeDay","ShortDurationEndDate005","ShortDurationEndDate010","ShortDurationEndDate015","ShortDurationEndDate020","ShortDurationEndDate030","ShortDurationEndDate045","ShortDurationEndDate060","ShortDurationEndDate080","ShortDurationEndDate100","ShortDurationEndDate120","ShortDurationEndDate150","ShortDurationEndDate180","ShortDurationPrecipitationValue005","ShortDurationPrecipitationValue010","ShortDurationPrecipitationValue015","ShortDurationPrecipitationValue020","ShortDurationPrecipitationValue030","ShortDurationPrecipitationValue045","ShortDurationPrecipitationValue060","ShortDurationPrecipitationValue080","ShortDurationPrecipitationValue100","ShortDurationPrecipitationValue120","ShortDurationPrecipitationValue150","ShortDurationPrecipitationValue180","REM","BackupDirection","BackupDistance","BackupDistanceUnit","BackupElements","BackupElevation","BackupEquipment","BackupLatitude","BackupLongitude","BackupName","WindEquipmentChangeDate"
"01016099999","2010-10-06T10:00:00","78.9333333","28.9","20.0","KONGSOYA, NO","FM-12","4","","","33","","","-0.04","3","","","29.52","29.48","","","190","","4","","","","","","","","","","","","","","","","","","","","","","","","","","","","","","","","","","","","","","","","","","","","","","","","","","","","","","","","","","","","","","","","","","","","","","","","","","","","","","","","","","","","","","","","","","","SYN060AAXX  06091 01016 46/// /1902 10008 2//// 39982 49997 53014;","","","","","","","","","",""
"01016099999","2010-10-06T11:00:00","78.9333333","28.9","20.0","KONGSOYA, NO","FM-12","4","","","34","","","-0.03","3","","","29.53","29.48","","","060","","4","","","","","","","","","","","","","","","","","","","","","","","","","","","","","","","","","","","","","","","","","","","","","","","","","","","","","","","","","","","","","","","","","","","","","","","","","","","","","","","","","","","","","","","","","","","SYN060AAXX  06101 01016 46/// /0602 10010 2//// 39984 40000 53011;","","","","","","","","","",""
"01016099999","2010-10-06T12:00:00","78.9333333","28.9","20.0","KONGSOYA, NO","FM-12","4","","","33","","","-0.03","1","","","29.54","29.49","","","060","","9","","","","","","","","","","","","","","","","","","","","","","","","","","","","","","","","","","","","","","","","","","","","","","","","","","","","","","","","","","","","","","","","","","","","","","","","","","","","","","","","","","","","","","","","","","","SYN060AAXX  06111 01016 46/// /0604 10005 2//// 39987 40003 51009;","","","","","","","","","",""
"01016099999","2010-10-06T13:00:00","78.9333333","28.9","20.0","KONGSOYA, NO","FM-12","4","","","33","","","-0.03","3","","","29.53","29.49","","","060","","9","","","","","","","","","","","","","","","","","","","","","","","","","","","","","","","","","","","","","","","","","","","","","","","","","","","","","","","","","","","","","","","","","","","","","","","","","","","","","","","","","","","","","","","","","","","SYN070AAXX  06121 01016 46/// /0604 10005 2//// 39986 40001 53009 333 91105;","","","","","","","","","",""
"01016099999","2010-10-06T14:00:00","78.9333333","28.9","20.0","KONGSOYA, NO","FM-12","4","","","33","","","+0.01","5","","","29.53","29.48","","","070","","7","","","","","","","","","","","","","","","","","","","","","","","","","","","","","","","","","","","","","","","","","","","","","","","","","","","","","","","","","","","","","","","","","","","","","","","","","","","","","","","","","","","","","","","","","","","SYN060AAXX  06131 01016 46/// /0703 10007 2//// 39984 49999 55005;","","","","","","","","","",""
"01016099999","2010-10-06T15:00:00","78.9333333","28.9","20.0","KONGSOYA, NO","FM-12","4","","","33","","","+0.00","7","","","29.52","29.47","","","110","","9","","","","","","","","","","","","","","","","","","","","","","","","","","","","","","","","","","","","","","","","","","","","","","","","","","","","","","","","","","","","","","","","","","","","","","","","","","","","","","","","","","","","","","","","","","","SYN060AAXX  06141 01016 46/// /1104 10007 2//// 39981 49997 57001;","","","","","","","","","",""
"01016099999","2010-10-06T16:00:00","78.9333333","28.9","20.0","KONGSOYA, NO","FM-12","4","","","33","","","+0.01","7","","","29.52","29.47","","","110","","4","","","","","","","","","","","","","","","","","","","","","","","","","","","","","","","","","","","","","","","","","","","","","","","","","","","","","","","","","","","","","","","","","","","","","","","","","","","","","","","","","","","","","","","","","","","SYN060AAXX  06151 01016 46/// /1102 10007 2//// 39981 49996 57000;","","","","","","","","","",""
"01016099999","2010-10-06T17:00:00","78.9333333","28.9","20.0","KONGSOYA, NO","FM-12","4","","","33","","","+0.01","7","","","29.51","29.46","","","090","","4","","","","","","","","","","","","","","","","","","","","","","","","","","","","","","","","","","","","","","","","","","","","","","","","","","","","","","","","","","","","","","","","","","","","","","","","","","","","","","","","","","","","","","","","","","","SYN060AAXX  06161 01016 46/// /0902 10008 2//// 39977 49993 57002;","","","","","","","","","",""
"01016099999","2010-10-06T18:00:00","78.9333333","28.9","20.0","KONGSOYA, NO","FM-12","4","","","33","","","+0.01","7","","","29.50","29.45","","","110","","7","","","","","","","","","","","","","","","","","","","","","","","","","","","","","","","","","","","","","","","","","","","","","","","","","","","","","","","","","","","","","","","","","","","","","","","","","","","","","","","","","","","","","","","","","","","SYN060AAXX  06171 01016 46/// /1103 10007 2//// 39974 49990 57002;","","","","","","","","","",""
"01016099999","2010-10-06T19:00:00","78.9333333","28.9","20.0","KONGSOYA, NO","FM-12","4","","","33","","","+0.02","7","","","29.49","29.44","","","080","","7","","","","","","","","","","","","","","","","","","","","","","","","","","","","","","","","","","","","","","","","","","","","","","","","","","","","","","","","","","","","","","","","","","","","","","","","","","","","","","","","","","","","","","","","","","","SYN076AAXX  06181 01016 46/// /0803 10003 2//// 39970 49985 57006 333 10010 91105;","","","","","","","","","",""
"01016099999","2010-10-06T20:00:00","78.9333333","28.9","20.0","KONGSOYA, NO","FM-12","4","","","33","","","+0.02","7","","","29.48","29.43","","","070","","7","","","","","","","","","","","","","","","","","","","","","","","","","","","","","","","","","","","","","","","","","","","","","","","","","","","","","","","","","","","","","","","","","","","","","","","","","","","","","","","","","","","","","","","","","","","SYN060AAXX  06191 01016 46/// /0703 10004 2//// 39967 49982 57006;","","","","","","","","","",""
"01016099999","2010-10-06T21:00:00","78.9333333","28.9","20.0","KONGSOYA, NO","FM-12","4","","","33","","","+0.03","7","","","29.46","29.41","","","080","","9","","","","","","","","","","","","","","","","","","","","","","","","","","","","","","","","","","","","","","","","","","","","","","","","","","","","","","","","","","","","","","","","","","","","","","","","","","","","","","","","","","","","","","","","","","","SYN060AAXX  06201 01016 46/// /0804 10008 2//// 39960 49976 57009;","","","","","","","","","",""
"01016099999","2010-10-06T22:00:00","78.9333333","28.9","20.0","KONGSOYA, NO","FM-12","4","","","34","","","+0.04","6","","","29.43","29.39","","","090","","11","","","","","","","","","","","","","","","","","","","","","","","","","","","","","","","","","","","","","","","","","","","","","","","","","","","","","","","","","","","","","","","","","","","","","","","","","","","","","","","","","","","","","","","","","","","SYN060AAXX  06211 01016 46/// /0905 10009 2//// 39952 49967 56013;","","","","","","","","","",""
"01016099999","2010-10-06T23:00:00","78.9333333","28.9","20.0","KONGSOYA, NO","FM-12","4","","","33","","","+0.05","7","","","29.41","29.37","","","130","","11","","","","","","","","","","","","","","","","","","","","","","","","","","","","","","","","","","","","","","","","","","","","","","","","","","","","","","","","","","","","","","","","","","","","","","","","","","","","","","","","","","","","","","","","","","","SYN060AAXX  06221 01016 46/// /1305 10004 2//// 39945 49960 57017;","","","","","","","","","",""
"01016099999","2010-10-07T00:00:00","78.9333333","28.9","20.0","KONGSOYA, NO","FM-12","4","","","33","","","+0.05","7","","","29.39","29.34","","","140","","13","","","","","","","","","","","","","","","","","","","","","","","","","","","","","","","","","","","","","","","","","","","","","","","","","","","","","","","","","","","","","","","","","","","","","","","","","","","","","","","","","","","","","","","","","","","SYN060AAXX  06231 01016 46/// /1406 10003 2//// 39937 49952 57018;","","","","","","","","","",""
"01016099999","2010-10-07T01:00:00","78.9333333","28.9","20.0","KONGSOYA, NO","FM-12","4","","","33","","","+0.04","7","","","29.37","29.33","","","140","","11","","","","","","","","","","","","","","","","","","","","","","","","","","","","","","","","","","","","","","","","","","","","","","","","","","","","","","","","","","","","","","","","","","","","","","","","","","","","","","","","","","","","","","","","","","","SYN070AAXX  07001 01016 46/// /1405 10005 2//// 39931 49947 57015 333 91106;","","","","","","","","","",""
"01016099999","2010-10-07T02:00:00","78.9333333","28.9","20.0","KONGSOYA, NO","FM-12","4","","","34","","","+0.02","8","","","29.38","29.33","","","160","","11","","","","","","","","","","","","","","","","","","","","","","","","","","","","","","","","","","","","","","","","","","","","","","","","","","","","","","","","","","","","","","","","","","","","","","","","","","","","","","","","","","","","","","","","","","","SYN060AAXX  07011 01016 46/// /1605 10012 2//// 39932 49948 58007;","","","","","","","","","",""
"01016099999","2010-10-07T03:00:00","78.9333333","28.9","20.0","KONGSOYA, NO","FM-12","4","","","35","","","-0.01","0","","","29.38","29.34","","","200","","11","","","","","","","","","","","","","","","","","","","","","","","","","","","","","","","","","","","","","","","","","","","","","","","","","","","","","","","","","","","","","","","","","","","","","","","","","","","","","","","","","","","","","","","","","","","SYN060AAXX  07021 01016 46/// /2005 10016 2//// 39935 49950 50003;","","","","","","","","","",""
"01016099999","2010-10-07T04:00:00","78.9333333","28.9","20.0","KONGSOYA, NO","FM-12","4","","","35","","","-0.05","1","","","29.41","29.36","","","240","","9","","","","","","","","","","","","","","","","","","","","","","","","","","","","","","","","","","","","","","","","","","","","","","","","","","","","","","","","","","","","","","","","","","","","","","","","","","","","","","","","","","","","","","","","","","","SYN060AAXX  07031 01016 46/// /2404 10019 2//// 39944 49959 51018;","","","","","","","","","",""
"01016099999","2010-10-07T05:00:00","78.9333333","28.9","20.0","KONGSOYA, NO","FM-12","4","","","34","","","-0.06","2","","","29.42","29.38","","","120","","2","","","","","","","","","","","","","","","","","","","","","","","","","","","","","","","","","","","","","","","","","","","","","","","","","","","","","","","","","","","","","","","","","","","","","","","","","","","","","","","","","","","","","","","","","","","SYN060AAXX  07041 01016 46/// /1201 10013 2//// 39949 49964 52021;","","","","","","","","","",""
"01016099999","2010-10-07T06:00:00","78.9333333","28.9","20.0","KONGSOYA, NO","FM-12","4","","","33","","","-0.06","3","","","29.42","29.38","","","270","","9","","","","","","","","","","","","","","","","","","","","","","","","","","","","","","","","","","","","","","","","","","","","","","","","","","","","","","","","","","","","","","","","","","","","","","","","","","","","","","","","","","","","","","","","","","","SYN060AAXX  07051 01016 46/// /2704 10006 2//// 39949 49964 53019;","","","","","","","","","",""
"01016099999","2010-10-07T07:00:00","78.9333333","28.9","20.0","KONGSOYA, NO","FM-12","4","","","32","","","-0.05","2","","","29.44","29.40","","","210","","4","","","","","","","","","","","","","","","","","","","","","","","","","","","","","","","","","","","","","","","","","","","","","","","","","","","","","","","","","","","","","","","","","","","","","","","","","","","","","","","","","","","","","","","","","","","SYN076AAXX  07061 01016 46/// /2102 10002 2//// 39955 49971 52016 333 20002 91108;","","","","","","","","","",""
"01016099999","2010-10-07T08:00:00","78.9333333","28.9","20.0","KONGSOYA, NO","FM-12","4","","","36","","","-0.04","1","","","29.46","29.41","","","180","","9","","","","","","","","","","","","","","","","","","","","","","","","","","","","","","","","","","","","","","","","","","","","","","","","","","","","","","","","","","","","","","","","","","","","","","","","","","","","","","","","","","","","","","","","","","","SYN060AAXX  07071 01016 46/// /1804 10022 2//// 39959 49975 51015;","","","","","","","","","",""
"01016099999","2010-10-07T09:00:00","78.9333333","28.9","20.0","KONGSOYA, NO","FM-12","4","","","37","","","-0.05","3","","","29.46","29.41","","","230","","18","","","","","","","","","","","","","","","","","","","","","","","","","","","","","","","","","","","","","","","","","","","","","","","","","","","","","","","","","","","","","","","","","","","","","","","","","","","","","","","","","","","","","","","","","","","SYN060AAXX  07081 01016 46/// /2308 10030 2//// 39961 49977 53018;","","","","","","","","","",""
"01016099999","2010-10-07T10:00:00","78.9333333","28.9","20.0","KONGSOYA, NO","FM-12","4","","","37","","","-0.06","1","","","29.49","29.45","","","140","","9","","","","","","","","","","","","","","","","","","","","","","","","","","","","","","","","","","","","","","","","","","","","","","","","","","","","","","","","","","","","","","","","","","","","","","","","","","","","","","","","","","","","","","","","","","","SYN060AAXX  07091 01016 46/// /1404 10028 2//// 39972 49988 51022;","","","","","","","","","",""
"01016099999","2010-10-07T11:00:00","78.9333333","28.9","20.0","KONGSOYA, NO","FM-12","4","","","38","","","-0.06","2","","","29.51","29.46","","","260","","9","","","","","","","","","","","","","","","","","","","","","","","","","","","","","","","","","","","","","","","","","","","","","","","","","","","","","","","","","","","","","","","","","","","","","","","","","","","","","","","","","","","","","","","","","","","SYN060AAXX  07101 01016 46/// /2604 10031 2//// 39976 49992 52022;","","","","","","","","","",""
"01016099999","2010-10-07T12:00:00","78.9333333","28.9","20.0","KONGSOYA, NO","FM-12","4","","","37","","","-0.07","3","","","29.52","29.47","","","270","","11","","","","","","","","","","","","","","","","","","","","","","","","","","","","","","","","","","","","","","","","","","","","","","","","","","","","","","","","","","","","","","","","","","","","","","","","","","","","","","","","","","","","","","","","","","","SYN060AAXX  07111 01016 46/// /2705 10026 2//// 39981 49996 53025;","","","","","","","","","",""
"01016099999","2010-10-07T13:00:00","78.9333333","28.9","20.0","KONGSOYA, NO","FM-12","4","","","38","","","-0.04","2","","","29.52","29.48","","","120","","2","","","","","","","","","","","","","","","","","","","","","","","","","","","","","","","","","","","","","","","","","","","","","","","","","","","","","","","","","","","","","","","","","","","","","","","","","","","","","","","","","","","","","","","","","","","SYN070AAXX  07121 01016 46/// /1201 10032 2//// 39982 49998 52015 333 91109;","","","","","","","","","",""
"01016099999","2010-10-07T14:00:00","78.9333333","28.9","20.0","KONGSOYA, NO","FM-12","4","","","34","","","-0.04","2","","","29.53","29.48","","","140","","9","","","","","","","","","","","","","","","","","","","","","","","","","","","","","","","","","","","","","","","","","","","","","","","","","","","","","","","","","","","","","","","","","","","","","","","","","","","","","","","","","","","","","","","","","","","SYN060AAXX  07131 01016 46/// /1404 10013 2//// 39984 40000 52013;","","","","","","","","","",""
"01016099999","2010-10-07T15:00:00","78.9333333","28.9","20.0","KONGSOYA, NO","FM-12","4","","","34","","","0.00","4","","","29.53","29.48","","","150","","9","","","","","","","","","","","","","","","","","","","","","","","","","","","","","","","","","","","","","","","","","","","","","","","","","","","","","","","","","","","","","","","","","","","","","","","","","","","","","","","","","","","","","","","","","","","SYN060AAXX  07141 01016 46/// /1504 10012 2//// 39984 49999 54008;","","","","","","","","","",""
"01016099999","2010-10-07T16:00:00","78.9333333","28.9","20.0","KONGSOYA, NO","FM-12","4","","","34","","","+0.01","5","","","29.52","29.48","","","150","","7","","","","","","","","","","","","","","","","","","","","","","","","","","","","","","","","","","","","","","","","","","","","","","","","","","","","","","","","","","","","","","","","","","","","","","","","","","","","","","","","","","","","","","","","","","","SYN060AAXX  07151 01016 46/// /1503 10010 2//// 39982 49998 55005;","","","","","","","","","",""
"01016099999","2010-10-07T17:00:00","78.9333333","28.9","20.0","KONGSOYA, NO","FM-12","4","","","33","","","0.00","4","","","29.52","29.47","","","140","","9","","","","","","","","","","","","","","","","","","","","","","","","","","","","","","","","","","","","","","","","","","","","","","","","","","","","","","","","","","","","","","","","","","","","","","","","","","","","","","","","","","","","","","","","","","","SYN060AAXX  07161 01016 46/// /1404 10006 2//// 39981 49997 54002;","","","","","","","","","",""
"01016099999","2010-10-07T19:00:00","78.9333333","28.9","20.0","KONGSOYA, NO","FM-12","4","","","32","","","0.00","4","","","29.52","29.47","","","130","","7","","","","","","","","","","","","","","","","","","","","","","","","","","","","","","","","","","","","","","","","","","","","","","","","","","","","","","","","","","","","","","","","","","","","","","","","","","","","","","","","","","","","","","","","","","","SYN076AAXX  07181 01016 46/// /1303 11002 2//// 39980 49996 54003 333 10039 91105;","","","","","","","","","",""
"01016099999","2010-10-08T01:00:00","78.9333333","28.9","20.0","KONGSOYA, NO","FM-12","4","","","31","","","0.00","4","","","29.52","29.47","","","150","","9","","","","","","","","","","","","","","","","","","","","","","","","","","","","","","","","","","","","","","","","","","","","","","","","","","","","","","","","","","","","","","","","","","","","","","","","","","","","","","","","","","","","","","","","","","","SYN070AAXX  08001 01016 46/// /1504 11004 2//// 39980 49995 54003 333 91104;","","","","","","","","","",""
"01016099999","2010-10-08T07:00:00","78.9333333","28.9","20.0","KONGSOYA, NO","FM-12","4","","","31","","","-0.04","2","","","29.56","29.52","","","120","","7","","","","","","","","","","","","","","","","","","","","","","","","","","","","","","","","","","","","","","","","","","","","","","","","","","","","","","","","","","","","","","","","","","","","","","","","","","","","","","","","","","","","","","","","","","","SYN076AAXX  08061 01016 46/// /1203 11003 2//// 39996 40011 52012 333 21009 91105;","","","","","","","","","",""
"01016099999","2010-10-08T08:00:00","78.9333333","28.9","20.0","KONGSOYA, NO","FM-12","4","","","32","","","-0.03","2","","","29.57","29.52","","","120","","4","","","","","","","","","","","","","","","","","","","","","","","","","","","","","","","","","","","","","","","","","","","","","","","","","","","","","","","","","","","","","","","","","","","","","","","","","","","","","","","","","","","","","","","","","","","SYN060AAXX  08071 01016 46/// /1202 10002 2//// 39998 40013 52011;","","","","","","","","","",""
"01016099999","2010-10-08T11:00:00","78.9333333","28.9","20.0","KONGSOYA, NO","FM-12","4","","","32","","","-0.04","2","","","29.59","29.54","","","140","","11","","","","","","","","","","","","","","","","","","","","","","","","","","","","","","","","","","","","","","","","","","","","","","","","","","","","","","","","","","","","","","","","","","","","","","","","","","","","","","","","","","","","","","","","","","","SYN060AAXX  08101 01016 46/// /1405 10000 2//// 30005 40021 52013;","","","","","","","","","",""
"01016099999","2010-10-08T12:00:00","78.9333333","28.9","20.0","KONGSOYA, NO","FM-12","4","","","33","","","-0.03","2","","","29.59","29.54","","","130","","9","","","","","","","","","","","","","","","","","","","","","","","","","","","","","","","","","","","","","","","","","","","","","","","","","","","","","","","","","","","","","","","","","","","","","","","","","","","","","","","","","","","","","","","","","","","SYN060AAXX  08111 01016 46/// /1304 10003 2//// 30005 40021 52009;","","","","","","","","","",""
"01016099999","2010-10-08T13:00:00","78.9333333","28.9","20.0","KONGSOYA, NO","FM-12","4","","","33","","","0.00","4","","","29.59","29.55","","","110","","4","","","","","","","","","","","","","","","","","","","","","","","","","","","","","","","","","","","","","","","","","","","","","","","","","","","","","","","","","","","","","","","","","","","","","","","","","","","","","","","","","","","","","","","","","","","SYN070AAXX  08121 01016 46/// /1102 10006 2//// 30006 40021 54008 333 91106;","","","","","","","","","",""
"01016099999","2010-10-08T14:00:00","78.9333333","28.9","20.0","KONGSOYA, NO","FM-12","4","","","33","","","0.00","4","","","29.59","29.54","","","110","","4","","","","","","","","","","","","","","","","","","","","","","","","","","","","","","","","","","","","","","","","","","","","","","","","","","","","","","","","","","","","","","","","","","","","","","","","","","","","","","","","","","","","","","","","","","","SYN060AAXX  08131 01016 46/// /1102 10007 2//// 30005 40020 54004;","","","","","","","","","",""
"01016099999","2010-10-08T15:00:00","78.9333333","28.9","20.0","KONGSOYA, NO","FM-12","4","","","34","","","+0.01","7","","","29.58","29.54","","","090","","9","","","","","","","","","","","","","","","","","","","","","","","","","","","","","","","","","","","","","","","","","","","","","","","","","","","","","","","","","","","","","","","","","","","","","","","","","","","","","","","","","","","","","","","","","","","SYN060AAXX  08141 01016 46/// /0904 10013 2//// 30002 40018 57002;","","","","","","","","","",""
"01016099999","2010-10-08T16:00:00","78.9333333","28.9","20.0","KONGSOYA, NO","FM-12","4","","","34","","","+0.00","7","","","29.58","29.54","","","080","","9","","","","","","","","","","","","","","","","","","","","","","","","","","","","","","","","","","","","","","","","","","","","","","","","","","","","","","","","","","","","","","","","","","","","","","","","","","","","","","","","","","","","","","","","","","","SYN060AAXX  08151 01016 46/// /0804 10013 2//// 30002 40018 57001;","","","","","","","","","",""
"01016099999","2010-10-08T17:00:00","78.9333333","28.9","20.0","KONGSOYA, NO","FM-12","4","","","36","","","0.00","4","","","29.58","29.54","","","070","","9","","","","","","","","","","","","","","","","","","","","","","","","","","","","","","","","","","","","","","","","","","","","","","","","","","","","","","","","","","","","","","","","","","","","","","","","","","","","","","","","","","","","","","","","","","","SYN060AAXX  08161 01016 46/// /0704 10022 2//// 30002 40018 54003;","","","","","","","","","",""
"01016099999","2010-10-08T18:00:00","78.9333333","28.9","20.0","KONGSOYA, NO","FM-12","4","","","35","","","0.00","4","","","29.58","29.53","","","100","","11","","","","","","","","","","","","","","","","","","","","","","","","","","","","","","","","","","","","","","","","","","","","","","","","","","","","","","","","","","","","","","","","","","","","","","","","","","","","","","","","","","","","","","","","","","","SYN060AAXX  08171 01016 46/// /1005 10018 2//// 30001 40017 54004;","","","","","","","","","",""
"01016099999","2010-10-08T19:00:00","78.9333333","28.9","20.0","KONGSOYA, NO","FM-12","4","","","35","","","0.00","4","","","29.58","29.53","","","080","","7","","","","","","","","","","","","","","","","","","","","","","","","","","","","","","","","","","","","","","","","","","","","","","","","","","","","","","","","","","","","","","","","","","","","","","","","","","","","","","","","","","","","","","","","","","","SYN076AAXX  08181 01016 46/// /0803 10015 2//// 30001 40016 54003 333 10023 91106;","","","","","","","","","",""
"01016099999","2010-10-08T20:00:00","78.9333333","28.9","20.0","KONGSOYA, NO","FM-12","4","","","33","","","0.00","4","","","29.58","29.53","","","050","","7","","","","","","","","","","","","","","","","","","","","","","","","","","","","","","","","","","","","","","","","","","","","","","","","","","","","","","","","","","","","","","","","","","","","","","","","","","","","","","","","","","","","","","","","","","","SYN060AAXX  08191 01016 46/// /0503 10007 2//// 30001 40017 54004;","","","","","","","","","",""
"01016099999","2010-10-08T21:00:00","78.9333333","28.9","20.0","KONGSOYA, NO","FM-12","4","","","33","","","0.00","4","","","29.57","29.53","","","060","","9","","","","","","","","","","","","","","","","","","","","","","","","","","","","","","","","","","","","","","","","","","","","","","","","","","","","","","","","","","","","","","","","","","","","","","","","","","","","","","","","","","","","","","","","","","","SYN060AAXX  08201 01016 46/// /0604 10004 2//// 39999 40015 54003;","","","","","","","","","",""
"01016099999","2010-10-08T22:00:00","78.9333333","28.9","20.0","KONGSOYA, NO","FM-12","4","","","33","","","0.00","4","","","29.57","29.52","","","060","","11","","","","","","","","","","","","","","","","","","","","","","","","","","","","","","","","","","","","","","","","","","","","","","","","","","","","","","","","","","","","","","","","","","","","","","","","","","","","","","","","","","","","","","","","","","","SYN060AAXX  08211 01016 46/// /0605 10004 2//// 39998 40014 54003;","","","","","","","","","",""
"01016099999","2010-10-08T23:00:00","78.9333333","28.9","20.0","KONGSOYA, NO","FM-12","4","","","33","","","0.00","4","","","29.57","29.53","","","050","","11","","","","","","","","","","","","","","","","","","","","","","","","","","","","","","","","","","","","","","","","","","","","","","","","","","","","","","","","","","","","","","","","","","","","","","","","","","","","","","","","","","","","","","","","","","","SYN060AAXX  08221 01016 46/// /0505 10004 2//// 39999 40014 54003;","","","","","","","","","",""
"01016099999","2010-10-09T00:00:00","78.9333333","28.9","20.0","KONGSOYA, NO","FM-12","4","","","33","","","0.00","4","","","29.57","29.52","","","050","","9","","","","","","","","","","","","","","","","","","","","","","","","","","","","","","","","","","","","","","","","","","","","","","","","","","","","","","","","","","","","","","","","","","","","","","","","","","","","","","","","","","","","","","","","","","","SYN060AAXX  08231 01016 46/// /0504 10003 2//// 39998 40013 54004;","","","","","","","","","",""
"01016099999","2010-10-09T01:00:00","78.9333333","28.9","20.0","KONGSOYA, NO","FM-12","4","","","33","","","0.00","4","","","29.57","29.52","","","060","","13","","","","","","","","","","","","","","","","","","","","","","","","","","","","","","","","","","","","","","","","","","","","","","","","","","","","","","","","","","","","","","","","","","","","","","","","","","","","","","","","","","","","","","","","","","","SYN070AAXX  09001 01016 46/// /0606 10003 2//// 39997 40013 54004 333 91106;","","","","","","","","","",""
"01016099999","2010-10-09T02:00:00","78.9333333","28.9","20.0","KONGSOYA, NO","FM-12","4","","","33","","","0.00","4","","","29.57","29.52","","","070","","13","","","","","","","","","","","","","","","","","","","","","","","","","","","","","","","","","","","","","","","","","","","","","","","","","","","","","","","","","","","","","","","","","","","","","","","","","","","","","","","","","","","","","","","","","","","SYN060AAXX  09011 01016 46/// /0706 10003 2//// 39998 40013 54004;","","","","","","","","","",""
"01016099999","2010-10-09T03:00:00","78.9333333","28.9","20.0","KONGSOYA, NO","FM-12","4","","","33","","","0.00","4","","","29.57","29.53","","","070","","11","","","","","","","","","","","","","","","","","","","","","","","","","","","","","","","","","","","","","","","","","","","","","","","","","","","","","","","","","","","","","","","","","","","","","","","","","","","","","","","","","","","","","","","","","","","SYN060AAXX  09021 01016 46/// /0705 10003 2//// 30000 40015 54007;","","","","","","","","","",""
"01016099999","2010-10-09T04:00:00","78.9333333","28.9","20.0","KONGSOYA, NO","FM-12","4","","","33","","","0.00","4","","","29.57","29.53","","","070","","13","","","","","","","","","","","","","","","","","","","","","","","","","","","","","","","","","","","","","","","","","","","","","","","","","","","","","","","","","","","","","","","","","","","","","","","","","","","","","","","","","","","","","","","","","","","SYN060AAXX  09031 01016 46/// /0706 10004 2//// 30000 40015 54008;","","","","","","","","","",""
"01016099999","2010-10-09T05:00:00","78.9333333","28.9","20.0","KONGSOYA, NO","FM-12","4","","","32","","","0.00","4","","","29.57","29.53","","","060","","16","","","","","","","","","","","","","","","","","","","","","","","","","","","","","","","","","","","","","","","","","","","","","","","","","","","","","","","","","","","","","","","","","","","","","","","","","","","","","","","","","","","","","","","","","","","SYN060AAXX  09041 01016 46/// /0607 10002 2//// 39999 40015 54007;","","","","","","","","","",""
"01016099999","2010-10-09T06:00:00","78.9333333","28.9","20.0","KONGSOYA, NO","FM-12","4","","","32","","","0.00","4","","","29.58","29.53","","","060","","18","","","","","","","","","","","","","","","","","","","","","","","","","","","","","","","","","","","","","","","","","","","","","","","","","","","","","","","","","","","","","","","","","","","","","","","","","","","","","","","","","","","","","","","","","","","SYN060AAXX  09051 01016 46/// /0608 10001 2//// 30000 40016 54006;","","","","","","","","","",""
"01016099999","2010-10-09T07:00:00","78.9333333","28.9","20.0","KONGSOYA, NO","FM-12","4","","","32","","","0.00","4","","","29.58","29.54","","","060","","18","","","","","","","","","","","","","","","","","","","","","","","","","","","","","","","","","","","","","","","","","","","","","","","","","","","","","","","","","","","","","","","","","","","","","","","","","","","","","","","","","","","","","","","","","","","SYN076AAXX  09061 01016 46/// /0608 10001 2//// 30002 40017 54007 333 20001 91109;","","","","","","","","","",""
"01016099999","2010-10-09T08:00:00","78.9333333","28.9","20.0","KONGSOYA, NO","FM-12","4","","","32","","","-0.03","2","","","29.59","29.54","","","060","","20","","","","","","","","","","","","","","","","","","","","","","","","","","","","","","","","","","","","","","","","","","","","","","","","","","","","","","","","","","","","","","","","","","","","","","","","","","","","","","","","","","","","","","","","","","","SYN060AAXX  09071 01016 46/// /0609 10000 2//// 30003 40019 52009;","","","","","","","","","",""
"01016099999","2010-10-09T09:00:00","78.9333333","28.9","20.0","KONGSOYA, NO","FM-12","4","","","32","","","-0.03","2","","","29.59","29.54","","","060","","18","","","","","","","","","","","","","","","","","","","","","","","","","","","","","","","","","","","","","","","","","","","","","","","","","","","","","","","","","","","","","","","","","","","","","","","","","","","","","","","","","","","","","","","","","","","SYN060AAXX  09081 01016 46/// /0608 10000 2//// 30005 40020 52010;","","","","","","","","","",""
"01016099999","2010-10-09T10:00:00","78.9333333","28.9","20.0","KONGSOYA, NO","FM-12","4","","","32","","","-0.03","2","","","29.59","29.55","","","050","","16","","","","","","","","","","","","","","","","","","","","","","","","","","","","","","","","","","","","","","","","","","","","","","","","","","","","","","","","","","","","","","","","","","","","","","","","","","","","","","","","","","","","","","","","","","","SYN060AAXX  09091 01016 46/// /0507 10000 2//// 30007 40022 52010;","","","","","","","","","",""
"01016099999","2010-10-09T13:00:00","78.9333333","28.9","20.0","KONGSOYA, NO","FM-12","4","","","30","","","-0.03","2","","","29.61","29.56","","","040","","22","","","","","","","","","","","","","","","","","","","","","","","","","","","","","","","","","","","","","","","","","","","","","","","","","","","","","","","","","","","","","","","","","","","","","","","","","","","","","","","","","","","","","","","","","","","SYN070AAXX  09121 01016 46/// /0410 11010 2//// 30010 40026 52009 333 91111;","","","","","","","","","",""
"01016099999","2010-10-09T19:00:00","78.9333333","28.9","20.0","KONGSOYA, NO","FM-12","4","","","30","","","-0.04","2","","","29.65","29.61","","","030","","16","","","","","","","","","","","","","","","","","","","","","","","","","","","","","","","","","","","","","","","","","","","","","","","","","","","","","","","","","","","","","","","","","","","","","","","","","","","","","","","","","","","","","","","","","","","SYN076AAXX  09181 01016 46/// /0307 11010 2//// 30026 40042 52012 333 10001 91111;","","","","","","","","","",""
"01016099999","2010-10-10T01:00:00","78.9333333","28.9","20.0","KONGSOYA, NO","FM-12","4","","","29","","","-0.05","1","","","29.72","29.67","","","020","","11","","","","","","","","","","","","","","","","","","","","","","","","","","","","","","","","","","","","","","","","","","","","","","","","","","","","","","","","","","","","","","","","","","","","","","","","","","","","","","","","","","","","","","","","","","","SYN070AAXX  10001 01016 46/// /0205 11019 2//// 30048 40064 51017 333 91108;","","","","","","","","","",""
"01016099999","2010-10-10T07:00:00","78.9333333","28.9","20.0","KONGSOYA, NO","FM-12","4","","","31","","","-0.03","2","","","29.75","29.70","","","040","","16","","","","","","","","","","","","","","","","","","","","","","","","","","","","","","","","","","","","","","","","","","","","","","","","","","","","","","","","","","","","","","","","","","","","","","","","","","","","","","","","","","","","","","","","","","","SYN076AAXX  10061 01016 46/// /0407 11007 2//// 30058 40074 52011 333 21022 91108;","","","","","","","","","",""
"01016099999","2010-10-10T19:00:00","78.9333333","28.9","20.0","KONGSOYA, NO","FM-12","4","","","31","","","0.00","4","","","29.82","29.77","","","030","","11","","","","","","","","","","","","","","","","","","","","","","","","","","","","","","","","","","","","","","","","","","","","","","","","","","","","","","","","","","","","","","","","","","","","","","","","","","","","","","","","","","","","","","","","","","","SYN070AAXX  10181 01016 46/// /0305 11007 2//// 30081 40097 54003 333 91107;","","","","","","","","","",""
"01016099999","2010-10-11T01:00:00","78.9333333","28.9","20.0","KONGSOYA, NO","FM-12","4","","","30","","","+0.02","7","","","29.75","29.70","","","050","","22","","","","","","","","","","","","","","","","","","","","","","","","","","","","","","","","","","","","","","","","","","","","","","","","","","","","","","","","","","","","","","","","","","","","","","","","","","","","","","","","","","","","","","","","","","","SYN070AAXX  11001 01016 46/// /0510 11011 2//// 30059 40074 57008 333 91111;","","","","","","","","","",""
"01016099999","2010-10-11T07:00:00","78.9333333","28.9","20.0","KONGSOYA, NO","FM-12","4","","","30","","","-0.03","2","","","29.75","29.70","","","030","","25","","","","","","","","","","","","","","","","","","","","","","","","","","","","","","","","","","","","","","","","","","","","","","","","","","","","","","","","","","","","","","","","","","","","","","","","","","","","","","","","","","","","","","","","","","","SYN076AAXX  11061 01016 46/// /0311 11009 2//// 30058 40074 52009 333 21014 91114;","","","","","","","","","",""
"01016099999","2010-10-11T13:00:00","78.9333333","28.9","20.0","KONGSOYA, NO","FM-12","4","","","30","","","-0.06","2","","","29.82","29.77","","","040","","31","","","","","","","","","","","","","","","","","","","","","","","","","","","","","","","","","","","","","","","","","","","","","","","","","","","","","","","","","","","","","","","","","","","","","","","","","","","","","","","","","","","","","","","","","","","SYN070AAXX  11121 01016 46/// /0414 11009 2//// 30082 40098 52021 333 91117;","","","","","","","","","",""
"01016099999","2010-10-11T19:00:00","78.9333333","28.9","20.0","KONGSOYA, NO","FM-12","4","","","30","","","-0.08","2","","","29.93","29.88","","","040","","31","","","","","","","","","","","","","","","","","","","","","","","","","","","","","","","","","","","","","","","","","","","","","","","","","","","","","","","","","","","","","","","","","","","","","","","","","","","","","","","","","","","","","","","","","","","SYN076AAXX  11181 01016 46/// /0414 11011 2//// 30120 40136 52028 333 11007 91118;","","","","","","","","","",""
"01016099999","2010-10-12T01:00:00","78.9333333","28.9","20.0","KONGSOYA, NO","FM-12","4","","","30","","","-0.05","2","","","30.01","29.96","","","050","","25","","","","","","","","","","","","","","","","","","","","","","","","","","","","","","","","","","","","","","","","","","","","","","","","","","","","","","","","","","","","","","","","","","","","","","","","","","","","","","","","","","","","","","","","","","","SYN070AAXX  12001 01016 46/// /0511 11011 2//// 30147 40163 52017 333 91117;","","","","","","","","","",""
"01016099999","2010-10-12T07:00:00","78.9333333","28.9","20.0","KONGSOYA, NO","FM-12","4","","","29","","","-0.04","2","","","30.07","30.02","","","030","","25","","","","","","","","","","","","","","","","","","","","","","","","","","","","","","","","","","","","","","","","","","","","","","","","","","","","","","","","","","","","","","","","","","","","","","","","","","","","","","","","","","","","","","","","","","","SYN076AAXX  12061 01016 46/// /0311 11015 2//// 30166 40182 52013 333 21019 91113;","","","","","","","","","",""
"01016099999","2010-10-12T13:00:00","78.9333333","28.9","20.0","KONGSOYA, NO","FM-12","4","","","28","","","0.00","4","","","30.07","30.02","","","050","","22","","","","","","","","","","","","","","","","","","","","","","","","","","","","","","","","","","","","","","","","","","","","","","","","","","","","","","","","","","","","","","","","","","","","","","","","","","","","","","","","","","","","","","","","","","","SYN070AAXX  12121 01016 46/// /0510 11020 2//// 30166 40182 54003 333 91113;","","","","","","","","","",""
"01016099999","2010-10-12T19:00:00","78.9333333","28.9","20.0","KONGSOYA, NO","FM-12","4","","","29","","","0.00","4","","","30.07","30.02","","","040","","20","","","","","","","","","","","","","","","","","","","","","","","","","","","","","","","","","","","","","","","","","","","","","","","","","","","","","","","","","","","","","","","","","","","","","","","","","","","","","","","","","","","","","","","","","","","SYN076AAXX  12181 01016 46/// /0409 11015 2//// 30167 40183 54003 333 11014 91113;","","","","","","","","","",""
"01016099999","2010-10-13T01:00:00","78.9333333","28.9","20.0","KONGSOYA, NO","FM-12","4","","","29","","","+0.00","7","","","30.05","30.00","","","040","","22","","","","","","","","","","","","","","","","","","","","","","","","","","","","","","","","","","","","","","","","","","","","","","","","","","","","","","","","","","","","","","","","","","","","","","","","","","","","","","","","","","","","","","","","","","","SYN070AAXX  13001 01016 46/// /0410 11018 2//// 30160 40176 57001 333 91112;","","","","","","","","","",""
"01016099999","2010-10-13T07:00:00","78.9333333","28.9","20.0","KONGSOYA, NO","FM-12","4","","","28","","","+0.01","5","","","30.03","29.98","","","050","","25","","","","","","","","","","","","","","","","","","","","","","","","","","","","","","","","","","","","","","","","","","","","","","","","","","","","","","","","","","","","","","","","","","","","","","","","","","","","","","","","","","","","","","","","","","","SYN076AAXX  13061 01016 46/// /0511 11022 2//// 30153 40169 55003 333 21029 91113;","","","","","","","","","",""
"01016099999","2010-10-13T19:00:00","78.9333333","28.9","20.0","KONGSOYA, NO","FM-12","4","","","26","","","+0.02","5","","","30.01","29.96","","","020","","22","","","","","","","","","","","","","","","","","","","","","","","","","","","","","","","","","","","","","","","","","","","","","","","","","","","","","","","","","","","","","","","","","","","","","","","","","","","","","","","","","","","","","","","","","","","SYN070AAXX  13181 01016 46/// /0210 11032 2//// 30147 40163 55006 333 91113;","","","","","","","","","",""
"01016099999","2010-10-14T01:00:00","78.9333333","28.9","20.0","KONGSOYA, NO","FM-12","4","","","26","","","+0.00","7","","","29.97","29.92","","","020","","18","","","","","","","","","","","","","","","","","","","","","","","","","","","","","","","","","","","","","","","","","","","","","","","","","","","","","","","","","","","","","","","","","","","","","","","","","","","","","","","","","","","","","","","","","","","SYN070AAXX  14001 01016 46/// /0208 11032 2//// 30132 40148 57001 333 91111;","","","","","","","","","",""
"01016099999","2010-10-14T07:00:00","78.9333333","28.9","20.0","KONGSOYA, NO","FM-12","4","","","25","","","+0.01","7","","","29.92","29.87","","","","","","","","","","","","","","","","","","","","","","","","","","","","","","","","","","","","","","","","","","","","","","","","","","","","","","","","","","","","","","","","","","","","","","","","","","","","","","","","","","","","","","","","","","","","","","","","SYN076AAXX  14061 01016 46/// ///// 11037 2//// 30115 40131 57005 333 21040 91110;","","","","","","","","","",""
"01016099999","2010-10-14T13:00:00","78.9333333","28.9","20.0","KONGSOYA, NO","FM-12","4","","","25","","","+0.00","7","","","29.88","29.84","","","350","","16","","","","","","","","","","","","","","","","","","","","","","","","","","","","","","","","","","","","","","","","","","","","","","","","","","","","","","","","","","","","","","","","","","","","","","","","","","","","","","","","","","","","","","","","","","","SYN070AAXX  14121 01016 46/// /3507 11039 2//// 30104 40120 57001 333 91110;","","","","","","","","","",""
"01016099999","2010-10-14T19:00:00","78.9333333","28.9","20.0","KONGSOYA, NO","FM-12","4","","","25","","","+0.01","7","","","29.84","29.79","","","360","","18","","","","","","","","","","","","","","","","","","","","","","","","","","","","","","","","","","","","","","","","","","","","","","","","","","","","","","","","","","","","","","","","","","","","","","","","","","","","","","","","","","","","","","","","","","","SYN076AAXX  14181 01016 46/// /3608 11041 2//// 30089 40105 57002 333 11033 91111;","","","","","","","","","",""
"01016099999","2010-10-15T01:00:00","78.9333333","28.9","20.0","KONGSOYA, NO","FM-12","4","","","24","","","+0.02","7","","","29.77","29.72","","","360","","20","","","","","","","","","","","","","","","","","","","","","","","","","","","","","","","","","","","","","","","","","","","","","","","","","","","","","","","","","","","","","","","","","","","","","","","","","","","","","","","","","","","","","","","","","","","SYN070AAXX  15001 01016 46/// /3609 11043 2//// 30065 40081 57008 333 91111;","","","","","","","","","",""
"01016099999","2010-10-15T07:00:00","78.9333333","28.9","20.0","KONGSOYA, NO","FM-12","4","","","25","","","+0.02","7","","","29.71","29.66","","","360","","22","","","","","","","","","","","","","","","","","","","","","","","","","","","","","","","","","","","","","","","","","","","","","","","","","","","","","","","","","","","","","","","","","","","","","","","","","","","","","","","","","","","","","","","","","","","SYN076AAXX  15061 01016 46/// /3610 11039 2//// 30045 40061 57007 333 21045 91113;","","","","","","","","","",""
"01016099999","2010-10-15T13:00:00","78.9333333","28.9","20.0","KONGSOYA, NO","FM-12","4","","","22","","","0.00","4","","","29.71","29.66","","","350","","27","","","","","","","","","","","","","","","","","","","","","","","","","","","","","","","","","","","","","","","","","","","","","","","","","","","","","","","","","","","","","","","","","","","","","","","","","","","","","","","","","","","","","","","","","","","SYN070AAXX  15121 01016 46/// /3512 11057 2//// 30045 40061 54007 333 91116;","","","","","","","","","",""
"01016099999","2010-10-15T19:00:00","78.9333333","28.9","20.0","KONGSOYA, NO","FM-12","4","","","18","","","+0.00","7","","","29.69","29.65","","","350","","27","","","","","","","","","","","","","","","","","","","","","","","","","","","","","","","","","","","","","","","","","","","","","","","","","","","","","","","","","","","","","","","","","","","","","","","","","","","","","","","","","","","","","","","","","","","SYN076AAXX  15181 01016 46/// /3512 11075 2//// 30039 40055 57001 333 11038 91115;","","","","","","","","","",""
"01016099999","2010-10-16T01:00:00","78.9333333","28.9","20.0","KONGSOYA, NO","FM-12","4","","","17","","","+0.01","6","","","29.67","29.62","","","360","","18","","","","","","","","","","","","","","","","","","","","","","","","","","","","","","","","","","","","","","","","","","","","","","","","","","","","","","","","","","","","","","","","","","","","","","","","","","","","","","","","","","","","","","","","","","","SYN070AAXX  16001 01016 46/// /3608 11082 2//// 30031 40047 56002 333 91115;","","","","","","","","","",""
"01016099999","2010-10-16T07:00:00","78.9333333","28.9","20.0","KONGSOYA, NO","FM-12","4","","","18","","","+0.00","8","","","29.64","29.59","","","350","","13","","","","","","","","","","","","","","","","","","","","","","","","","","","","","","","","","","","","","","","","","","","","","","","","","","","","","","","","","","","","","","","","","","","","","","","","","","","","","","","","","","","","","","","","","","","SYN076AAXX  16061 01016 46/// /3506 11075 2//// 30022 40038 58001 333 21083 91112;","","","","","","","","","",""
"01016099999","2010-10-16T13:00:00","78.9333333","28.9","20.0","KONGSOYA, NO","FM-12","4","","","18","","","-0.02","2","","","29.65","29.61","","","340","","13","","","","","","","","","","","","","","","","","","","","","","","","","","","","","","","","","","","","","","","","","","","","","","","","","","","","","","","","","","","","","","","","","","","","","","","","","","","","","","","","","","","","","","","","","","","SYN070AAXX  16121 01016 46/// /3406 11075 2//// 30026 40042 52008 333 91109;","","","","","","","","","",""
"01016099999","2010-10-16T19:00:00","78.9333333","28.9","20.0","KONGSOYA, NO","FM-12","4","","","18","","","+0.00","7","","","29.65","29.61","","","360","","9","","","","","","","","","","","","","","","","","","","","","","","","","","","","","","","","","","","","","","","","","","","","","","","","","","","","","","","","","","","","","","","","","","","","","","","","","","","","","","","","","","","","","","","","","","","SYN076AAXX  16181 01016 46/// /3604 11080 2//// 30026 40042 57001 333 11069 91107;","","","","","","","","","",""
"01016099999","2010-10-17T01:00:00","78.9333333","28.9","20.0","KONGSOYA, NO","FM-12","4","","","18","","","+0.00","7","","","29.64","29.59","","","010","","9","","","","","","","","","","","","","","","","","","","","","","","","","","","","","","","","","","","","","","","","","","","","","","","","","","","","","","","","","","","","","","","","","","","","","","","","","","","","","","","","","","","","","","","","","","","SYN070AAXX  17001 01016 46/// /0104 11079 2//// 30020 40036 57001 333 91107;","","","","","","","","","",""
"01016099999","2010-10-17T07:00:00","78.9333333","28.9","20.0","KONGSOYA, NO","FM-12","4","","","16","","","+0.01","7","","","29.60","29.55","","","080","","11","","","","","","","","","","","","","","","","","","","","","","","","","","","","","","","","","","","","","","","","","","","","","","","","","","","","","","","","","","","","","","","","","","","","","","","","","","","","","","","","","","","","","","","","","","","SYN076AAXX  17061 01016 46/// /0805 11087 2//// 30007 40023 57004 333 21088 91106;","","","","","","","","","",""
"01016099999","2010-10-17T13:00:00","78.9333333","28.9","20.0","KONGSOYA, NO","FM-12","4","","","17","","","+0.02","7","","","29.54","29.49","","","090","","20","","","","","","","","","","","","","","","","","","","","","","","","","","","","","","","","","","","","","","","","","","","","","","","","","","","","","","","","","","","","","","","","","","","","","","","","","","","","","","","","","","","","","","","","","","","SYN070AAXX  17121 01016 46/// /0909 11081 2//// 39987 40003 57007 333 91110;","","","","","","","","","",""
"01016099999","2010-10-17T19:00:00","78.9333333","28.9","20.0","KONGSOYA, NO","FM-12","4","","","21","","","+0.09","6","","","29.38","29.34","","","060","","36","","","","","","","","","","","","","","","","","","","","","","","","","","","","","","","","","","","","","","","","","","","","","","","","","","","","","","","","","","","","","","","","","","","","","","","","","","","","","","","","","","","","","","","","","","","SYN076AAXX  17181 01016 46/// /0616 11060 2//// 39935 49950 56029 333 11060 91117;","","","","","","","","","",""
"01016099999","2010-10-18T01:00:00","78.9333333","28.9","20.0","KONGSOYA, NO","FM-12","4","","","29","","","+0.07","8","","","29.18","29.14","","","160","","4","","","","","","","","","","","","","","","","","","","","","","","","","","","","","","","","","","","","","","","","","","","","","","","","","","","","","","","","","","","","","","","","","","","","","","","","","","","","","","","","","","","","","","","","","","","SYN070AAXX  18001 01016 46/// /1602 11019 2//// 39867 49882 58025 333 91120;","","","","","","","","","",""
"01016099999","2010-10-18T07:00:00","78.9333333","28.9","20.0","KONGSOYA, NO","FM-12","4","","","22","","","-0.03","2","","","29.15","29.10","","","310","","27","","","","","","","","","","","","","","","","","","","","","","","","","","","","","","","","","","","","","","","","","","","","","","","","","","","","","","","","","","","","","","","","","","","","","","","","","","","","","","","","","","","","","","","","","","","SYN076AAXX  18061 01016 46/// /3112 11054 2//// 39855 49871 52009 333 21063 91115;","","","","","","","","","",""
"01016099999","2010-10-18T13:00:00","78.9333333","28.9","20.0","KONGSOYA, NO","FM-12","4","","","18","","","-0.07","2","","","29.29","29.24","","","270","","11","","","","","","","","","","","","","","","","","","","","","","","","","","","","","","","","","","","","","","","","","","","","","","","","","","","","","","","","","","","","","","","","","","","","","","","","","","","","","","","","","","","","","","","","","","","SYN070AAXX  18121 01016 46/// /2705 11080 2//// 39902 49918 52025 333 91114;","","","","","","","","","",""
"01016099999","2010-10-18T19:00:00","78.9333333","28.9","20.0","KONGSOYA, NO","FM-12","4","","","14","","","-0.04","2","","","29.35","29.30","","","000","","0","","","","","","","","","","","","","","","","","","","","","","","","","","","","","","","","","","","","","","","","","","","","","","","","","","","","","","","","","","","","","","","","","","","","","","","","","","","","","","","","","","","","","","","","","","","SYN076AAXX  18181 01016 46/// /0000 11098 2//// 39923 49939 52012 333 11053 91108;","","","","","","","","","",""
"01016099999","2010-10-19T01:00:00","78.9333333","28.9","20.0","KONGSOYA, NO","FM-12","4","","","26","","","+0.06","8","","","29.26","29.21","","","050","","34","","","","","","","","","","","","","","","","","","","","","","","","","","","","","","","","","","","","","","","","","","","","","","","","","","","","","","","","","","","","","","","","","","","","","","","","","","","","","","","","","","","","","","","","","","","SYN070AAXX  19001 01016 46/// /0515 11036 2//// 39893 49908 58021 333 91117;","","","","","","","","","",""
"01016099999","2010-10-19T04:00:00","78.9333333","28.9","20.0","KONGSOYA, NO","FM-12","4","","","32","","","+0.01","8","","","29.23","29.18","","","090","","34","","","","","","","","","","","","","","","","","","","","","","","","","","","","","","","","","","","","","","","","","","","","","","","","","","","","","","","","","","","","","","","","","","","","","","","","","","","","","","","","","","","","","","","","","","","SYN060AAXX  19031 01016 46/// /0915 10000 2//// 39882 49898 58005;","","","","","","","","","",""
"01016099999","2010-10-19T07:00:00","78.9333333","28.9","20.0","KONGSOYA, NO","FM-12","4","","","31","","","-0.06","2","","","29.27","29.23","","","090","","40","","","","","","","","","","","","","","","","","","","","","","","","","","","","","","","","","","","","","","","","","","","","","","","","","","","","","","","","","","","","","","","","","","","","","","","","","","","","","","","","","","","","","","","","","","","SYN076AAXX  19061 01016 46/// /0918 11006 2//// 39897 49913 52020 333 21096 91122;","","","","","","","","","",""
"01016099999","2010-10-19T13:00:00","78.9333333","28.9","20.0","KONGSOYA, NO","FM-12","4","","","29","","","-0.12","2","","","29.45","29.41","","","090","","40","","","","","","","","","","","","","","","","","","","","","","","","","","","","","","","","","","","","","","","","","","","","","","","","","","","","","","","","","","","","","","","","","","","","","","","","","","","","","","","","","","","","","","","","","","","SYN070AAXX  19121 01016 46/// /0918 11015 2//// 39958 49974 52039 333 91123;","","","","","","","","","",""
"01016099999","2010-10-19T19:00:00","78.9333333","28.9","20.0","KONGSOYA, NO","FM-12","4","","","29","","","-0.12","3","","","29.66","29.61","","","080","","34","","","","","","","","","","","","","","","","","","","","","","","","","","","","","","","","","","","","","","","","","","","","","","","","","","","","","","","","","","","","","","","","","","","","","","","","","","","","","","","","","","","","","","","","","","","SYN076AAXX  19181 01016 46/// /0815 11019 2//// 30028 40044 53039 333 11006 91121;","","","","","","","","","",""
"01016099999","2010-10-20T01:00:00","78.9333333","28.9","20.0","KONGSOYA, NO","FM-12","4","","","27","","","-0.09","3","","","29.84","29.80","","","080","","27","","","","","","","","","","","","","","","","","","","","","","","","","","","","","","","","","","","","","","","","","","","","","","","","","","","","","","","","","","","","","","","","","","","","","","","","","","","","","","","","","","","","","","","","","","","SYN070AAXX  20001 01016 46/// /0812 11025 2//// 30090 40106 53032 333 91118;","","","","","","","","","",""
"01016099999","2010-10-20T07:00:00","78.9333333","28.9","20.0","KONGSOYA, NO","FM-12","4","","","29","","","-0.09","2","","","29.96","29.91","","","060","","27","","","","","","","","","","","","","","","","","","","","","","","","","","","","","","","","","","","","","","","","","","","","","","","","","","","","","","","","","","","","","","","","","","","","","","","","","","","","","","","","","","","","","","","","","","","SYN076AAXX  20061 01016 46/// /0612 11018 2//// 30130 40146 52030 333 21026 91115;","","","","","","","","","",""
"01016099999","2010-10-20T13:00:00","78.9333333","28.9","20.0","KONGSOYA, NO","FM-12","4","","","29","","","-0.06","2","","","30.06","30.01","","","050","","25","","","","","","","","","","","","","","","","","","","","","","","","","","","","","","","","","","","","","","","","","","","","","","","","","","","","","","","","","","","","","","","","","","","","","","","","","","","","","","","","","","","","","","","","","","","SYN070AAXX  20121 01016 46/// /0511 11016 2//// 30163 40179 52019 333 91115;","","","","","","","","","",""
"01016099999","2010-10-20T19:00:00","78.9333333","28.9","20.0","KONGSOYA, NO","FM-12","4","","","29","","","-0.02","1","","","30.09","30.05","","","040","","22","","","","","","","","","","","","","","","","","","","","","","","","","","","","","","","","","","","","","","","","","","","","","","","","","","","","","","","","","","","","","","","","","","","","","","","","","","","","","","","","","","","","","","","","","","","SYN076AAXX  20181 01016 46/// /0410 11015 2//// 30175 40191 51008 333 11014 91113;","","","","","","","","","",""
"01016099999","2010-10-21T01:00:00","78.9333333","28.9","20.0","KONGSOYA, NO","FM-12","4","","","30","","","0.00","4","","","30.10","30.05","","","050","","18","","","","","","","","","","","","","","","","","","","","","","","","","","","","","","","","","","","","","","","","","","","","","","","","","","","","","","","","","","","","","","","","","","","","","","","","","","","","","","","","","","","","","","","","","","","SYN070AAXX  21001 01016 46/// /0508 11011 2//// 30177 40193 54006 333 91112;","","","","","","","","","",""
"01016099999","2010-10-21T07:00:00","78.9333333","28.9","20.0","KONGSOYA, NO","FM-12","4","","","30","","","","","","","30.07","30.02","","","050","","27","","","","","","","","","","","","","","","","","","","","","","","","","","","","","","","","","","","","","","","","","","","","","","","","","","","","","","","","","","","","","","","","","","","","","","","","","","","","","","","","","","","","","","","","","","","SYN076AAXX  21061 01016 46/// /0512 11012 2//// 30166 40182 58000 333 21020 91114;","","","","","","","","","",""
"01016099999","2010-10-21T13:00:00","78.9333333","28.9","20.0","KONGSOYA, NO","FM-12","4","","","29","","","","","","","30.06","30.01","","","060","","25","","","","","","","","","","","","","","","","","","","","","","","","","","","","","","","","","","","","","","","","","","","","","","","","","","","","","","","","","","","","","","","","","","","","","","","","","","","","","","","","","","","","","","","","","","","SYN070AAXX  21121 01016 46/// /0611 11017 2//// 30162 40178 57000 333 91115;","","","","","","","","","",""
"01016099999","2010-10-21T19:00:00","78.9333333","28.9","20.0","KONGSOYA, NO","FM-12","4","","","29","","","0.00","4","","","30.03","29.98","","","050","","31","","","","","","","","","","","","","","","","","","","","","","","","","","","","","","","","","","","","","","","","","","","","","","","","","","","","","","","","","","","","","","","","","","","","","","","","","","","","","","","","","","","","","","","","","","","SYN076AAXX  21181 01016 46/// /0514 11015 2//// 30154 40170 54002 333 11010 91117;","","","","","","","","","",""
"01016099999","2010-10-21T20:00:00","78.9333333","28.9","20.0","KONGSOYA, NO","FM-12","4","","","29","","","0.00","4","","","30.03","29.98","","","050","","29","","","","","","","","","","","","","","","","","","","","","","","","","","","","","","","","","","","","","","","","","","","","","","","","","","","","","","","","","","","","","","","","","","","","","","","","","","","","","","","","","","","","","","","","","","","SYN060AAXX  21191 01016 46/// /0513 11015 2//// 30153 40168 54003;","","","","","","","","","",""
"01016099999","2010-10-21T21:00:00","78.9333333","28.9","20.0","KONGSOYA, NO","FM-12","4","","","29","","","+0.00","7","","","30.02","29.97","","","050","","31","","","","","","","","","","","","","","","","","","","","","","","","","","","","","","","","","","","","","","","","","","","","","","","","","","","","","","","","","","","","","","","","","","","","","","","","","","","","","","","","","","","","","","","","","","","SYN060AAXX  21201 01016 46/// /0514 11015 2//// 30150 40166 57001;","","","","","","","","","",""
"01016099999","2010-10-21T22:00:00","78.9333333","28.9","20.0","KONGSOYA, NO","FM-12","4","","","29","","","+0.00","7","","","30.01","29.97","","","050","","34","","","","","","","","","","","","","","","","","","","","","","","","","","","","","","","","","","","","","","","","","","","","","","","","","","","","","","","","","","","","","","","","","","","","","","","","","","","","","","","","","","","","","","","","","","","SYN060AAXX  21211 01016 46/// /0515 11015 2//// 30148 40164 57001;","","","","","","","","","",""
"01016099999","2010-10-21T23:00:00","78.9333333","28.9","20.0","KONGSOYA, NO","FM-12","4","","","29","","","+0.01","7","","","30.00","29.96","","","050","","34","","","","","","","","","","","","","","","","","","","","","","","","","","","","","","","","","","","","","","","","","","","","","","","","","","","","","","","","","","","","","","","","","","","","","","","","","","","","","","","","","","","","","","","","","","","SYN060AAXX  21221 01016 46/// /0515 11015 2//// 30144 40159 57004;","","","","","","","","","",""
"01016099999","2010-10-22T00:00:00","78.9333333","28.9","20.0","KONGSOYA, NO","FM-12","4","","","30","","","+0.01","7","","","29.99","29.94","","","050","","34","","","","","","","","","","","","","","","","","","","","","","","","","","","","","","","","","","","","","","","","","","","","","","","","","","","","","","","","","","","","","","","","","","","","","","","","","","","","","","","","","","","","","","","","","","","SYN060AAXX  21231 01016 46/// /0515 11013 2//// 30140 40156 57005;","","","","","","","","","",""
"01016099999","2010-10-22T01:00:00","78.9333333","28.9","20.0","KONGSOYA, NO","FM-12","4","","","30","","","+0.02","7","","","29.98","29.93","","","050","","34","","","","","","","","","","","","","","","","","","","","","","","","","","","","","","","","","","","","","","","","","","","","","","","","","","","","","","","","","","","","","","","","","","","","","","","","","","","","","","","","","","","","","","","","","","","SYN070AAXX  22001 01016 46/// /0515 11012 2//// 30137 40153 57006 333 91118;","","","","","","","","","",""
"01016099999","2010-10-22T02:00:00","78.9333333","28.9","20.0","KONGSOYA, NO","FM-12","4","","","30","","","+0.01","7","","","29.98","29.93","","","050","","31","","","","","","","","","","","","","","","","","","","","","","","","","","","","","","","","","","","","","","","","","","","","","","","","","","","","","","","","","","","","","","","","","","","","","","","","","","","","","","","","","","","","","","","","","","","SYN060AAXX  22011 01016 46/// /0514 11012 2//// 30135 40151 57004;","","","","","","","","","",""
"01016099999","2010-10-22T03:00:00","78.9333333","28.9","20.0","KONGSOYA, NO","FM-12","4","","","30","","","+0.01","7","","","29.96","29.92","","","060","","36","","","","","","","","","","","","","","","","","","","","","","","","","","","","","","","","","","","","","","","","","","","","","","","","","","","","","","","","","","","","","","","","","","","","","","","","","","","","","","","","","","","","","","","","","","","SYN060AAXX  22021 01016 46/// /0616 11013 2//// 30131 40147 57004;","","","","","","","","","",""
"01016099999","2010-10-22T04:00:00","78.9333333","28.9","20.0","KONGSOYA, NO","FM-12","4","","","30","","","","","","","29.97","29.92","","","060","","38","","","","","","","","","","","","","","","","","","","","","","","","","","","","","","","","","","","","","","","","","","","","","","","","","","","","","","","","","","","","","","","","","","","","","","","","","","","","","","","","","","","","","","","","","","","SYN060AAXX  22031 01016 46/// /0617 11013 2//// 30132 40148 58000;","","","","","","","","","",""
"01016099999","2010-10-22T05:00:00","78.9333333","28.9","20.0","KONGSOYA, NO","FM-12","4","","","29","","","+0.01","7","","","29.96","29.92","","","050","","38","","","","","","","","","","","","","","","","","","","","","","","","","","","","","","","","","","","","","","","","","","","","","","","","","","","","","","","","","","","","","","","","","","","","","","","","","","","","","","","","","","","","","","","","","","","SYN060AAXX  22041 01016 46/// /0517 11016 2//// 30131 40147 57002;","","","","","","","","","",""
"01016099999","2010-10-22T06:00:00","78.9333333","28.9","20.0","KONGSOYA, NO","FM-12","4","","","29","","","0.00","4","","","29.97","29.93","","","050","","38","","","","","","","","","","","","","","","","","","","","","","","","","","","","","","","","","","","","","","","","","","","","","","","","","","","","","","","","","","","","","","","","","","","","","","","","","","","","","","","","","","","","","","","","","","","SYN060AAXX  22051 01016 46/// /0517 11016 2//// 30134 40150 54008;","","","","","","","","","",""
"01016099999","2010-10-22T07:00:00","78.9333333","28.9","20.0","KONGSOYA, NO","FM-12","4","","","29","","","0.00","4","","","29.97","29.93","","","050","","38","","","","","","","","","","","","","","","","","","","","","","","","","","","","","","","","","","","","","","","","","","","","","","","","","","","","","","","","","","","","","","","","","","","","","","","","","","","","","","","","","","","","","","","","","","","SYN076AAXX  22061 01016 46/// /0517 11017 2//// 30134 40150 54006 333 21018 91121;","","","","","","","","","",""
"01016099999","2010-10-22T08:00:00","78.9333333","28.9","20.0","KONGSOYA, NO","FM-12","4","","","29","","","-0.03","2","","","29.98","29.93","","","050","","34","","","","","","","","","","","","","","","","","","","","","","","","","","","","","","","","","","","","","","","","","","","","","","","","","","","","","","","","","","","","","","","","","","","","","","","","","","","","","","","","","","","","","","","","","","","SYN060AAXX  22071 01016 46/// /0515 11016 2//// 30137 40153 52011;","","","","","","","","","",""
"01016099999","2010-10-22T09:00:00","78.9333333","28.9","20.0","KONGSOYA, NO","FM-12","4","","","29","","","-0.03","2","","","29.98","29.94","","","050","","34","","","","","","","","","","","","","","","","","","","","","","","","","","","","","","","","","","","","","","","","","","","","","","","","","","","","","","","","","","","","","","","","","","","","","","","","","","","","","","","","","","","","","","","","","","","SYN060AAXX  22081 01016 46/// /0515 11017 2//// 30138 40154 52009;","","","","","","","","","",""
"01016099999","2010-10-22T10:00:00","78.9333333","28.9","20.0","KONGSOYA, NO","FM-12","4","","","29","","","-0.02","3","","","29.98","29.93","","","050","","36","","","","","","","","","","","","","","","","","","","","","","","","","","","","","","","","","","","","","","","","","","","","","","","","","","","","","","","","","","","","","","","","","","","","","","","","","","","","","","","","","","","","","","","","","","","SYN060AAXX  22091 01016 46/// /0516 11016 2//// 30137 40153 53008;","","","","","","","","","",""
"01016099999","2010-10-22T11:00:00","78.9333333","28.9","20.0","KONGSOYA, NO","FM-12","4","","","29","","","0.00","4","","","29.98","29.93","","","050","","36","","","","","","","","","","","","","","","","","","","","","","","","","","","","","","","","","","","","","","","","","","","","","","","","","","","","","","","","","","","","","","","","","","","","","","","","","","","","","","","","","","","","","","","","","","","SYN060AAXX  22101 01016 46/// /0516 11016 2//// 30135 40151 54003;","","","","","","","","","",""
"01016099999","2010-10-22T12:00:00","78.9333333","28.9","20.0","KONGSOYA, NO","FM-12","4","","","29","","","0.00","4","","","29.98","29.93","","","050","","36","","","","","","","","","","","","","","","","","","","","","","","","","","","","","","","","","","","","","","","","","","","","","","","","","","","","","","","","","","","","","","","","","","","","","","","","","","","","","","","","","","","","","","","","","","","SYN060AAXX  22111 01016 46/// /0516 11019 2//// 30136 40152 54003;","","","","","","","","","",""
"01016099999","2010-10-22T13:00:00","78.9333333","28.9","20.0","KONGSOYA, NO","FM-12","4","","","29","","","-0.02","0","","","29.98","29.94","","","050","","36","","","","","","","","","","","","","","","","","","","","","","","","","","","","","","","","","","","","","","","","","","","","","","","","","","","","","","","","","","","","","","","","","","","","","","","","","","","","","","","","","","","","","","","","","","","SYN070AAXX  22121 01016 46/// /0516 11018 2//// 30138 40154 50007 333 91119;","","","","","","","","","",""
"01016099999","2010-10-22T14:00:00","78.9333333","28.9","20.0","KONGSOYA, NO","FM-12","4","","","28","","","-0.03","2","","","29.99","29.94","","","050","","36","","","","","","","","","","","","","","","","","","","","","","","","","","","","","","","","","","","","","","","","","","","","","","","","","","","","","","","","","","","","","","","","","","","","","","","","","","","","","","","","","","","","","","","","","","","SYN060AAXX  22131 01016 46/// /0516 11020 2//// 30139 40155 52009;","","","","","","","","","",""
"01016099999","2010-10-22T15:00:00","78.9333333","28.9","20.0","KONGSOYA, NO","FM-12","4","","","28","","","0.00","4","","","29.99","29.94","","","050","","34","","","","","","","","","","","","","","","","","","","","","","","","","","","","","","","","","","","","","","","","","","","","","","","","","","","","","","","","","","","","","","","","","","","","","","","","","","","","","","","","","","","","","","","","","","","SYN060AAXX  22141 01016 46/// /0515 11020 2//// 30139 40155 54008;","","","","","","","","","",""
"01016099999","2010-10-22T16:00:00","78.9333333","28.9","20.0","KONGSOYA, NO","FM-12","4","","","28","","","0.00","4","","","29.98","29.93","","","050","","36","","","","","","","","","","","","","","","","","","","","","","","","","","","","","","","","","","","","","","","","","","","","","","","","","","","","","","","","","","","","","","","","","","","","","","","","","","","","","","","","","","","","","","","","","","","SYN060AAXX  22151 01016 46/// /0516 11022 2//// 30137 40153 54004;","","","","","","","","","",""
"01016099999","2010-10-22T17:00:00","78.9333333","28.9","20.0","KONGSOYA, NO","FM-12","4","","","28","","","0.00","4","","","29.98","29.93","","","040","","36","","","","","","","","","","","","","","","","","","","","","","","","","","","","","","","","","","","","","","","","","","","","","","","","","","","","","","","","","","","","","","","","","","","","","","","","","","","","","","","","","","","","","","","","","","","SYN060AAXX  22161 01016 46/// /0416 11022 2//// 30137 40153 54003;","","","","","","","","","",""
"01016099999","2010-10-22T18:00:00","78.9333333","28.9","20.0","KONGSOYA, NO","FM-12","4","","","28","","","+0.01","7","","","29.98","29.93","","","050","","38","","","","","","","","","","","","","","","","","","","","","","","","","","","","","","","","","","","","","","","","","","","","","","","","","","","","","","","","","","","","","","","","","","","","","","","","","","","","","","","","","","","","","","","","","","","SYN060AAXX  22171 01016 46/// /0517 11021 2//// 30136 40152 57002;","","","","","","","","","",""
"01016099999","2010-10-22T19:00:00","78.9333333","28.9","20.0","KONGSOYA, NO","FM-12","4","","","28","","","0.00","4","","","29.98","29.93","","","050","","34","","","","","","","","","","","","","","","","","","","","","","","","","","","","","","","","","","","","","","","","","","","","","","","","","","","","","","","","","","","","","","","","","","","","","","","","","","","","","","","","","","","","","","","","","","","SYN076AAXX  22181 01016 46/// /0515 11020 2//// 30135 40151 54003 333 11015 91119;","","","","","","","","","",""
"01016099999","2010-10-22T20:00:00","78.9333333","28.9","20.0","KONGSOYA, NO","FM-12","4","","","28","","","+0.00","7","","","29.97","29.92","","","050","","36","","","","","","","","","","","","","","","","","","","","","","","","","","","","","","","","","","","","","","","","","","","","","","","","","","","","","","","","","","","","","","","","","","","","","","","","","","","","","","","","","","","","","","","","","","","SYN060AAXX  22191 01016 46/// /0516 11022 2//// 30133 40149 57001;","","","","","","","","","",""
"01016099999","2010-10-22T21:00:00","78.9333333","28.9","20.0","KONGSOYA, NO","FM-12","4","","","28","","","+0.00","7","","","29.96","29.92","","","050","","38","","","","","","","","","","","","","","","","","","","","","","","","","","","","","","","","","","","","","","","","","","","","","","","","","","","","","","","","","","","","","","","","","","","","","","","","","","","","","","","","","","","","","","","","","","","SYN060AAXX  22201 01016 46/// /0517 11021 2//// 30131 40147 57001;","","","","","","","","","",""
"01016099999","2010-10-22T22:00:00","78.9333333","28.9","20.0","KONGSOYA, NO","FM-12","4","","","28","","","+0.01","7","","","29.96","29.92","","","050","","36","","","","","","","","","","","","","","","","","","","","","","","","","","","","","","","","","","","","","","","","","","","","","","","","","","","","","","","","","","","","","","","","","","","","","","","","","","","","","","","","","","","","","","","","","","","SYN060AAXX  22211 01016 46/// /0516 11022 2//// 30131 40146 57000;","","","","","","","","","",""
"01016099999","2010-10-22T23:00:00","78.9333333","28.9","20.0","KONGSOYA, NO","FM-12","4","","","28","","","+0.00","7","","","29.95","29.91","","","050","","38","","","","","","","","","","","","","","","","","","","","","","","","","","","","","","","","","","","","","","","","","","","","","","","","","","","","","","","","","","","","","","","","","","","","","","","","","","","","","","","","","","","","","","","","","","","SYN060AAXX  22221 01016 46/// /0517 11022 2//// 30127 40143 57001;","","","","","","","","","",""
"01016099999","2010-10-23T00:00:00","78.9333333","28.9","20.0","KONGSOYA, NO","FM-12","4","","","28","","","+0.01","7","","","29.95","29.90","","","040","","40","","","","","","","","","","","","","","","","","","","","","","","","","","","","","","","","","","","","","","","","","","","","","","","","","","","","","","","","","","","","","","","","","","","","","","","","","","","","","","","","","","","","","","","","","","","SYN060AAXX  22231 01016 46/// /0418 11023 2//// 30126 40142 57000;","","","","","","","","","",""
"01016099999","2010-10-23T01:00:00","78.9333333","28.9","20.0","KONGSOYA, NO","FM-12","4","","","28","","","+0.01","7","","","29.94","29.89","","","050","","40","","","","","","","","","","","","","","","","","","","","","","","","","","","","","","","","","","","","","","","","","","","","","","","","","","","","","","","","","","","","","","","","","","","","","","","","","","","","","","","","","","","","","","","","","","","SYN070AAXX  23001 01016 46/// /0518 11023 2//// 30122 40138 57003 333 91122;","","","","","","","","","",""
"01016099999","2010-10-23T02:00:00","78.9333333","28.9","20.0","KONGSOYA, NO","FM-12","4","","","28","","","+0.01","7","","","29.93","29.88","","","040","","38","","","","","","","","","","","","","","","","","","","","","","","","","","","","","","","","","","","","","","","","","","","","","","","","","","","","","","","","","","","","","","","","","","","","","","","","","","","","","","","","","","","","","","","","","","","SYN060AAXX  23011 01016 46/// /0417 11024 2//// 30120 40136 57002;","","","","","","","","","",""
"01016099999","2010-10-23T03:00:00","78.9333333","28.9","20.0","KONGSOYA, NO","FM-12","4","","","28","","","+0.01","7","","","29.92","29.88","","","040","","38","","","","","","","","","","","","","","","","","","","","","","","","","","","","","","","","","","","","","","","","","","","","","","","","","","","","","","","","","","","","","","","","","","","","","","","","","","","","","","","","","","","","","","","","","","","SYN060AAXX  23021 01016 46/// /0417 11024 2//// 30118 40133 57004;","","","","","","","","","",""
"01016099999","2010-10-23T04:00:00","78.9333333","28.9","20.0","KONGSOYA, NO","FM-12","4","","","27","","","+0.01","7","","","29.92","29.87","","","040","","38","","","","","","","","","","","","","","","","","","","","","","","","","","","","","","","","","","","","","","","","","","","","","","","","","","","","","","","","","","","","","","","","","","","","","","","","","","","","","","","","","","","","","","","","","","","SYN060AAXX  23031 01016 46/// /0417 11025 2//// 30115 40131 57003;","","","","","","","","","",""
"01016099999","2010-10-23T05:00:00","78.9333333","28.9","20.0","KONGSOYA, NO","FM-12","4","","","27","","","+0.01","7","","","29.91","29.86","","","040","","38","","","","","","","","","","","","","","","","","","","","","","","","","","","","","","","","","","","","","","","","","","","","","","","","","","","","","","","","","","","","","","","","","","","","","","","","","","","","","","","","","","","","","","","","","","","SYN060AAXX  23041 01016 46/// /0417 11029 2//// 30113 40129 57002;","","","","","","","","","",""
"01016099999","2010-10-23T06:00:00","78.9333333","28.9","20.0","KONGSOYA, NO","FM-12","4","","","27","","","+0.00","7","","","29.91","29.86","","","040","","40","","","","","","","","","","","","","","","","","","","","","","","","","","","","","","","","","","","","","","","","","","","","","","","","","","","","","","","","","","","","","","","","","","","","","","","","","","","","","","","","","","","","","","","","","","","SYN060AAXX  23051 01016 46/// /0418 11026 2//// 30111 40127 57001;","","","","","","","","","",""
"01016099999","2010-10-23T07:00:00","78.9333333","28.9","20.0","KONGSOYA, NO","FM-12","4","","","27","","","+0.01","7","","","29.90","29.85","","","040","","38","","","","","","","","","","","","","","","","","","","","","","","","","","","","","","","","","","","","","","","","","","","","","","","","","","","","","","","","","","","","","","","","","","","","","","","","","","","","","","","","","","","","","","","","","","","SYN076AAXX  23061 01016 46/// /0417 11027 2//// 30110 40126 57000 333 21029 91121;","","","","","","","","","",""
"01016099999","2010-10-23T08:00:00","78.9333333","28.9","20.0","KONGSOYA, NO","FM-12","4","","","27","","","+0.00","7","","","29.90","29.85","","","030","","38","","","","","","","","","","","","","","","","","","","","","","","","","","","","","","","","","","","","","","","","","","","","","","","","","","","","","","","","","","","","","","","","","","","","","","","","","","","","","","","","","","","","","","","","","","","SYN060AAXX  23071 01016 46/// /0317 11029 2//// 30108 40124 57001;","","","","","","","","","",""
"01016099999","2010-10-23T09:00:00","78.9333333","28.9","20.0","KONGSOYA, NO","FM-12","4","","","27","","","+0.01","7","","","29.89","29.84","","","030","","40","","","","","","","","","","","","","","","","","","","","","","","","","","","","","","","","","","","","","","","","","","","","","","","","","","","","","","","","","","","","","","","","","","","","","","","","","","","","","","","","","","","","","","","","","","","SYN060AAXX  23081 01016 46/// /0318 11029 2//// 30106 40122 57000;","","","","","","","","","",""
"01016099999","2010-10-23T10:00:00","78.9333333","28.9","20.0","KONGSOYA, NO","FM-12","4","","","27","","","+0.01","7","","","29.88","29.83","","","030","","43","","","","","","","","","","","","","","","","","","","","","","","","","","","","","","","","","","","","","","","","","","","","","","","","","","","","","","","","","","","","","","","","","","","","","","","","","","","","","","","","","","","","","","","","","","","SYN060AAXX  23091 01016 46/// /0319 11027 2//// 30103 40119 57002;","","","","","","","","","",""
"01016099999","2010-10-23T11:00:00","78.9333333","28.9","20.0","KONGSOYA, NO","FM-12","4","","","28","","","+0.02","7","","","29.87","29.82","","","030","","40","","","","","","","","","","","","","","","","","","","","","","","","","","","","","","","","","","","","","","","","","","","","","","","","","","","","","","","","","","","","","","","","","","","","","","","","","","","","","","","","","","","","","","","","","","","SYN060AAXX  23101 01016 46/// /0318 11024 2//// 30098 40114 57006;","","","","","","","","","",""
"01016099999","2010-10-23T12:00:00","78.9333333","28.9","20.0","KONGSOYA, NO","FM-12","4","","","27","","","+0.01","7","","","29.86","29.81","","","030","","40","","","","","","","","","","","","","","","","","","","","","","","","","","","","","","","","","","","","","","","","","","","","","","","","","","","","","","","","","","","","","","","","","","","","","","","","","","","","","","","","","","","","","","","","","","","SYN060AAXX  23111 01016 46/// /0318 11027 2//// 30096 40112 57005;","","","","","","","","","",""
"01016099999","2010-10-23T13:00:00","78.9333333","28.9","20.0","KONGSOYA, NO","FM-12","4","","","27","","","+0.01","8","","","29.86","29.81","","","030","","43","","","","","","","","","","","","","","","","","","","","","","","","","","","","","","","","","","","","","","","","","","","","","","","","","","","","","","","","","","","","","","","","","","","","","","","","","","","","","","","","","","","","","","","","","","","SYN070AAXX  23121 01016 46/// /0319 11027 2//// 30095 40111 58003 333 91122;","","","","","","","","","",""
"01016099999","2010-10-23T14:00:00","78.9333333","28.9","20.0","KONGSOYA, NO","FM-12","4","","","26","","","+0.02","7","","","29.85","29.80","","","040","","40","","","","","","","","","","","","","","","","","","","","","","","","","","","","","","","","","","","","","","","","","","","","","","","","","","","","","","","","","","","","","","","","","","","","","","","","","","","","","","","","","","","","","","","","","","","SYN060AAXX  23131 01016 46/// /0418 11031 2//// 30092 40108 57000;","","","","","","","","","",""
"01016099999","2010-10-23T15:00:00","78.9333333","28.9","20.0","KONGSOYA, NO","FM-12","4","","","27","","","+0.01","7","","","29.85","29.80","","","030","","38","","","","","","","","","","","","","","","","","","","","","","","","","","","","","","","","","","","","","","","","","","","","","","","","","","","","","","","","","","","","","","","","","","","","","","","","","","","","","","","","","","","","","","","","","","","SYN060AAXX  23141 01016 46/// /0317 11030 2//// 30093 40109 57002;","","","","","","","","","",""
"01016099999","2010-10-23T16:00:00","78.9333333","28.9","20.0","KONGSOYA, NO","FM-12","4","","","26","","","0.00","4","","","29.85","29.80","","","030","","38","","","","","","","","","","","","","","","","","","","","","","","","","","","","","","","","","","","","","","","","","","","","","","","","","","","","","","","","","","","","","","","","","","","","","","","","","","","","","","","","","","","","","","","","","","","SYN060AAXX  23151 01016 46/// /0317 11034 2//// 30093 40109 54004;","","","","","","","","","",""
"01016099999","2010-10-23T17:00:00","78.9333333","28.9","20.0","KONGSOYA, NO","FM-12","4","","","26","","","+0.01","5","","","29.84","29.80","","","030","","38","","","","","","","","","","","","","","","","","","","","","","","","","","","","","","","","","","","","","","","","","","","","","","","","","","","","","","","","","","","","","","","","","","","","","","","","","","","","","","","","","","","","","","","","","","","SYN060AAXX  23161 01016 46/// /0317 11031 2//// 30090 40106 55003;","","","","","","","","","",""
"01016099999","2010-10-23T18:00:00","78.9333333","28.9","20.0","KONGSOYA, NO","FM-12","4","","","26","","","+0.01","6","","","29.83","29.78","","","020","","38","","","","","","","","","","","","","","","","","","","","","","","","","","","","","","","","","","","","","","","","","","","","","","","","","","","","","","","","","","","","","","","","","","","","","","","","","","","","","","","","","","","","","","","","","","","SYN060AAXX  23171 01016 46/// /0217 11031 2//// 30085 40101 56003;","","","","","","","","","",""
"01016099999","2010-10-23T19:00:00","78.9333333","28.9","20.0","KONGSOYA, NO","FM-12","4","","","26","","","+0.02","7","","","29.82","29.77","","","020","","40","","","","","","","","","","","","","","","","","","","","","","","","","","","","","","","","","","","","","","","","","","","","","","","","","","","","","","","","","","","","","","","","","","","","","","","","","","","","","","","","","","","","","","","","","","","SYN076AAXX  23181 01016 46/// /0218 11032 2//// 30081 40097 57007 333 11023 91121;","","","","","","","","","",""
"01016099999","2010-10-23T20:00:00","78.9333333","28.9","20.0","KONGSOYA, NO","FM-12","4","","","27","","","+0.02","7","","","29.80","29.76","","","020","","40","","","","","","","","","","","","","","","","","","","","","","","","","","","","","","","","","","","","","","","","","","","","","","","","","","","","","","","","","","","","","","","","","","","","","","","","","","","","","","","","","","","","","","","","","","","SYN060AAXX  23191 01016 46/// /0218 11029 2//// 30078 40093 57007;","","","","","","","","","",""
"01016099999","2010-10-23T21:00:00","78.9333333","28.9","20.0","KONGSOYA, NO","FM-12","4","","","27","","","+0.01","7","","","29.80","29.75","","","030","","40","","","","","","","","","","","","","","","","","","","","","","","","","","","","","","","","","","","","","","","","","","","","","","","","","","","","","","","","","","","","","","","","","","","","","","","","","","","","","","","","","","","","","","","","","","","SYN060AAXX  23201 01016 46/// /0318 11027 2//// 30076 40092 57004;","","","","","","","","","",""
"01016099999","2010-10-23T22:00:00","78.9333333","28.9","20.0","KONGSOYA, NO","FM-12","4","","","27","","","+0.01","7","","","29.80","29.75","","","030","","38","","","","","","","","","","","","","","","","","","","","","","","","","","","","","","","","","","","","","","","","","","","","","","","","","","","","","","","","","","","","","","","","","","","","","","","","","","","","","","","","","","","","","","","","","","","SYN060AAXX  23211 01016 46/// /0317 11028 2//// 30074 40090 57002;","","","","","","","","","",""
"01016099999","2010-10-23T23:00:00","78.9333333","28.9","20.0","KONGSOYA, NO","FM-12","4","","","27","","","+0.00","7","","","29.79","29.74","","","030","","38","","","","","","","","","","","","","","","","","","","","","","","","","","","","","","","","","","","","","","","","","","","","","","","","","","","","","","","","","","","","","","","","","","","","","","","","","","","","","","","","","","","","","","","","","","","SYN060AAXX  23221 01016 46/// /0317 11027 2//// 30071 40087 57001;","","","","","","","","","",""
"01016099999","2010-10-24T00:00:00","78.9333333","28.9","20.0","KONGSOYA, NO","FM-12","4","","","27","","","+0.00","7","","","29.79","29.74","","","020","","36","","","","","","","","","","","","","","","","","","","","","","","","","","","","","","","","","","","","","","","","","","","","","","","","","","","","","","","","","","","","","","","","","","","","","","","","","","","","","","","","","","","","","","","","","","","SYN060AAXX  23231 01016 46/// /0216 11027 2//// 30071 40087 57001;","","","","","","","","","",""
"01016099999","2010-10-24T01:00:00","78.9333333","28.9","20.0","KONGSOYA, NO","FM-12","4","","","27","","","+0.00","7","","","29.78","29.73","","","020","","34","","","","","","","","","","","","","","","","","","","","","","","","","","","","","","","","","","","","","","","","","","","","","","","","","","","","","","","","","","","","","","","","","","","","","","","","","","","","","","","","","","","","","","","","","","","SYN070AAXX  24001 01016 46/// /0215 11027 2//// 30067 40083 57001 333 91122;","","","","","","","","","",""
"01016099999","2010-10-24T02:00:00","78.9333333","28.9","20.0","KONGSOYA, NO","FM-12","4","","","27","","","+0.00","7","","","29.78","29.73","","","020","","34","","","","","","","","","","","","","","","","","","","","","","","","","","","","","","","","","","","","","","","","","","","","","","","","","","","","","","","","","","","","","","","","","","","","","","","","","","","","","","","","","","","","","","","","","","","SYN060AAXX  24011 01016 46/// /0215 11028 2//// 30067 40083 57001;","","","","","","","","","",""
"01016099999","2010-10-24T03:00:00","78.9333333","28.9","20.0","KONGSOYA, NO","FM-12","4","","","27","","","+0.01","7","","","29.78","29.73","","","020","","31","","","","","","","","","","","","","","","","","","","","","","","","","","","","","","","","","","","","","","","","","","","","","","","","","","","","","","","","","","","","","","","","","","","","","","","","","","","","","","","","","","","","","","","","","","","SYN060AAXX  24021 01016 46/// /0214 11028 2//// 30067 40083 58000;","","","","","","","","","",""
"01016099999","2010-10-24T04:00:00","78.9333333","28.9","20.0","KONGSOYA, NO","FM-12","4","","","27","","","0.00","4","","","29.77","29.72","","","020","","31","","","","","","","","","","","","","","","","","","","","","","","","","","","","","","","","","","","","","","","","","","","","","","","","","","","","","","","","","","","","","","","","","","","","","","","","","","","","","","","","","","","","","","","","","","","SYN060AAXX  24031 01016 46/// /0214 11029 2//// 30065 40081 54002;","","","","","","","","","",""
"01016099999","2010-10-24T05:00:00","78.9333333","28.9","20.0","KONGSOYA, NO","FM-12","4","","","27","","","+0.01","7","","","29.76","29.71","","","020","","31","","","","","","","","","","","","","","","","","","","","","","","","","","","","","","","","","","","","","","","","","","","","","","","","","","","","","","","","","","","","","","","","","","","","","","","","","","","","","","","","","","","","","","","","","","","SYN060AAXX  24041 01016 46/// /0214 11030 2//// 30062 40078 57000;","","","","","","","","","",""
"01016099999","2010-10-24T06:00:00","78.9333333","28.9","20.0","KONGSOYA, NO","FM-12","4","","","25","","","+0.02","7","","","29.76","29.71","","","010","","29","","","","","","","","","","","","","","","","","","","","","","","","","","","","","","","","","","","","","","","","","","","","","","","","","","","","","","","","","","","","","","","","","","","","","","","","","","","","","","","","","","","","","","","","","","","SYN060AAXX  24051 01016 46/// /0113 11037 2//// 30062 40077 57000;","","","","","","","","","",""
"01016099999","2010-10-24T07:00:00","78.9333333","28.9","20.0","KONGSOYA, NO","FM-12","4","","","26","","","+0.00","7","","","29.75","29.70","","","360","","36","","","","","","","","","","","","","","","","","","","","","","","","","","","","","","","","","","","","","","","","","","","","","","","","","","","","","","","","","","","","","","","","","","","","","","","","","","","","","","","","","","","","","","","","","","","SYN076AAXX  24061 01016 46/// /3616 11036 2//// 30058 40074 57001 333 21039 91118;","","","","","","","","","",""
"01016099999","2010-10-24T08:00:00","78.9333333","28.9","20.0","KONGSOYA, NO","FM-12","4","","","26","","","+0.01","7","","","29.75","29.70","","","360","","34","","","","","","","","","","","","","","","","","","","","","","","","","","","","","","","","","","","","","","","","","","","","","","","","","","","","","","","","","","","","","","","","","","","","","","","","","","","","","","","","","","","","","","","","","","","SYN060AAXX  24071 01016 46/// /3615 11035 2//// 30057 40073 57000;","","","","","","","","","",""
"01016099999","2010-10-24T09:00:00","78.9333333","28.9","20.0","KONGSOYA, NO","FM-12","4","","","26","","","+0.01","7","","","29.75","29.70","","","360","","31","","","","","","","","","","","","","","","","","","","","","","","","","","","","","","","","","","","","","","","","","","","","","","","","","","","","","","","","","","","","","","","","","","","","","","","","","","","","","","","","","","","","","","","","","","","SYN060AAXX  24081 01016 46/// /3614 11035 2//// 30057 40073 58000;","","","","","","","","","",""
"01016099999","2010-10-24T10:00:00","78.9333333","28.9","20.0","KONGSOYA, NO","FM-12","4","","","26","","","0.00","4","","","29.75","29.70","","","360","","31","","","","","","","","","","","","","","","","","","","","","","","","","","","","","","","","","","","","","","","","","","","","","","","","","","","","","","","","","","","","","","","","","","","","","","","","","","","","","","","","","","","","","","","","","","","SYN060AAXX  24091 01016 46/// /3614 11035 2//// 30057 40073 54004;","","","","","","","","","",""
"01016099999","2010-10-24T11:00:00","78.9333333","28.9","20.0","KONGSOYA, NO","FM-12","4","","","26","","","0.00","4","","","29.74","29.70","","","360","","31","","","","","","","","","","","","","","","","","","","","","","","","","","","","","","","","","","","","","","","","","","","","","","","","","","","","","","","","","","","","","","","","","","","","","","","","","","","","","","","","","","","","","","","","","","","SYN060AAXX  24101 01016 46/// /3614 11036 2//// 30056 40072 54004;","","","","","","","","","",""
"01016099999","2010-10-24T12:00:00","78.9333333","28.9","20.0","KONGSOYA, NO","FM-12","4","","","26","","","0.00","4","","","29.74","29.69","","","350","","29","","","","","","","","","","","","","","","","","","","","","","","","","","","","","","","","","","","","","","","","","","","","","","","","","","","","","","","","","","","","","","","","","","","","","","","","","","","","","","","","","","","","","","","","","","","SYN060AAXX  24111 01016 46/// /3513 11036 2//// 30055 40071 54003;","","","","","","","","","",""
"01016099999","2010-10-24T13:00:00","78.9333333","28.9","20.0","KONGSOYA, NO","FM-12","4","","","25","","","0.00","4","","","29.74","29.69","","","350","","29","","","","","","","","","","","","","","","","","","","","","","","","","","","","","","","","","","","","","","","","","","","","","","","","","","","","","","","","","","","","","","","","","","","","","","","","","","","","","","","","","","","","","","","","","","","SYN070AAXX  24121 01016 46/// /3513 11038 2//// 30054 40070 54002 333 91119;","","","","","","","","","",""
"01016099999","2010-10-24T14:00:00","78.9333333","28.9","20.0","KONGSOYA, NO","FM-12","4","","","24","","","0.00","4","","","29.73","29.69","","","350","","29","","","","","","","","","","","","","","","","","","","","","","","","","","","","","","","","","","","","","","","","","","","","","","","","","","","","","","","","","","","","","","","","","","","","","","","","","","","","","","","","","","","","","","","","","","","SYN060AAXX  24131 01016 46/// /3513 11044 2//// 30054 40069 54003;","","","","","","","","","",""
"01016099999","2010-10-24T15:00:00","78.9333333","28.9","20.0","KONGSOYA, NO","FM-12","4","","","24","","","+0.01","7","","","29.72","29.68","","","350","","29","","","","","","","","","","","","","","","","","","","","","","","","","","","","","","","","","","","","","","","","","","","","","","","","","","","","","","","","","","","","","","","","","","","","","","","","","","","","","","","","","","","","","","","","","","","SYN060AAXX  24141 01016 46/// /3513 11043 2//// 30050 40066 56000;","","","","","","","","","",""
"01016099999","2010-10-24T16:00:00","78.9333333","28.9","20.0","KONGSOYA, NO","FM-12","4","","","24","","","+0.00","7","","","29.72","29.67","","","350","","29","","","","","","","","","","","","","","","","","","","","","","","","","","","","","","","","","","","","","","","","","","","","","","","","","","","","","","","","","","","","","","","","","","","","","","","","","","","","","","","","","","","","","","","","","","","SYN060AAXX  24151 01016 46/// /3513 11046 2//// 30049 40065 57001;","","","","","","","","","",""
"01016099999","2010-10-24T17:00:00","78.9333333","28.9","20.0","KONGSOYA, NO","FM-12","4","","","24","","","+0.01","7","","","29.71","29.67","","","340","","29","","","","","","","","","","","","","","","","","","","","","","","","","","","","","","","","","","","","","","","","","","","","","","","","","","","","","","","","","","","","","","","","","","","","","","","","","","","","","","","","","","","","","","","","","","","SYN060AAXX  24161 01016 46/// /3413 11045 2//// 30046 40062 57003;","","","","","","","","","",""
"01016099999","2010-10-24T18:00:00","78.9333333","28.9","20.0","KONGSOYA, NO","FM-12","4","","","24","","","+0.01","6","","","29.70","29.65","","","340","","29","","","","","","","","","","","","","","","","","","","","","","","","","","","","","","","","","","","","","","","","","","","","","","","","","","","","","","","","","","","","","","","","","","","","","","","","","","","","","","","","","","","","","","","","","","","SYN060AAXX  24171 01016 46/// /3413 11043 2//// 30041 40057 56004;","","","","","","","","","",""
"01016099999","2010-10-24T19:00:00","78.9333333","28.9","20.0","KONGSOYA, NO","FM-12","4","","","24","","","+0.01","7","","","29.70","29.65","","","340","","29","","","","","","","","","","","","","","","","","","","","","","","","","","","","","","","","","","","","","","","","","","","","","","","","","","","","","","","","","","","","","","","","","","","","","","","","","","","","","","","","","","","","","","","","","","","SYN076AAXX  24181 01016 46/// /3413 11043 2//// 30040 40056 57004 333 11033 91117;","","","","","","","","","",""
"01016099999","2010-10-24T20:00:00","78.9333333","28.9","20.0","KONGSOYA, NO","FM-12","4","","","25","","","+0.01","7","","","29.69","29.64","","","340","","29","","","","","","","","","","","","","","","","","","","","","","","","","","","","","","","","","","","","","","","","","","","","","","","","","","","","","","","","","","","","","","","","","","","","","","","","","","","","","","","","","","","","","","","","","","","SYN060AAXX  24191 01016 46/// /3413 11041 2//// 30037 40053 57004;","","","","","","","","","",""
"01016099999","2010-10-24T21:00:00","78.9333333","28.9","20.0","KONGSOYA, NO","FM-12","4","","","25","","","+0.01","7","","","29.68","29.63","","","340","","31","","","","","","","","","","","","","","","","","","","","","","","","","","","","","","","","","","","","","","","","","","","","","","","","","","","","","","","","","","","","","","","","","","","","","","","","","","","","","","","","","","","","","","","","","","","SYN060AAXX  24201 01016 46/// /3414 11039 2//// 30034 40050 57003;","","","","","","","","","",""
"01016099999","2010-10-24T22:00:00","78.9333333","28.9","20.0","KONGSOYA, NO","FM-12","4","","","25","","","+0.01","7","","","29.67","29.62","","","340","","29","","","","","","","","","","","","","","","","","","","","","","","","","","","","","","","","","","","","","","","","","","","","","","","","","","","","","","","","","","","","","","","","","","","","","","","","","","","","","","","","","","","","","","","","","","","SYN060AAXX  24211 01016 46/// /3413 11037 2//// 30030 40046 57005;","","","","","","","","","",""
"01016099999","2010-10-24T23:00:00","78.9333333","28.9","20.0","KONGSOYA, NO","FM-12","4","","","26","","","+0.01","7","","","29.66","29.61","","","340","","31","","","","","","","","","","","","","","","","","","","","","","","","","","","","","","","","","","","","","","","","","","","","","","","","","","","","","","","","","","","","","","","","","","","","","","","","","","","","","","","","","","","","","","","","","","","SYN060AAXX  24221 01016 46/// /3414 11034 2//// 30028 40044 57004;","","","","","","","","","",""
"01016099999","2010-10-25T00:00:00","78.9333333","28.9","20.0","KONGSOYA, NO","FM-12","4","","","26","","","+0.01","7","","","29.65","29.60","","","340","","31","","","","","","","","","","","","","","","","","","","","","","","","","","","","","","","","","","","","","","","","","","","","","","","","","","","","","","","","","","","","","","","","","","","","","","","","","","","","","","","","","","","","","","","","","","","SYN060AAXX  24231 01016 46/// /3414 11032 2//// 30025 40041 57004;","","","","","","","","","",""
"01016099999","2010-10-25T01:00:00","78.9333333","28.9","20.0","KONGSOYA, NO","FM-12","4","","","26","","","+0.01","7","","","29.65","29.60","","","340","","31","","","","","","","","","","","","","","","","","","","","","","","","","","","","","","","","","","","","","","","","","","","","","","","","","","","","","","","","","","","","","","","","","","","","","","","","","","","","","","","","","","","","","","","","","","","SYN070AAXX  25001 01016 46/// /3414 11031 2//// 30023 40039 57002 333 91117;","","","","","","","","","",""
"01016099999","2010-10-25T02:00:00","78.9333333","28.9","20.0","KONGSOYA, NO","FM-12","4","","","27","","","+0.01","7","","","29.65","29.60","","","340","","31","","","","","","","","","","","","","","","","","","","","","","","","","","","","","","","","","","","","","","","","","","","","","","","","","","","","","","","","","","","","","","","","","","","","","","","","","","","","","","","","","","","","","","","","","","","SYN060AAXX  25011 01016 46/// /3414 11026 2//// 30023 40039 58000;","","","","","","","","","",""
"01016099999","2010-10-25T03:00:00","78.9333333","28.9","20.0","KONGSOYA, NO","FM-12","4","","","27","","","0.00","4","","","29.65","29.60","","","340","","29","","","","","","","","","","","","","","","","","","","","","","","","","","","","","","","","","","","","","","","","","","","","","","","","","","","","","","","","","","","","","","","","","","","","","","","","","","","","","","","","","","","","","","","","","","","SYN060AAXX  25021 01016 46/// /3413 11025 2//// 30023 40039 54003;","","","","","","","","","",""
"01016099999","2010-10-25T04:00:00","78.9333333","28.9","20.0","KONGSOYA, NO","FM-12","4","","","29","","","0.00","4","","","29.64","29.59","","","350","","20","","","","","","","","","","","","","","","","","","","","","","","","","","","","","","","","","","","","","","","","","","","","","","","","","","","","","","","","","","","","","","","","","","","","","","","","","","","","","","","","","","","","","","","","","","","SYN060AAXX  25031 01016 46/// /3509 11019 2//// 30021 40036 54003;","","","","","","","","","",""
"01016099999","2010-10-25T05:00:00","78.9333333","28.9","20.0","KONGSOYA, NO","FM-12","4","","","28","","","-0.02","0","","","29.65","29.60","","","030","","20","","","","","","","","","","","","","","","","","","","","","","","","","","","","","","","","","","","","","","","","","","","","","","","","","","","","","","","","","","","","","","","","","","","","","","","","","","","","","","","","","","","","","","","","","","","SYN060AAXX  25041 01016 46/// /0309 11021 2//// 30024 40040 50006;","","","","","","","","","",""
"01016099999","2010-10-25T06:00:00","78.9333333","28.9","20.0","KONGSOYA, NO","FM-12","4","","","28","","","-0.03","1","","","29.66","29.61","","","010","","18","","","","","","","","","","","","","","","","","","","","","","","","","","","","","","","","","","","","","","","","","","","","","","","","","","","","","","","","","","","","","","","","","","","","","","","","","","","","","","","","","","","","","","","","","","","SYN060AAXX  25051 01016 46/// /0108 11022 2//// 30028 40044 51010;","","","","","","","","","",""
"01016099999","2010-10-25T07:00:00","78.9333333","28.9","20.0","KONGSOYA, NO","FM-12","4","","","27","","","-0.05","2","","","29.67","29.62","","","010","","16","","","","","","","","","","","","","","","","","","","","","","","","","","","","","","","","","","","","","","","","","","","","","","","","","","","","","","","","","","","","","","","","","","","","","","","","","","","","","","","","","","","","","","","","","","","SYN076AAXX  25061 01016 46/// /0107 11025 2//// 30032 40048 52016 333 21043 91117;","","","","","","","","","",""
"01016099999","2010-10-25T08:00:00","78.9333333","28.9","20.0","KONGSOYA, NO","FM-12","4","","","27","","","-0.04","2","","","29.68","29.63","","","010","","16","","","","","","","","","","","","","","","","","","","","","","","","","","","","","","","","","","","","","","","","","","","","","","","","","","","","","","","","","","","","","","","","","","","","","","","","","","","","","","","","","","","","","","","","","","","SYN060AAXX  25071 01016 46/// /0107 11027 2//// 30034 40050 52015;","","","","","","","","","",""
"01016099999","2010-10-25T09:00:00","78.9333333","28.9","20.0","KONGSOYA, NO","FM-12","4","","","27","","","-0.05","2","","","29.69","29.65","","","010","","18","","","","","","","","","","","","","","","","","","","","","","","","","","","","","","","","","","","","","","","","","","","","","","","","","","","","","","","","","","","","","","","","","","","","","","","","","","","","","","","","","","","","","","","","","","","SYN060AAXX  25081 01016 46/// /0108 11029 2//// 30039 40055 52016;","","","","","","","","","",""
"01016099999","2010-10-25T10:00:00","78.9333333","28.9","20.0","KONGSOYA, NO","FM-12","4","","","27","","","-0.04","2","","","29.70","29.65","","","010","","16","","","","","","","","","","","","","","","","","","","","","","","","","","","","","","","","","","","","","","","","","","","","","","","","","","","","","","","","","","","","","","","","","","","","","","","","","","","","","","","","","","","","","","","","","","","SYN060AAXX  25091 01016 46/// /0107 11029 2//// 30042 40058 52015;","","","","","","","","","",""
"01016099999","2010-10-25T11:00:00","78.9333333","28.9","20.0","KONGSOYA, NO","FM-12","4","","","26","","","-0.04","2","","","29.71","29.66","","","360","","18","","","","","","","","","","","","","","","","","","","","","","","","","","","","","","","","","","","","","","","","","","","","","","","","","","","","","","","","","","","","","","","","","","","","","","","","","","","","","","","","","","","","","","","","","","","SYN060AAXX  25101 01016 46/// /3608 11035 2//// 30044 40060 52015;","","","","","","","","","",""
"01016099999","2010-10-25T12:00:00","78.9333333","28.9","20.0","KONGSOYA, NO","FM-12","4","","","27","","","-0.04","2","","","29.71","29.67","","","010","","20","","","","","","","","","","","","","","","","","","","","","","","","","","","","","","","","","","","","","","","","","","","","","","","","","","","","","","","","","","","","","","","","","","","","","","","","","","","","","","","","","","","","","","","","","","","SYN060AAXX  25111 01016 46/// /0109 11027 2//// 30047 40062 52013;","","","","","","","","","",""
"01016099999","2010-10-25T13:00:00","78.9333333","28.9","20.0","KONGSOYA, NO","FM-12","4","","","27","","","-0.04","2","","","29.72","29.67","","","010","","18","","","","","","","","","","","","","","","","","","","","","","","","","","","","","","","","","","","","","","","","","","","","","","","","","","","","","","","","","","","","","","","","","","","","","","","","","","","","","","","","","","","","","","","","","","","SYN070AAXX  25121 01016 46/// /0108 11028 2//// 30049 40065 52012 333 91111;","","","","","","","","","",""
"01016099999","2010-10-25T14:00:00","78.9333333","28.9","20.0","KONGSOYA, NO","FM-12","4","","","27","","","-0.04","2","","","29.73","29.68","","","350","","18","","","","","","","","","","","","","","","","","","","","","","","","","","","","","","","","","","","","","","","","","","","","","","","","","","","","","","","","","","","","","","","","","","","","","","","","","","","","","","","","","","","","","","","","","","","SYN060AAXX  25131 01016 46/// /3508 11029 2//// 30051 40067 52012;","","","","","","","","","",""
"01016099999","2010-10-25T15:00:00","78.9333333","28.9","20.0","KONGSOYA, NO","FM-12","4","","","26","","","-0.03","2","","","29.73","29.69","","","340","","18","","","","","","","","","","","","","","","","","","","","","","","","","","","","","","","","","","","","","","","","","","","","","","","","","","","","","","","","","","","","","","","","","","","","","","","","","","","","","","","","","","","","","","","","","","","SYN060AAXX  25141 01016 46/// /3408 11032 2//// 30053 40069 52011;","","","","","","","","","",""
"01016099999","2010-10-25T17:00:00","78.9333333","28.9","20.0","KONGSOYA, NO","FM-12","4","","","24","","","-0.03","2","","","29.75","29.70","","","340","","22","","","","","","","","","","","","","","","","","","","","","","","","","","","","","","","","","","","","","","","","","","","","","","","","","","","","","","","","","","","","","","","","","","","","","","","","","","","","","","","","","","","","","","","","","","","SYN060AAXX  25161 01016 46/// /3410 11042 2//// 30057 40073 52011;","","","","","","","","","",""
"01016099999","2010-10-25T18:00:00","78.9333333","28.9","20.0","KONGSOYA, NO","FM-12","4","","","24","","","-0.02","3","","","29.74","29.70","","","330","","18","","","","","","","","","","","","","","","","","","","","","","","","","","","","","","","","","","","","","","","","","","","","","","","","","","","","","","","","","","","","","","","","","","","","","","","","","","","","","","","","","","","","","","","","","","","SYN060AAXX  25171 01016 46/// /3308 11044 2//// 30056 40072 53008;","","","","","","","","","",""
"01016099999","2010-10-25T19:00:00","78.9333333","28.9","20.0","KONGSOYA, NO","FM-12","4","","","24","","","0.00","4","","","29.75","29.70","","","340","","20","","","","","","","","","","","","","","","","","","","","","","","","","","","","","","","","","","","","","","","","","","","","","","","","","","","","","","","","","","","","","","","","","","","","","","","","","","","","","","","","","","","","","","","","","","","SYN076AAXX  25181 01016 46/// /3409 11047 2//// 30058 40074 54007 333 11025 91111;","","","","","","","","","",""
"01016099999","2010-10-25T20:00:00","78.9333333","28.9","20.0","KONGSOYA, NO","FM-12","4","","","23","","","0.00","4","","","29.75","29.70","","","340","","20","","","","","","","","","","","","","","","","","","","","","","","","","","","","","","","","","","","","","","","","","","","","","","","","","","","","","","","","","","","","","","","","","","","","","","","","","","","","","","","","","","","","","","","","","","","SYN060AAXX  25191 01016 46/// /3409 11050 2//// 30057 40073 54005;","","","","","","","","","",""
"01016099999","2010-10-25T21:00:00","78.9333333","28.9","20.0","KONGSOYA, NO","FM-12","4","","","23","","","+0.01","5","","","29.74","29.69","","","350","","18","","","","","","","","","","","","","","","","","","","","","","","","","","","","","","","","","","","","","","","","","","","","","","","","","","","","","","","","","","","","","","","","","","","","","","","","","","","","","","","","","","","","","","","","","","","SYN060AAXX  25201 01016 46/// /3508 11049 2//// 30055 40071 55004;","","","","","","","","","",""
"01016099999","2010-10-25T22:00:00","78.9333333","28.9","20.0","KONGSOYA, NO","FM-12","4","","","23","","","0.00","4","","","29.74","29.70","","","330","","22","","","","","","","","","","","","","","","","","","","","","","","","","","","","","","","","","","","","","","","","","","","","","","","","","","","","","","","","","","","","","","","","","","","","","","","","","","","","","","","","","","","","","","","","","","","SYN060AAXX  25211 01016 46/// /3310 11049 2//// 30056 40072 54003;","","","","","","","","","",""
"01016099999","2010-10-25T23:00:00","78.9333333","28.9","20.0","KONGSOYA, NO","FM-12","4","","","23","","","0.00","4","","","29.74","29.70","","","330","","22","","","","","","","","","","","","","","","","","","","","","","","","","","","","","","","","","","","","","","","","","","","","","","","","","","","","","","","","","","","","","","","","","","","","","","","","","","","","","","","","","","","","","","","","","","","SYN060AAXX  25221 01016 46/// /3310 11049 2//// 30056 40072 54004;","","","","","","","","","",""
"01016099999","2010-10-26T00:00:00","78.9333333","28.9","20.0","KONGSOYA, NO","FM-12","4","","","23","","","0.00","4","","","29.74","29.69","","","340","","20","","","","","","","","","","","","","","","","","","","","","","","","","","","","","","","","","","","","","","","","","","","","","","","","","","","","","","","","","","","","","","","","","","","","","","","","","","","","","","","","","","","","","","","","","","","SYN060AAXX  25231 01016 46/// /3409 11049 2//// 30055 40071 54005;","","","","","","","","","",""
"01016099999","2010-10-26T01:00:00","78.9333333","28.9","20.0","KONGSOYA, NO","FM-12","4","","","23","","","+0.00","7","","","29.73","29.68","","","340","","18","","","","","","","","","","","","","","","","","","","","","","","","","","","","","","","","","","","","","","","","","","","","","","","","","","","","","","","","","","","","","","","","","","","","","","","","","","","","","","","","","","","","","","","","","","","SYN070AAXX  26001 01016 46/// /3408 11048 2//// 30052 40068 57001 333 91112;","","","","","","","","","",""
"01016099999","2010-10-26T02:00:00","78.9333333","28.9","20.0","KONGSOYA, NO","FM-12","4","","","23","","","+0.00","7","","","29.72","29.68","","","340","","20","","","","","","","","","","","","","","","","","","","","","","","","","","","","","","","","","","","","","","","","","","","","","","","","","","","","","","","","","","","","","","","","","","","","","","","","","","","","","","","","","","","","","","","","","","","SYN060AAXX  26011 01016 46/// /3409 11048 2//// 30050 40066 57001;","","","","","","","","","",""
"01016099999","2010-10-26T03:00:00","78.9333333","28.9","20.0","KONGSOYA, NO","FM-12","4","","","24","","","+0.01","7","","","29.72","29.67","","","340","","22","","","","","","","","","","","","","","","","","","","","","","","","","","","","","","","","","","","","","","","","","","","","","","","","","","","","","","","","","","","","","","","","","","","","","","","","","","","","","","","","","","","","","","","","","","","SYN060AAXX  26021 01016 46/// /3410 11047 2//// 30048 40064 57002;","","","","","","","","","",""
"01016099999","2010-10-26T04:00:00","78.9333333","28.9","20.0","KONGSOYA, NO","FM-12","4","","","24","","","+0.00","7","","","29.72","29.67","","","350","","20","","","","","","","","","","","","","","","","","","","","","","","","","","","","","","","","","","","","","","","","","","","","","","","","","","","","","","","","","","","","","","","","","","","","","","","","","","","","","","","","","","","","","","","","","","","SYN060AAXX  26031 01016 46/// /3509 11047 2//// 30048 40064 57001;","","","","","","","","","",""
"01016099999","2010-10-26T05:00:00","78.9333333","28.9","20.0","KONGSOYA, NO","FM-12","4","","","24","","","+0.00","7","","","29.71","29.67","","","340","","22","","","","","","","","","","","","","","","","","","","","","","","","","","","","","","","","","","","","","","","","","","","","","","","","","","","","","","","","","","","","","","","","","","","","","","","","","","","","","","","","","","","","","","","","","","","SYN060AAXX  26041 01016 46/// /3410 11047 2//// 30046 40062 57001;","","","","","","","","","",""
"01016099999","2010-10-26T06:00:00","78.9333333","28.9","20.0","KONGSOYA, NO","FM-12","4","","","24","","","+0.00","7","","","29.71","29.66","","","340","","22","","","","","","","","","","","","","","","","","","","","","","","","","","","","","","","","","","","","","","","","","","","","","","","","","","","","","","","","","","","","","","","","","","","","","","","","","","","","","","","","","","","","","","","","","","","SYN060AAXX  26051 01016 46/// /3410 11047 2//// 30044 40060 57001;","","","","","","","","","",""
"01016099999","2010-10-26T07:00:00","78.9333333","28.9","20.0","KONGSOYA, NO","FM-12","4","","","24","","","+0.01","7","","","29.70","29.65","","","330","","22","","","","","","","","","","","","","","","","","","","","","","","","","","","","","","","","","","","","","","","","","","","","","","","","","","","","","","","","","","","","","","","","","","","","","","","","","","","","","","","","","","","","","","","","","","","SYN076AAXX  26061 01016 46/// /3310 11045 2//// 30042 40058 57002 333 21052 91112;","","","","","","","","","",""
"01016099999","2010-10-26T08:00:00","78.9333333","28.9","20.0","KONGSOYA, NO","FM-12","4","","","24","","","+0.00","7","","","29.70","29.65","","","340","","25","","","","","","","","","","","","","","","","","","","","","","","","","","","","","","","","","","","","","","","","","","","","","","","","","","","","","","","","","","","","","","","","","","","","","","","","","","","","","","","","","","","","","","","","","","","SYN060AAXX  26071 01016 46/// /3411 11046 2//// 30042 40058 57001;","","","","","","","","","",""
"01016099999","2010-10-26T09:00:00","78.9333333","28.9","20.0","KONGSOYA, NO","FM-12","4","","","24","","","0.00","4","","","29.70","29.66","","","340","","22","","","","","","","","","","","","","","","","","","","","","","","","","","","","","","","","","","","","","","","","","","","","","","","","","","","","","","","","","","","","","","","","","","","","","","","","","","","","","","","","","","","","","","","","","","","SYN060AAXX  26081 01016 46/// /3410 11046 2//// 30043 40058 54004;","","","","","","","","","",""
"01016099999","2010-10-26T10:00:00","78.9333333","28.9","20.0","KONGSOYA, NO","FM-12","4","","","25","","","0.00","4","","","29.70","29.65","","","340","","22","","","","","","","","","","","","","","","","","","","","","","","","","","","","","","","","","","","","","","","","","","","","","","","","","","","","","","","","","","","","","","","","","","","","","","","","","","","","","","","","","","","","","","","","","","","SYN060AAXX  26091 01016 46/// /3410 11041 2//// 30041 40057 54004;","","","","","","","","","",""
"01016099999","2010-10-26T11:00:00","78.9333333","28.9","20.0","KONGSOYA, NO","FM-12","4","","","25","","","0.00","4","","","29.69","29.65","","","340","","22","","","","","","","","","","","","","","","","","","","","","","","","","","","","","","","","","","","","","","","","","","","","","","","","","","","","","","","","","","","","","","","","","","","","","","","","","","","","","","","","","","","","","","","","","","","SYN060AAXX  26101 01016 46/// /3410 11040 2//// 30040 40055 54003;","","","","","","","","","",""
"01016099999","2010-10-26T12:00:00","78.9333333","28.9","20.0","KONGSOYA, NO","FM-12","4","","","25","","","+0.01","7","","","29.69","29.64","","","340","","22","","","","","","","","","","","","","","","","","","","","","","","","","","","","","","","","","","","","","","","","","","","","","","","","","","","","","","","","","","","","","","","","","","","","","","","","","","","","","","","","","","","","","","","","","","","SYN060AAXX  26111 01016 46/// /3410 11038 2//// 30038 40054 57000;","","","","","","","","","",""
"01016099999","2010-10-26T13:00:00","78.9333333","28.9","20.0","KONGSOYA, NO","FM-12","4","","","26","","","+0.00","7","","","29.68","29.64","","","330","","22","","","","","","","","","","","","","","","","","","","","","","","","","","","","","","","","","","","","","","","","","","","","","","","","","","","","","","","","","","","","","","","","","","","","","","","","","","","","","","","","","","","","","","","","","","","SYN070AAXX  26121 01016 46/// /3310 11036 2//// 30037 40052 57001 333 91112;","","","","","","","","","",""
"01016099999","2010-10-26T14:00:00","78.9333333","28.9","20.0","KONGSOYA, NO","FM-12","4","","","26","","","+0.01","7","","","29.68","29.63","","","350","","20","","","","","","","","","","","","","","","","","","","","","","","","","","","","","","","","","","","","","","","","","","","","","","","","","","","","","","","","","","","","","","","","","","","","","","","","","","","","","","","","","","","","","","","","","","","SYN060AAXX  26131 01016 46/// /3509 11035 2//// 30035 40051 57000;","","","","","","","","","",""
"01016099999","2010-10-26T15:00:00","78.9333333","28.9","20.0","KONGSOYA, NO","FM-12","4","","","26","","","+0.00","7","","","29.68","29.63","","","350","","25","","","","","","","","","","","","","","","","","","","","","","","","","","","","","","","","","","","","","","","","","","","","","","","","","","","","","","","","","","","","","","","","","","","","","","","","","","","","","","","","","","","","","","","","","","","SYN060AAXX  26141 01016 46/// /3511 11034 2//// 30034 40050 57001;","","","","","","","","","",""
"01016099999","2010-10-26T16:00:00","78.9333333","28.9","20.0","KONGSOYA, NO","FM-12","4","","","26","","","+0.00","7","","","29.67","29.63","","","350","","22","","","","","","","","","","","","","","","","","","","","","","","","","","","","","","","","","","","","","","","","","","","","","","","","","","","","","","","","","","","","","","","","","","","","","","","","","","","","","","","","","","","","","","","","","","","SYN060AAXX  26151 01016 46/// /3510 11033 2//// 30033 40048 57001;","","","","","","","","","",""
"01016099999","2010-10-26T17:00:00","78.9333333","28.9","20.0","KONGSOYA, NO","FM-12","4","","","26","","","+0.01","7","","","29.67","29.62","","","350","","22","","","","","","","","","","","","","","","","","","","","","","","","","","","","","","","","","","","","","","","","","","","","","","","","","","","","","","","","","","","","","","","","","","","","","","","","","","","","","","","","","","","","","","","","","","","SYN060AAXX  26161 01016 46/// /3510 11032 2//// 30032 40047 57002;","","","","","","","","","",""
"01016099999","2010-10-26T18:00:00","78.9333333","28.9","20.0","KONGSOYA, NO","FM-12","4","","","26","","","+0.01","7","","","29.67","29.62","","","","","","","","","","","","","","","","","","","","","","","","","","","","","","","","","","","","","","","","","","","","","","","","","","","","","","","","","","","","","","","","","","","","","","","","","","","","","","","","","","","","","","","","","","","","","","","","SYN060AAXX  26171 01016 46/// ///// 11031 2//// 30030 40046 57002;","","","","","","","","","",""
"01016099999","2010-10-26T19:00:00","78.9333333","28.9","20.0","KONGSOYA, NO","FM-12","4","","","26","","","0.00","4","","","29.67","29.62","","","350","","16","","","","","","","","","","","","","","","","","","","","","","","","","","","","","","","","","","","","","","","","","","","","","","","","","","","","","","","","","","","","","","","","","","","","","","","","","","","","","","","","","","","","","","","","","","","SYN076AAXX  26181 01016 46/// /3507 11033 2//// 30031 40046 54003 333 11029 91112;","","","","","","","","","",""
"01016099999","2010-10-26T20:00:00","78.9333333","28.9","20.0","KONGSOYA, NO","FM-12","4","","","26","","","0.00","4","","","29.67","29.62","","","350","","18","","","","","","","","","","","","","","","","","","","","","","","","","","","","","","","","","","","","","","","","","","","","","","","","","","","","","","","","","","","","","","","","","","","","","","","","","","","","","","","","","","","","","","","","","","","SYN060AAXX  26191 01016 46/// /3508 11032 2//// 30030 40046 54003;","","","","","","","","","",""
"01016099999","2010-10-26T21:00:00","78.9333333","28.9","20.0","KONGSOYA, NO","FM-12","4","","","26","","","0.00","4","","","29.66","29.62","","","010","","18","","","","","","","","","","","","","","","","","","","","","","","","","","","","","","","","","","","","","","","","","","","","","","","","","","","","","","","","","","","","","","","","","","","","","","","","","","","","","","","","","","","","","","","","","","","SYN060AAXX  26201 01016 46/// /0108 11033 2//// 30029 40045 54004;","","","","","","","","","",""
"01016099999","2010-10-26T22:00:00","78.9333333","28.9","20.0","KONGSOYA, NO","FM-12","4","","","26","","","0.00","4","","","29.67","29.62","","","350","","20","","","","","","","","","","","","","","","","","","","","","","","","","","","","","","","","","","","","","","","","","","","","","","","","","","","","","","","","","","","","","","","","","","","","","","","","","","","","","","","","","","","","","","","","","","","SYN060AAXX  26211 01016 46/// /3509 11033 2//// 30031 40047 54005;","","","","","","","","","",""
"01016099999","2010-10-26T23:00:00","78.9333333","28.9","20.0","KONGSOYA, NO","FM-12","4","","","26","","","0.00","4","","","29.67","29.62","","","360","","22","","","","","","","","","","","","","","","","","","","","","","","","","","","","","","","","","","","","","","","","","","","","","","","","","","","","","","","","","","","","","","","","","","","","","","","","","","","","","","","","","","","","","","","","","","","SYN060AAXX  26221 01016 46/// /3610 11034 2//// 30031 40047 54007;","","","","","","","","","",""
"01016099999","2010-10-27T00:00:00","78.9333333","28.9","20.0","KONGSOYA, NO","FM-12","4","","","25","","","0.00","4","","","29.67","29.62","","","350","","20","","","","","","","","","","","","","","","","","","","","","","","","","","","","","","","","","","","","","","","","","","","","","","","","","","","","","","","","","","","","","","","","","","","","","","","","","","","","","","","","","","","","","","","","","","","SYN060AAXX  26231 01016 46/// /3509 11037 2//// 30032 40048 54008;","","","","","","","","","",""
"01016099999","2010-10-27T01:00:00","78.9333333","28.9","20.0","KONGSOYA, NO","FM-12","4","","","25","","","0.00","4","","","29.67","29.63","","","350","","20","","","","","","","","","","","","","","","","","","","","","","","","","","","","","","","","","","","","","","","","","","","","","","","","","","","","","","","","","","","","","","","","","","","","","","","","","","","","","","","","","","","","","","","","","","","SYN070AAXX  27001 01016 46/// /3509 11038 2//// 30033 40049 54007 333 91112;","","","","","","","","","",""
"01016099999","2010-10-27T02:00:00","78.9333333","28.9","20.0","KONGSOYA, NO","FM-12","4","","","25","","","-0.03","2","","","29.68","29.63","","","360","","22","","","","","","","","","","","","","","","","","","","","","","","","","","","","","","","","","","","","","","","","","","","","","","","","","","","","","","","","","","","","","","","","","","","","","","","","","","","","","","","","","","","","","","","","","","","SYN060AAXX  27011 01016 46/// /3610 11040 2//// 30035 40051 52009;","","","","","","","","","",""
"01016099999","2010-10-27T03:00:00","78.9333333","28.9","20.0","KONGSOYA, NO","FM-12","4","","","24","","","0.00","4","","","29.68","29.63","","","360","","22","","","","","","","","","","","","","","","","","","","","","","","","","","","","","","","","","","","","","","","","","","","","","","","","","","","","","","","","","","","","","","","","","","","","","","","","","","","","","","","","","","","","","","","","","","","SYN060AAXX  27021 01016 46/// /3610 11043 2//// 30034 40050 54007;","","","","","","","","","",""
"01016099999","2010-10-27T04:00:00","78.9333333","28.9","20.0","KONGSOYA, NO","FM-12","4","","","24","","","0.00","4","","","29.68","29.63","","","350","","22","","","","","","","","","","","","","","","","","","","","","","","","","","","","","","","","","","","","","","","","","","","","","","","","","","","","","","","","","","","","","","","","","","","","","","","","","","","","","","","","","","","","","","","","","","","SYN060AAXX  27031 01016 46/// /3510 11045 2//// 30034 40050 54006;","","","","","","","","","",""
"01016099999","2010-10-27T05:00:00","78.9333333","28.9","20.0","KONGSOYA, NO","FM-12","4","","","24","","","0.00","4","","","29.68","29.64","","","350","","22","","","","","","","","","","","","","","","","","","","","","","","","","","","","","","","","","","","","","","","","","","","","","","","","","","","","","","","","","","","","","","","","","","","","","","","","","","","","","","","","","","","","","","","","","","","SYN060AAXX  27041 01016 46/// /3510 11046 2//// 30036 40051 54005;","","","","","","","","","",""
"01016099999","2010-10-27T06:00:00","78.9333333","28.9","20.0","KONGSOYA, NO","FM-12","4","","","24","","","0.00","4","","","29.68","29.63","","","350","","20","","","","","","","","","","","","","","","","","","","","","","","","","","","","","","","","","","","","","","","","","","","","","","","","","","","","","","","","","","","","","","","","","","","","","","","","","","","","","","","","","","","","","","","","","","","SYN060AAXX  27051 01016 46/// /3509 11047 2//// 30034 40050 54005;","","","","","","","","","",""
"01016099999","2010-10-27T07:00:00","78.9333333","28.9","20.0","KONGSOYA, NO","FM-12","4","","","24","","","0.00","4","","","29.67","29.63","","","350","","20","","","","","","","","","","","","","","","","","","","","","","","","","","","","","","","","","","","","","","","","","","","","","","","","","","","","","","","","","","","","","","","","","","","","","","","","","","","","","","","","","","","","","","","","","","","SYN076AAXX  27061 01016 46/// /3509 11043 2//// 30033 40049 54004 333 21047 91112;","","","","","","","","","",""
"01016099999","2010-10-27T08:00:00","78.9333333","28.9","20.0","KONGSOYA, NO","FM-12","4","","","24","","","0.00","4","","","29.68","29.63","","","350","","20","","","","","","","","","","","","","","","","","","","","","","","","","","","","","","","","","","","","","","","","","","","","","","","","","","","","","","","","","","","","","","","","","","","","","","","","","","","","","","","","","","","","","","","","","","","SYN060AAXX  27071 01016 46/// /3509 11042 2//// 30034 40050 54003;","","","","","","","","","",""
"01016099999","2010-10-27T09:00:00","78.9333333","28.9","20.0","KONGSOYA, NO","FM-12","4","","","24","","","-0.02","0","","","29.68","29.64","","","350","","25","","","","","","","","","","","","","","","","","","","","","","","","","","","","","","","","","","","","","","","","","","","","","","","","","","","","","","","","","","","","","","","","","","","","","","","","","","","","","","","","","","","","","","","","","","","SYN060AAXX  27081 01016 46/// /3511 11043 2//// 30036 40052 50007;","","","","","","","","","",""
"01016099999","2010-10-27T10:00:00","78.9333333","28.9","20.0","KONGSOYA, NO","FM-12","4","","","24","","","0.00","4","","","29.68","29.64","","","350","","22","","","","","","","","","","","","","","","","","","","","","","","","","","","","","","","","","","","","","","","","","","","","","","","","","","","","","","","","","","","","","","","","","","","","","","","","","","","","","","","","","","","","","","","","","","","SYN060AAXX  27091 01016 46/// /3510 11045 2//// 30036 40052 54008;","","","","","","","","","",""
"01016099999","2010-10-27T11:00:00","78.9333333","28.9","20.0","KONGSOYA, NO","FM-12","4","","","24","","","0.00","4","","","29.69","29.64","","","350","","22","","","","","","","","","","","","","","","","","","","","","","","","","","","","","","","","","","","","","","","","","","","","","","","","","","","","","","","","","","","","","","","","","","","","","","","","","","","","","","","","","","","","","","","","","","","SYN060AAXX  27101 01016 46/// /3510 11047 2//// 30037 40053 54008;","","","","","","","","","",""
"01016099999","2010-10-27T12:00:00","78.9333333","28.9","20.0","KONGSOYA, NO","FM-12","4","","","24","","","0.00","4","","","29.69","29.64","","","350","","22","","","","","","","","","","","","","","","","","","","","","","","","","","","","","","","","","","","","","","","","","","","","","","","","","","","","","","","","","","","","","","","","","","","","","","","","","","","","","","","","","","","","","","","","","","","SYN060AAXX  27111 01016 46/// /3510 11046 2//// 30038 40054 54007;","","","","","","","","","",""
"01016099999","2010-10-27T13:00:00","78.9333333","28.9","20.0","KONGSOYA, NO","FM-12","4","","","23","","","-0.03","2","","","29.70","29.65","","","350","","20","","","","","","","","","","","","","","","","","","","","","","","","","","","","","","","","","","","","","","","","","","","","","","","","","","","","","","","","","","","","","","","","","","","","","","","","","","","","","","","","","","","","","","","","","","","SYN070AAXX  27121 01016 46/// /3509 11049 2//// 30040 40056 52010 333 91113;","","","","","","","","","",""
"01016099999","2010-10-27T14:00:00","78.9333333","28.9","20.0","KONGSOYA, NO","FM-12","4","","","22","","","0.00","4","","","29.69","29.65","","","350","","20","","","","","","","","","","","","","","","","","","","","","","","","","","","","","","","","","","","","","","","","","","","","","","","","","","","","","","","","","","","","","","","","","","","","","","","","","","","","","","","","","","","","","","","","","","","SYN060AAXX  27131 01016 46/// /3509 11053 2//// 30039 40055 54007;","","","","","","","","","",""
"01016099999","2010-10-27T15:00:00","78.9333333","28.9","20.0","KONGSOYA, NO","FM-12","4","","","23","","","+0.01","5","","","29.69","29.64","","","350","","25","","","","","","","","","","","","","","","","","","","","","","","","","","","","","","","","","","","","","","","","","","","","","","","","","","","","","","","","","","","","","","","","","","","","","","","","","","","","","","","","","","","","","","","","","","","SYN060AAXX  27141 01016 46/// /3511 11051 2//// 30037 40053 55003;","","","","","","","","","",""
"01016099999","2010-10-27T16:00:00","78.9333333","28.9","20.0","KONGSOYA, NO","FM-12","4","","","24","","","+0.00","7","","","29.68","29.63","","","350","","25","","","","","","","","","","","","","","","","","","","","","","","","","","","","","","","","","","","","","","","","","","","","","","","","","","","","","","","","","","","","","","","","","","","","","","","","","","","","","","","","","","","","","","","","","","","SYN060AAXX  27151 01016 46/// /3511 11044 2//// 30034 40050 57001;","","","","","","","","","",""
"01016099999","2010-10-27T17:00:00","78.9333333","28.9","20.0","KONGSOYA, NO","FM-12","4","","","25","","","+0.01","7","","","29.67","29.63","","","350","","25","","","","","","","","","","","","","","","","","","","","","","","","","","","","","","","","","","","","","","","","","","","","","","","","","","","","","","","","","","","","","","","","","","","","","","","","","","","","","","","","","","","","","","","","","","","SYN060AAXX  27161 01016 46/// /3511 11038 2//// 30033 40049 57002;","","","","","","","","","",""
"01016099999","2010-10-27T18:00:00","78.9333333","28.9","20.0","KONGSOYA, NO","FM-12","4","","","25","","","+0.02","7","","","29.67","29.62","","","360","","27","","","","","","","","","","","","","","","","","","","","","","","","","","","","","","","","","","","","","","","","","","","","","","","","","","","","","","","","","","","","","","","","","","","","","","","","","","","","","","","","","","","","","","","","","","","SYN060AAXX  27171 01016 46/// /3612 11040 2//// 30031 40047 57000;","","","","","","","","","",""
"01016099999","2010-10-27T19:00:00","78.9333333","28.9","20.0","KONGSOYA, NO","FM-12","4","","","25","","","+0.00","7","","","29.67","29.62","","","360","","27","","","","","","","","","","","","","","","","","","","","","","","","","","","","","","","","","","","","","","","","","","","","","","","","","","","","","","","","","","","","","","","","","","","","","","","","","","","","","","","","","","","","","","","","","","","SYN076AAXX  27181 01016 46/// /3612 11039 2//// 30031 40047 57001 333 11036 91115;","","","","","","","","","",""
"01016099999","2010-10-27T20:00:00","78.9333333","28.9","20.0","KONGSOYA, NO","FM-12","4","","","25","","","-0.01","0","","","29.67","29.63","","","010","","27","","","","","","","","","","","","","","","","","","","","","","","","","","","","","","","","","","","","","","","","","","","","","","","","","","","","","","","","","","","","","","","","","","","","","","","","","","","","","","","","","","","","","","","","","","","SYN060AAXX  27191 01016 46/// /0112 11040 2//// 30033 40049 50005;","","","","","","","","","",""
"01016099999","2010-10-27T21:00:00","78.9333333","28.9","20.0","KONGSOYA, NO","FM-12","4","","","24","","","0.00","4","","","29.68","29.63","","","360","","25","","","","","","","","","","","","","","","","","","","","","","","","","","","","","","","","","","","","","","","","","","","","","","","","","","","","","","","","","","","","","","","","","","","","","","","","","","","","","","","","","","","","","","","","","","","SYN060AAXX  27201 01016 46/// /3611 11047 2//// 30034 40050 54008;","","","","","","","","","",""
"01016099999","2010-10-27T22:00:00","78.9333333","28.9","20.0","KONGSOYA, NO","FM-12","4","","","23","","","+0.02","5","","","29.67","29.63","","","360","","27","","","","","","","","","","","","","","","","","","","","","","","","","","","","","","","","","","","","","","","","","","","","","","","","","","","","","","","","","","","","","","","","","","","","","","","","","","","","","","","","","","","","","","","","","","","SYN060AAXX  27211 01016 46/// /3612 11048 2//// 30033 40049 55007;","","","","","","","","","",""
"01016099999","2010-10-27T23:00:00","78.9333333","28.9","20.0","KONGSOYA, NO","FM-12","4","","","22","","","0.00","4","","","29.68","29.63","","","360","","27","","","","","","","","","","","","","","","","","","","","","","","","","","","","","","","","","","","","","","","","","","","","","","","","","","","","","","","","","","","","","","","","","","","","","","","","","","","","","","","","","","","","","","","","","","","SYN060AAXX  27221 01016 46/// /3612 11057 2//// 30034 40050 54006;","","","","","","","","","",""
"01016099999","2010-10-28T00:00:00","78.9333333","28.9","20.0","KONGSOYA, NO","FM-12","4","","","20","","","0.00","4","","","29.67","29.63","","","360","","29","","","","","","","","","","","","","","","","","","","","","","","","","","","","","","","","","","","","","","","","","","","","","","","","","","","","","","","","","","","","","","","","","","","","","","","","","","","","","","","","","","","","","","","","","","","SYN060AAXX  27231 01016 46/// /3613 11065 2//// 30033 40049 54004;","","","","","","","","","",""
"01016099999","2010-10-28T01:00:00","78.9333333","28.9","20.0","KONGSOYA, NO","FM-12","4","","","20","","","+0.01","5","","","29.67","29.62","","","360","","29","","","","","","","","","","","","","","","","","","","","","","","","","","","","","","","","","","","","","","","","","","","","","","","","","","","","","","","","","","","","","","","","","","","","","","","","","","","","","","","","","","","","","","","","","","","SYN070AAXX  28001 01016 46/// /3613 11068 2//// 30031 40047 55003 333 91116;","","","","","","","","","",""
"01016099999","2010-10-28T02:00:00","78.9333333","28.9","20.0","KONGSOYA, NO","FM-12","4","","","20","","","+0.00","7","","","29.67","29.62","","","350","","29","","","","","","","","","","","","","","","","","","","","","","","","","","","","","","","","","","","","","","","","","","","","","","","","","","","","","","","","","","","","","","","","","","","","","","","","","","","","","","","","","","","","","","","","","","","SYN060AAXX  28011 01016 46/// /3513 11068 2//// 30030 40046 57001;","","","","","","","","","",""
"01016099999","2010-10-28T03:00:00","78.9333333","28.9","20.0","KONGSOYA, NO","FM-12","4","","","20","","","+0.01","7","","","29.65","29.61","","","350","","31","","","","","","","","","","","","","","","","","","","","","","","","","","","","","","","","","","","","","","","","","","","","","","","","","","","","","","","","","","","","","","","","","","","","","","","","","","","","","","","","","","","","","","","","","","","SYN060AAXX  28021 01016 46/// /3514 11069 2//// 30026 40042 57003;","","","","","","","","","",""
"01016099999","2010-10-28T04:00:00","78.9333333","28.9","20.0","KONGSOYA, NO","FM-12","4","","","20","","","+0.01","7","","","29.65","29.60","","","350","","34","","","","","","","","","","","","","","","","","","","","","","","","","","","","","","","","","","","","","","","","","","","","","","","","","","","","","","","","","","","","","","","","","","","","","","","","","","","","","","","","","","","","","","","","","","","SYN060AAXX  28031 01016 46/// /3515 11068 2//// 30024 40040 57002;","","","","","","","","","",""
"01016099999","2010-10-28T05:00:00","78.9333333","28.9","20.0","KONGSOYA, NO","FM-12","4","","","20","","","+0.02","7","","","29.63","29.59","","","350","","34","","","","","","","","","","","","","","","","","","","","","","","","","","","","","","","","","","","","","","","","","","","","","","","","","","","","","","","","","","","","","","","","","","","","","","","","","","","","","","","","","","","","","","","","","","","SYN060AAXX  28041 01016 46/// /3515 11068 2//// 30019 40035 57006;","","","","","","","","","",""
"01016099999","2010-10-28T06:00:00","78.9333333","28.9","20.0","KONGSOYA, NO","FM-12","4","","","19","","","+0.01","7","","","29.63","29.58","","","350","","31","","","","","","","","","","","","","","","","","","","","","","","","","","","","","","","","","","","","","","","","","","","","","","","","","","","","","","","","","","","","","","","","","","","","","","","","","","","","","","","","","","","","","","","","","","","SYN060AAXX  28051 01016 46/// /3514 11070 2//// 30018 40034 57003;","","","","","","","","","",""
"01016099999","2010-10-28T07:00:00","78.9333333","28.9","20.0","KONGSOYA, NO","FM-12","4","","","20","","","+0.01","7","","","29.62","29.57","","","350","","31","","","","","","","","","","","","","","","","","","","","","","","","","","","","","","","","","","","","","","","","","","","","","","","","","","","","","","","","","","","","","","","","","","","","","","","","","","","","","","","","","","","","","","","","","","","SYN076AAXX  28061 01016 46/// /3514 11067 2//// 30015 40031 57005 333 21071 91117;","","","","","","","","","",""
"01016099999","2010-10-28T08:00:00","78.9333333","28.9","20.0","KONGSOYA, NO","FM-12","4","","","20","","","+0.01","7","","","29.62","29.57","","","350","","29","","","","","","","","","","","","","","","","","","","","","","","","","","","","","","","","","","","","","","","","","","","","","","","","","","","","","","","","","","","","","","","","","","","","","","","","","","","","","","","","","","","","","","","","","","","SYN060AAXX  28071 01016 46/// /3513 11064 2//// 30014 40030 57000;","","","","","","","","","",""
"01016099999","2010-10-28T09:00:00","78.9333333","28.9","20.0","KONGSOYA, NO","FM-12","4","","","20","","","-0.01","0","","","29.62","29.57","","","340","","31","","","","","","","","","","","","","","","","","","","","","","","","","","","","","","","","","","","","","","","","","","","","","","","","","","","","","","","","","","","","","","","","","","","","","","","","","","","","","","","","","","","","","","","","","","","SYN060AAXX  28081 01016 46/// /3414 11066 2//// 30015 40031 50002;","","","","","","","","","",""
"01016099999","2010-10-28T10:00:00","78.9333333","28.9","20.0","KONGSOYA, NO","FM-12","4","","","21","","","0.00","4","","","29.62","29.57","","","350","","29","","","","","","","","","","","","","","","","","","","","","","","","","","","","","","","","","","","","","","","","","","","","","","","","","","","","","","","","","","","","","","","","","","","","","","","","","","","","","","","","","","","","","","","","","","","SYN060AAXX  28091 01016 46/// /3513 11063 2//// 30014 40030 54004;","","","","","","","","","",""
"01016099999","2010-10-28T11:00:00","78.9333333","28.9","20.0","KONGSOYA, NO","FM-12","4","","","21","","","+0.01","6","","","29.61","29.56","","","350","","31","","","","","","","","","","","","","","","","","","","","","","","","","","","","","","","","","","","","","","","","","","","","","","","","","","","","","","","","","","","","","","","","","","","","","","","","","","","","","","","","","","","","","","","","","","","SYN060AAXX  28101 01016 46/// /3514 11061 2//// 30011 40027 56002;","","","","","","","","","",""
"01016099999","2010-10-28T12:00:00","78.9333333","28.9","20.0","KONGSOYA, NO","FM-12","4","","","21","","","+0.00","7","","","29.60","29.56","","","350","","31","","","","","","","","","","","","","","","","","","","","","","","","","","","","","","","","","","","","","","","","","","","","","","","","","","","","","","","","","","","","","","","","","","","","","","","","","","","","","","","","","","","","","","","","","","","SYN060AAXX  28111 01016 46/// /3514 11061 2//// 30009 40025 57001;","","","","","","","","","",""
"01016099999","2010-10-28T13:00:00","78.9333333","28.9","20.0","KONGSOYA, NO","FM-12","4","","","21","","","+0.01","7","","","29.60","29.56","","","350","","31","","","","","","","","","","","","","","","","","","","","","","","","","","","","","","","","","","","","","","","","","","","","","","","","","","","","","","","","","","","","","","","","","","","","","","","","","","","","","","","","","","","","","","","","","","","SYN070AAXX  28121 01016 46/// /3514 11060 2//// 30009 40025 58000 333 91117;","","","","","","","","","",""
"01016099999","2010-10-28T14:00:00","78.9333333","28.9","20.0","KONGSOYA, NO","FM-12","4","","","21","","","0.00","4","","","29.60","29.56","","","350","","31","","","","","","","","","","","","","","","","","","","","","","","","","","","","","","","","","","","","","","","","","","","","","","","","","","","","","","","","","","","","","","","","","","","","","","","","","","","","","","","","","","","","","","","","","","","SYN060AAXX  28131 01016 46/// /3514 11062 2//// 30009 40025 54003;","","","","","","","","","",""
"01016099999","2010-10-28T15:00:00","78.9333333","28.9","20.0","KONGSOYA, NO","FM-12","4","","","21","","","0.00","4","","","29.60","29.55","","","350","","34","","","","","","","","","","","","","","","","","","","","","","","","","","","","","","","","","","","","","","","","","","","","","","","","","","","","","","","","","","","","","","","","","","","","","","","","","","","","","","","","","","","","","","","","","","","SYN060AAXX  28141 01016 46/// /3515 11063 2//// 30008 40024 54004;","","","","","","","","","",""
"01016099999","2010-10-28T16:00:00","78.9333333","28.9","20.0","KONGSOYA, NO","FM-12","4","","","20","","","+0.00","7","","","29.59","29.54","","","350","","34","","","","","","","","","","","","","","","","","","","","","","","","","","","","","","","","","","","","","","","","","","","","","","","","","","","","","","","","","","","","","","","","","","","","","","","","","","","","","","","","","","","","","","","","","","","SYN060AAXX  28151 01016 46/// /3515 11065 2//// 30005 40021 57001;","","","","","","","","","",""
"01016099999","2010-10-28T17:00:00","78.9333333","28.9","20.0","KONGSOYA, NO","FM-12","4","","","20","","","+0.00","7","","","29.59","29.54","","","350","","31","","","","","","","","","","","","","","","","","","","","","","","","","","","","","","","","","","","","","","","","","","","","","","","","","","","","","","","","","","","","","","","","","","","","","","","","","","","","","","","","","","","","","","","","","","","SYN060AAXX  28161 01016 46/// /3514 11068 2//// 30003 40019 57001;","","","","","","","","","",""
"01016099999","2010-10-28T18:00:00","78.9333333","28.9","20.0","KONGSOYA, NO","FM-12","4","","","19","","","+0.01","7","","","29.58","29.53","","","350","","34","","","","","","","","","","","","","","","","","","","","","","","","","","","","","","","","","","","","","","","","","","","","","","","","","","","","","","","","","","","","","","","","","","","","","","","","","","","","","","","","","","","","","","","","","","","SYN060AAXX  28171 01016 46/// /3515 11070 2//// 30001 40017 57002;","","","","","","","","","",""
"01016099999","2010-10-28T19:00:00","78.9333333","28.9","20.0","KONGSOYA, NO","FM-12","4","","","19","","","+0.01","7","","","29.58","29.53","","","350","","31","","","","","","","","","","","","","","","","","","","","","","","","","","","","","","","","","","","","","","","","","","","","","","","","","","","","","","","","","","","","","","","","","","","","","","","","","","","","","","","","","","","","","","","","","","","SYN076AAXX  28181 01016 46/// /3514 11070 2//// 30000 40016 57000 333 11058 91117;","","","","","","","","","",""
"01016099999","2010-10-28T20:00:00","78.9333333","28.9","20.0","KONGSOYA, NO","FM-12","4","","","19","","","+0.00","7","","","29.57","29.52","","","350","","31","","","","","","","","","","","","","","","","","","","","","","","","","","","","","","","","","","","","","","","","","","","","","","","","","","","","","","","","","","","","","","","","","","","","","","","","","","","","","","","","","","","","","","","","","","","SYN060AAXX  28191 01016 46/// /3514 11072 2//// 39996 40012 57001;","","","","","","","","","",""
"01016099999","2010-10-28T21:00:00","78.9333333","28.9","20.0","KONGSOYA, NO","FM-12","4","","","20","","","+0.00","7","","","29.56","29.52","","","350","","31","","","","","","","","","","","","","","","","","","","","","","","","","","","","","","","","","","","","","","","","","","","","","","","","","","","","","","","","","","","","","","","","","","","","","","","","","","","","","","","","","","","","","","","","","","","SYN060AAXX  28201 01016 46/// /3514 11065 2//// 39995 40011 57001;","","","","","","","","","",""
"01016099999","2010-10-28T22:00:00","78.9333333","28.9","20.0","KONGSOYA, NO","FM-12","4","","","20","","","+0.00","8","","","29.57","29.52","","","350","","31","","","","","","","","","","","","","","","","","","","","","","","","","","","","","","","","","","","","","","","","","","","","","","","","","","","","","","","","","","","","","","","","","","","","","","","","","","","","","","","","","","","","","","","","","","","SYN060AAXX  28211 01016 46/// /3514 11065 2//// 39996 40012 58001;","","","","","","","","","",""
"01016099999","2010-10-28T23:00:00","78.9333333","28.9","20.0","KONGSOYA, NO","FM-12","4","","","20","","","0.00","4","","","29.56","29.51","","","350","","34","","","","","","","","","","","","","","","","","","","","","","","","","","","","","","","","","","","","","","","","","","","","","","","","","","","","","","","","","","","","","","","","","","","","","","","","","","","","","","","","","","","","","","","","","","","SYN060AAXX  28221 01016 46/// /3515 11067 2//// 39994 40010 54003;","","","","","","","","","",""
"01016099999","2010-10-29T00:00:00","78.9333333","28.9","20.0","KONGSOYA, NO","FM-12","4","","","20","","","0.00","4","","","29.57","29.52","","","350","","31","","","","","","","","","","","","","","","","","","","","","","","","","","","","","","","","","","","","","","","","","","","","","","","","","","","","","","","","","","","","","","","","","","","","","","","","","","","","","","","","","","","","","","","","","","","SYN060AAXX  28231 01016 46/// /3514 11064 2//// 39996 40012 54006;","","","","","","","","","",""
"01016099999","2010-10-29T01:00:00","78.9333333","28.9","20.0","KONGSOYA, NO","FM-12","4","","","21","","","0.00","4","","","29.57","29.52","","","360","","31","","","","","","","","","","","","","","","","","","","","","","","","","","","","","","","","","","","","","","","","","","","","","","","","","","","","","","","","","","","","","","","","","","","","","","","","","","","","","","","","","","","","","","","","","","","SYN070AAXX  29001 01016 46/// /3614 11059 2//// 39996 40012 54005 333 91117;","","","","","","","","","",""
"01016099999","2010-10-29T02:00:00","78.9333333","28.9","20.0","KONGSOYA, NO","FM-12","4","","","22","","","+0.01","5","","","29.56","29.51","","","350","","29","","","","","","","","","","","","","","","","","","","","","","","","","","","","","","","","","","","","","","","","","","","","","","","","","","","","","","","","","","","","","","","","","","","","","","","","","","","","","","","","","","","","","","","","","","","SYN060AAXX  29011 01016 46/// /3513 11055 2//// 39993 40009 55004;","","","","","","","","","",""
"01016099999","2010-10-29T03:00:00","78.9333333","28.9","20.0","KONGSOYA, NO","FM-12","4","","","22","","","0.00","4","","","29.56","29.51","","","360","","29","","","","","","","","","","","","","","","","","","","","","","","","","","","","","","","","","","","","","","","","","","","","","","","","","","","","","","","","","","","","","","","","","","","","","","","","","","","","","","","","","","","","","","","","","","","SYN060AAXX  29021 01016 46/// /3613 11054 2//// 39994 40009 54003;","","","","","","","","","",""
"01016099999","2010-10-29T04:00:00","78.9333333","28.9","20.0","KONGSOYA, NO","FM-12","4","","","22","","","0.00","4","","","29.56","29.51","","","350","","29","","","","","","","","","","","","","","","","","","","","","","","","","","","","","","","","","","","","","","","","","","","","","","","","","","","","","","","","","","","","","","","","","","","","","","","","","","","","","","","","","","","","","","","","","","","SYN060AAXX  29031 01016 46/// /3513 11055 2//// 39993 40009 54002;","","","","","","","","","",""
"01016099999","2010-10-29T05:00:00","78.9333333","28.9","20.0","KONGSOYA, NO","FM-12","4","","","23","","","0.00","4","","","29.55","29.50","","","350","","25","","","","","","","","","","","","","","","","","","","","","","","","","","","","","","","","","","","","","","","","","","","","","","","","","","","","","","","","","","","","","","","","","","","","","","","","","","","","","","","","","","","","","","","","","","","SYN060AAXX  29041 01016 46/// /3511 11052 2//// 39991 40007 54003;","","","","","","","","","",""
"01016099999","2010-10-29T06:00:00","78.9333333","28.9","20.0","KONGSOYA, NO","FM-12","4","","","23","","","0.00","4","","","29.55","29.50","","","350","","20","","","","","","","","","","","","","","","","","","","","","","","","","","","","","","","","","","","","","","","","","","","","","","","","","","","","","","","","","","","","","","","","","","","","","","","","","","","","","","","","","","","","","","","","","","","SYN060AAXX  29051 01016 46/// /3509 11050 2//// 39991 40007 54003;","","","","","","","","","",""
"01016099999","2010-10-29T07:00:00","78.9333333","28.9","20.0","KONGSOYA, NO","FM-12","4","","","24","","","0.00","4","","","29.55","29.51","","","350","","20","","","","","","","","","","","","","","","","","","","","","","","","","","","","","","","","","","","","","","","","","","","","","","","","","","","","","","","","","","","","","","","","","","","","","","","","","","","","","","","","","","","","","","","","","","","SYN076AAXX  29061 01016 46/// /3509 11043 2//// 39992 40008 54004 333 21073 91116;","","","","","","","","","",""
"01016099999","2010-10-29T08:00:00","78.9333333","28.9","20.0","KONGSOYA, NO","FM-12","4","","","26","","","0.00","4","","","29.56","29.51","","","350","","18","","","","","","","","","","","","","","","","","","","","","","","","","","","","","","","","","","","","","","","","","","","","","","","","","","","","","","","","","","","","","","","","","","","","","","","","","","","","","","","","","","","","","","","","","","","SYN060AAXX  29071 01016 46/// /3508 11036 2//// 39993 40009 54008;","","","","","","","","","",""
"01016099999","2010-10-29T09:00:00","78.9333333","28.9","20.0","KONGSOYA, NO","FM-12","4","","","27","","","-0.03","2","","","29.57","29.52","","","360","","20","","","","","","","","","","","","","","","","","","","","","","","","","","","","","","","","","","","","","","","","","","","","","","","","","","","","","","","","","","","","","","","","","","","","","","","","","","","","","","","","","","","","","","","","","","","SYN060AAXX  29081 01016 46/// /3609 11030 2//// 39996 40012 52010;","","","","","","","","","",""
"01016099999","2010-10-29T10:00:00","78.9333333","28.9","20.0","KONGSOYA, NO","FM-12","4","","","26","","","-0.03","2","","","29.57","29.52","","","360","","18","","","","","","","","","","","","","","","","","","","","","","","","","","","","","","","","","","","","","","","","","","","","","","","","","","","","","","","","","","","","","","","","","","","","","","","","","","","","","","","","","","","","","","","","","","","SYN060AAXX  29091 01016 46/// /3608 11034 2//// 39998 40013 52011;","","","","","","","","","",""
"01016099999","2010-10-29T11:00:00","78.9333333","28.9","20.0","KONGSOYA, NO","FM-12","4","","","26","","","-0.03","2","","","29.57","29.53","","","360","","20","","","","","","","","","","","","","","","","","","","","","","","","","","","","","","","","","","","","","","","","","","","","","","","","","","","","","","","","","","","","","","","","","","","","","","","","","","","","","","","","","","","","","","","","","","","SYN060AAXX  29101 01016 46/// /3609 11032 2//// 39999 40015 52011;","","","","","","","","","",""
"01016099999","2010-10-29T12:00:00","78.9333333","28.9","20.0","KONGSOYA, NO","FM-12","4","","","26","","","-0.03","2","","","29.58","29.54","","","360","","18","","","","","","","","","","","","","","","","","","","","","","","","","","","","","","","","","","","","","","","","","","","","","","","","","","","","","","","","","","","","","","","","","","","","","","","","","","","","","","","","","","","","","","","","","","","SYN060AAXX  29111 01016 46/// /3608 11031 2//// 30002 40018 52011;","","","","","","","","","",""
"01016099999","2010-10-29T14:00:00","78.9333333","28.9","20.0","KONGSOYA, NO","FM-12","4","","","25","","","-0.03","2","","","29.59","29.54","","","350","","16","","","","","","","","","","","","","","","","","","","","","","","","","","","","","","","","","","","","","","","","","","","","","","","","","","","","","","","","","","","","","","","","","","","","","","","","","","","","","","","","","","","","","","","","","","","SYN060AAXX  29131 01016 46/// /3507 11040 2//// 30004 40020 52010;","","","","","","","","","",""
"01016099999","2010-10-29T15:00:00","78.9333333","28.9","20.0","KONGSOYA, NO","FM-12","4","","","26","","","0.00","4","","","29.58","29.54","","","360","","16","","","","","","","","","","","","","","","","","","","","","","","","","","","","","","","","","","","","","","","","","","","","","","","","","","","","","","","","","","","","","","","","","","","","","","","","","","","","","","","","","","","","","","","","","","","SYN060AAXX  29141 01016 46/// /3607 11031 2//// 30002 40018 54005;","","","","","","","","","",""
"01016099999","2010-10-29T16:00:00","78.9333333","28.9","20.0","KONGSOYA, NO","FM-12","4","","","25","","","0.00","4","","","29.58","29.54","","","350","","13","","","","","","","","","","","","","","","","","","","","","","","","","","","","","","","","","","","","","","","","","","","","","","","","","","","","","","","","","","","","","","","","","","","","","","","","","","","","","","","","","","","","","","","","","","","SYN060AAXX  29151 01016 46/// /3506 11039 2//// 30002 40018 54004;","","","","","","","","","",""
"01016099999","2010-10-29T17:00:00","78.9333333","28.9","20.0","KONGSOYA, NO","FM-12","4","","","25","","","+0.01","7","","","29.58","29.53","","","340","","11","","","","","","","","","","","","","","","","","","","","","","","","","","","","","","","","","","","","","","","","","","","","","","","","","","","","","","","","","","","","","","","","","","","","","","","","","","","","","","","","","","","","","","","","","","","SYN060AAXX  29161 01016 46/// /3405 11040 2//// 30001 40016 57002;","","","","","","","","","",""
"01016099999","2010-10-29T18:00:00","78.9333333","28.9","20.0","KONGSOYA, NO","FM-12","4","","","25","","","0.00","4","","","29.58","29.54","","","350","","16","","","","","","","","","","","","","","","","","","","","","","","","","","","","","","","","","","","","","","","","","","","","","","","","","","","","","","","","","","","","","","","","","","","","","","","","","","","","","","","","","","","","","","","","","","","SYN060AAXX  29171 01016 46/// /3507 11040 2//// 30003 40018 54005;","","","","","","","","","",""
"01016099999","2010-10-29T19:00:00","78.9333333","28.9","20.0","KONGSOYA, NO","FM-12","4","","","26","","","0.00","4","","","29.59","29.54","","","350","","16","","","","","","","","","","","","","","","","","","","","","","","","","","","","","","","","","","","","","","","","","","","","","","","","","","","","","","","","","","","","","","","","","","","","","","","","","","","","","","","","","","","","","","","","","","","SYN070AAXX  29181 01016 46/// /3507 11036 2//// 30004 40020 54007 333 91109;","","","","","","","","","",""
"01016099999","2010-10-29T20:00:00","78.9333333","28.9","20.0","KONGSOYA, NO","FM-12","4","","","26","","","-0.03","2","","","29.60","29.55","","","360","","18","","","","","","","","","","","","","","","","","","","","","","","","","","","","","","","","","","","","","","","","","","","","","","","","","","","","","","","","","","","","","","","","","","","","","","","","","","","","","","","","","","","","","","","","","","","SYN060AAXX  29191 01016 46/// /3608 11034 2//// 30007 40023 52011;","","","","","","","","","",""
"01016099999","2010-10-29T21:00:00","78.9333333","28.9","20.0","KONGSOYA, NO","FM-12","4","","","26","","","-0.03","2","","","29.60","29.55","","","350","","18","","","","","","","","","","","","","","","","","","","","","","","","","","","","","","","","","","","","","","","","","","","","","","","","","","","","","","","","","","","","","","","","","","","","","","","","","","","","","","","","","","","","","","","","","","","SYN060AAXX  29201 01016 46/// /3508 11034 2//// 30008 40024 52011;","","","","","","","","","",""
"01016099999","2010-10-29T22:00:00","78.9333333","28.9","20.0","KONGSOYA, NO","FM-12","4","","","26","","","-0.03","2","","","29.61","29.56","","","350","","18","","","","","","","","","","","","","","","","","","","","","","","","","","","","","","","","","","","","","","","","","","","","","","","","","","","","","","","","","","","","","","","","","","","","","","","","","","","","","","","","","","","","","","","","","","","SYN060AAXX  29211 01016 46/// /3508 11032 2//// 30010 40026 52011;","","","","","","","","","",""
"01016099999","2010-10-29T23:00:00","78.9333333","28.9","20.0","KONGSOYA, NO","FM-12","4","","","26","","","-0.02","2","","","29.61","29.56","","","360","","18","","","","","","","","","","","","","","","","","","","","","","","","","","","","","","","","","","","","","","","","","","","","","","","","","","","","","","","","","","","","","","","","","","","","","","","","","","","","","","","","","","","","","","","","","","","SYN060AAXX  29221 01016 46/// /3608 11033 2//// 30010 40026 52008;","","","","","","","","","",""
"01016099999","2010-10-30T00:00:00","78.9333333","28.9","20.0","KONGSOYA, NO","FM-12","4","","","26","","","0.00","4","","","29.61","29.56","","","010","","18","","","","","","","","","","","","","","","","","","","","","","","","","","","","","","","","","","","","","","","","","","","","","","","","","","","","","","","","","","","","","","","","","","","","","","","","","","","","","","","","","","","","","","","","","","","SYN060AAXX  29231 01016 46/// /0108 11034 2//// 30011 40027 54008;","","","","","","","","","",""
"01016099999","2010-10-30T01:00:00","78.9333333","28.9","20.0","KONGSOYA, NO","FM-12","4","","","26","","","-0.03","2","","","29.62","29.57","","","020","","20","","","","","","","","","","","","","","","","","","","","","","","","","","","","","","","","","","","","","","","","","","","","","","","","","","","","","","","","","","","","","","","","","","","","","","","","","","","","","","","","","","","","","","","","","","","SYN070AAXX  30001 01016 46/// /0209 11032 2//// 30014 40030 52010 333 91110;","","","","","","","","","",""
"01016099999","2010-10-30T02:00:00","78.9333333","28.9","20.0","KONGSOYA, NO","FM-12","4","","","25","","","-0.05","1","","","29.64","29.59","","","030","","25","","","","","","","","","","","","","","","","","","","","","","","","","","","","","","","","","","","","","","","","","","","","","","","","","","","","","","","","","","","","","","","","","","","","","","","","","","","","","","","","","","","","","","","","","","","SYN060AAXX  30011 01016 46/// /0311 11039 2//// 30022 40037 51016;","","","","","","","","","",""
"01016099999","2010-10-30T03:00:00","78.9333333","28.9","20.0","KONGSOYA, NO","FM-12","4","","","25","","","-0.06","2","","","29.66","29.61","","","020","","22","","","","","","","","","","","","","","","","","","","","","","","","","","","","","","","","","","","","","","","","","","","","","","","","","","","","","","","","","","","","","","","","","","","","","","","","","","","","","","","","","","","","","","","","","","","SYN060AAXX  30021 01016 46/// /0210 11040 2//// 30027 40043 52021;","","","","","","","","","",""
"01016099999","2010-10-30T04:00:00","78.9333333","28.9","20.0","KONGSOYA, NO","FM-12","4","","","24","","","-0.06","3","","","29.67","29.62","","","020","","22","","","","","","","","","","","","","","","","","","","","","","","","","","","","","","","","","","","","","","","","","","","","","","","","","","","","","","","","","","","","","","","","","","","","","","","","","","","","","","","","","","","","","","","","","","","SYN060AAXX  30031 01016 46/// /0210 11044 2//// 30031 40047 53022;","","","","","","","","","",""
"01016099999","2010-10-30T05:00:00","78.9333333","28.9","20.0","KONGSOYA, NO","FM-12","4","","","23","","","-0.06","2","","","29.69","29.64","","","010","","27","","","","","","","","","","","","","","","","","","","","","","","","","","","","","","","","","","","","","","","","","","","","","","","","","","","","","","","","","","","","","","","","","","","","","","","","","","","","","","","","","","","","","","","","","","","SYN060AAXX  30041 01016 46/// /0112 11051 2//// 30037 40053 52020;","","","","","","","","","",""
"01016099999","2010-10-30T06:00:00","78.9333333","28.9","20.0","KONGSOYA, NO","FM-12","4","","","22","","","-0.06","2","","","29.70","29.65","","","360","","22","","","","","","","","","","","","","","","","","","","","","","","","","","","","","","","","","","","","","","","","","","","","","","","","","","","","","","","","","","","","","","","","","","","","","","","","","","","","","","","","","","","","","","","","","","","SYN060AAXX  30051 01016 46/// /3610 11054 2//// 30042 40058 52020;","","","","","","","","","",""
"01016099999","2010-10-30T07:00:00","78.9333333","28.9","20.0","KONGSOYA, NO","FM-12","4","","","21","","","-0.06","2","","","29.72","29.67","","","360","","25","","","","","","","","","","","","","","","","","","","","","","","","","","","","","","","","","","","","","","","","","","","","","","","","","","","","","","","","","","","","","","","","","","","","","","","","","","","","","","","","","","","","","","","","","","","SYN076AAXX  30061 01016 46/// /3611 11062 2//// 30047 40063 52021 333 21064 91114;","","","","","","","","","",""
"01016099999","2010-10-30T08:00:00","78.9333333","28.9","20.0","KONGSOYA, NO","FM-12","4","","","20","","","-0.06","2","","","29.73","29.68","","","360","","22","","","","","","","","","","","","","","","","","","","","","","","","","","","","","","","","","","","","","","","","","","","","","","","","","","","","","","","","","","","","","","","","","","","","","","","","","","","","","","","","","","","","","","","","","","","SYN060AAXX  30071 01016 46/// /3610 11067 2//// 30051 40067 52019;","","","","","","","","","",""
"01016099999","2010-10-30T09:00:00","78.9333333","28.9","20.0","KONGSOYA, NO","FM-12","4","","","19","","","-0.05","2","","","29.74","29.69","","","350","","22","","","","","","","","","","","","","","","","","","","","","","","","","","","","","","","","","","","","","","","","","","","","","","","","","","","","","","","","","","","","","","","","","","","","","","","","","","","","","","","","","","","","","","","","","","","SYN060AAXX  30081 01016 46/// /3510 11073 2//// 30055 40071 52018;","","","","","","","","","",""
"01016099999","2010-10-30T10:00:00","78.9333333","28.9","20.0","KONGSOYA, NO","FM-12","4","","","18","","","-0.05","2","","","29.75","29.70","","","350","","22","","","","","","","","","","","","","","","","","","","","","","","","","","","","","","","","","","","","","","","","","","","","","","","","","","","","","","","","","","","","","","","","","","","","","","","","","","","","","","","","","","","","","","","","","","","SYN060AAXX  30091 01016 46/// /3510 11075 2//// 30059 40075 52017;","","","","","","","","","",""
"01016099999","2010-10-30T11:00:00","78.9333333","28.9","20.0","KONGSOYA, NO","FM-12","4","","","17","","","-0.05","2","","","29.76","29.71","","","340","","22","","","","","","","","","","","","","","","","","","","","","","","","","","","","","","","","","","","","","","","","","","","","","","","","","","","","","","","","","","","","","","","","","","","","","","","","","","","","","","","","","","","","","","","","","","","SYN060AAXX  30101 01016 46/// /3410 11081 2//// 30062 40079 52017;","","","","","","","","","",""
"01016099999","2010-10-30T12:00:00","78.9333333","28.9","20.0","KONGSOYA, NO","FM-12","4","","","17","","","-0.04","3","","","29.76","29.72","","","340","","22","","","","","","","","","","","","","","","","","","","","","","","","","","","","","","","","","","","","","","","","","","","","","","","","","","","","","","","","","","","","","","","","","","","","","","","","","","","","","","","","","","","","","","","","","","","SYN060AAXX  30111 01016 46/// /3410 11085 2//// 30063 40079 53013;","","","","","","","","","",""
"01016099999","2010-10-30T13:00:00","78.9333333","28.9","20.0","KONGSOYA, NO","FM-12","4","","","17","","","-0.03","2","","","29.77","29.72","","","330","","25","","","","","","","","","","","","","","","","","","","","","","","","","","","","","","","","","","","","","","","","","","","","","","","","","","","","","","","","","","","","","","","","","","","","","","","","","","","","","","","","","","","","","","","","","","","SYN070AAXX  30121 01016 46/// /3311 11085 2//// 30064 40081 52011 333 91113;","","","","","","","","","",""
"01016099999","2010-10-30T14:00:00","78.9333333","28.9","20.0","KONGSOYA, NO","FM-12","4","","","17","","","+0.01","5","","","29.76","29.71","","","340","","25","","","","","","","","","","","","","","","","","","","","","","","","","","","","","","","","","","","","","","","","","","","","","","","","","","","","","","","","","","","","","","","","","","","","","","","","","","","","","","","","","","","","","","","","","","","SYN060AAXX  30131 01016 46/// /3411 11082 2//// 30061 40077 55003;","","","","","","","","","",""
"01016099999","2010-10-30T15:00:00","78.9333333","28.9","20.0","KONGSOYA, NO","FM-12","4","","","18","","","0.00","4","","","29.76","29.71","","","340","","25","","","","","","","","","","","","","","","","","","","","","","","","","","","","","","","","","","","","","","","","","","","","","","","","","","","","","","","","","","","","","","","","","","","","","","","","","","","","","","","","","","","","","","","","","","","SYN060AAXX  30141 01016 46/// /3411 11078 2//// 30061 40077 54003;","","","","","","","","","",""
"01016099999","2010-10-30T16:00:00","78.9333333","28.9","20.0","KONGSOYA, NO","FM-12","4","","","18","","","+0.02","7","","","29.75","29.70","","","350","","22","","","","","","","","","","","","","","","","","","","","","","","","","","","","","","","","","","","","","","","","","","","","","","","","","","","","","","","","","","","","","","","","","","","","","","","","","","","","","","","","","","","","","","","","","","","SYN060AAXX  30151 01016 46/// /3510 11075 2//// 30059 40075 57000;","","","","","","","","","",""
"01016099999","2010-10-30T17:00:00","78.9333333","28.9","20.0","KONGSOYA, NO","FM-12","4","","","19","","","0.00","4","","","29.75","29.70","","","360","","22","","","","","","","","","","","","","","","","","","","","","","","","","","","","","","","","","","","","","","","","","","","","","","","","","","","","","","","","","","","","","","","","","","","","","","","","","","","","","","","","","","","","","","","","","","","SYN060AAXX  30161 01016 46/// /3610 11070 2//// 30059 40076 54004;","","","","","","","","","",""
"01016099999","2010-10-30T18:00:00","78.9333333","28.9","20.0","KONGSOYA, NO","FM-12","4","","","20","","","0.00","4","","","29.75","29.71","","","350","","22","","","","","","","","","","","","","","","","","","","","","","","","","","","","","","","","","","","","","","","","","","","","","","","","","","","","","","","","","","","","","","","","","","","","","","","","","","","","","","","","","","","","","","","","","","","SYN060AAXX  30171 01016 46/// /3510 11068 2//// 30060 40076 54005;","","","","","","","","","",""
"01016099999","2010-10-30T19:00:00","78.9333333","28.9","20.0","KONGSOYA, NO","FM-12","4","","","21","","","0.00","4","","","29.75","29.70","","","350","","25","","","","","","","","","","","","","","","","","","","","","","","","","","","","","","","","","","","","","","","","","","","","","","","","","","","","","","","","","","","","","","","","","","","","","","","","","","","","","","","","","","","","","","","","","","","SYN076AAXX  30181 01016 46/// /3511 11063 2//// 30059 40075 54005 333 11063 91113;","","","","","","","","","",""
"01016099999","2010-10-30T20:00:00","78.9333333","28.9","20.0","KONGSOYA, NO","FM-12","4","","","22","","","0.00","4","","","29.76","29.71","","","360","","22","","","","","","","","","","","","","","","","","","","","","","","","","","","","","","","","","","","","","","","","","","","","","","","","","","","","","","","","","","","","","","","","","","","","","","","","","","","","","","","","","","","","","","","","","","","SYN060AAXX  30191 01016 46/// /3610 11058 2//// 30061 40077 54007;","","","","","","","","","",""
"01016099999","2010-10-30T21:00:00","78.9333333","28.9","20.0","KONGSOYA, NO","FM-12","4","","","23","","","0.00","4","","","29.76","29.71","","","360","","25","","","","","","","","","","","","","","","","","","","","","","","","","","","","","","","","","","","","","","","","","","","","","","","","","","","","","","","","","","","","","","","","","","","","","","","","","","","","","","","","","","","","","","","","","","","SYN060AAXX  30201 01016 46/// /3611 11048 2//// 30061 40077 54006;","","","","","","","","","",""
"01016099999","2010-10-30T22:00:00","78.9333333","28.9","20.0","KONGSOYA, NO","FM-12","4","","","25","","","0.00","4","","","29.76","29.71","","","020","","22","","","","","","","","","","","","","","","","","","","","","","","","","","","","","","","","","","","","","","","","","","","","","","","","","","","","","","","","","","","","","","","","","","","","","","","","","","","","","","","","","","","","","","","","","","","SYN060AAXX  30211 01016 46/// /0210 11040 2//// 30062 40078 54007;","","","","","","","","","",""
"01016099999","2010-10-30T23:00:00","78.9333333","28.9","20.0","KONGSOYA, NO","FM-12","4","","","24","","","-0.03","1","","","29.77","29.72","","","030","","22","","","","","","","","","","","","","","","","","","","","","","","","","","","","","","","","","","","","","","","","","","","","","","","","","","","","","","","","","","","","","","","","","","","","","","","","","","","","","","","","","","","","","","","","","","","SYN060AAXX  30221 01016 46/// /0310 11042 2//// 30065 40081 51009;","","","","","","","","","",""
"01016099999","2010-10-31T00:00:00","78.9333333","28.9","20.0","KONGSOYA, NO","FM-12","4","","","24","","","-0.04","1","","","29.78","29.74","","","030","","20","","","","","","","","","","","","","","","","","","","","","","","","","","","","","","","","","","","","","","","","","","","","","","","","","","","","","","","","","","","","","","","","","","","","","","","","","","","","","","","","","","","","","","","","","","","SYN060AAXX  30231 01016 46/// /0309 11045 2//// 30070 40086 51013;","","","","","","","","","",""
"01016099999","2010-10-31T01:00:00","78.9333333","28.9","20.0","KONGSOYA, NO","FM-12","4","","","24","","","-0.04","3","","","29.78","29.74","","","030","","20","","","","","","","","","","","","","","","","","","","","","","","","","","","","","","","","","","","","","","","","","","","","","","","","","","","","","","","","","","","","","","","","","","","","","","","","","","","","","","","","","","","","","","","","","","","SYN070AAXX  31001 01016 46/// /0309 11045 2//// 30070 40086 53013 333 91113;","","","","","","","","","",""
"01016099999","2010-10-31T02:00:00","78.9333333","28.9","20.0","KONGSOYA, NO","FM-12","4","","","23","","","-0.04","2","","","29.79","29.75","","","020","","18","","","","","","","","","","","","","","","","","","","","","","","","","","","","","","","","","","","","","","","","","","","","","","","","","","","","","","","","","","","","","","","","","","","","","","","","","","","","","","","","","","","","","","","","","","","SYN060AAXX  31011 01016 46/// /0208 11052 2//// 30073 40089 52013;","","","","","","","","","",""
"01016099999","2010-10-31T03:00:00","78.9333333","28.9","20.0","KONGSOYA, NO","FM-12","4","","","23","","","-0.03","2","","","29.80","29.75","","","020","","18","","","","","","","","","","","","","","","","","","","","","","","","","","","","","","","","","","","","","","","","","","","","","","","","","","","","","","","","","","","","","","","","","","","","","","","","","","","","","","","","","","","","","","","","","","","SYN060AAXX  31021 01016 46/// /0208 11051 2//// 30074 40090 52009;","","","","","","","","","",""
"01016099999","2010-10-31T04:00:00","78.9333333","28.9","20.0","KONGSOYA, NO","FM-12","4","","","22","","","-0.03","3","","","29.80","29.75","","","020","","18","","","","","","","","","","","","","","","","","","","","","","","","","","","","","","","","","","","","","","","","","","","","","","","","","","","","","","","","","","","","","","","","","","","","","","","","","","","","","","","","","","","","","","","","","","","SYN060AAXX  31031 01016 46/// /0208 11055 2//// 30074 40090 53009;","","","","","","","","","",""
"01016099999","2010-10-31T05:00:00","78.9333333","28.9","20.0","KONGSOYA, NO","FM-12","4","","","21","","","0.00","4","","","29.80","29.75","","","020","","18","","","","","","","","","","","","","","","","","","","","","","","","","","","","","","","","","","","","","","","","","","","","","","","","","","","","","","","","","","","","","","","","","","","","","","","","","","","","","","","","","","","","","","","","","","","SYN060AAXX  31041 01016 46/// /0208 11059 2//// 30074 40090 54006;","","","","","","","","","",""
"01016099999","2010-10-31T06:00:00","78.9333333","28.9","20.0","KONGSOYA, NO","FM-12","4","","","21","","","0.00","4","","","29.79","29.75","","","010","","20","","","","","","","","","","","","","","","","","","","","","","","","","","","","","","","","","","","","","","","","","","","","","","","","","","","","","","","","","","","","","","","","","","","","","","","","","","","","","","","","","","","","","","","","","","","SYN060AAXX  31051 01016 46/// /0109 11061 2//// 30073 40089 54004;","","","","","","","","","",""
"01016099999","2010-10-31T07:00:00","78.9333333","28.9","20.0","KONGSOYA, NO","FM-12","4","","","21","","","0.00","4","","","29.80","29.75","","","020","","18","","","","","","","","","","","","","","","","","","","","","","","","","","","","","","","","","","","","","","","","","","","","","","","","","","","","","","","","","","","","","","","","","","","","","","","","","","","","","","","","","","","","","","","","","","","SYN076AAXX  31061 01016 46/// /0208 11061 2//// 30075 40091 54006 333 21063 91110;","","","","","","","","","",""
"01016099999","2010-10-31T08:00:00","78.9333333","28.9","20.0","KONGSOYA, NO","FM-12","4","","","20","","","-0.03","1","","","29.81","29.76","","","020","","18","","","","","","","","","","","","","","","","","","","","","","","","","","","","","","","","","","","","","","","","","","","","","","","","","","","","","","","","","","","","","","","","","","","","","","","","","","","","","","","","","","","","","","","","","","","SYN060AAXX  31071 01016 46/// /0208 11066 2//// 30079 40095 51010;","","","","","","","","","",""
"01016099999","2010-10-31T09:00:00","78.9333333","28.9","20.0","KONGSOYA, NO","FM-12","4","","","20","","","-0.04","2","","","29.82","29.78","","","020","","18","","","","","","","","","","","","","","","","","","","","","","","","","","","","","","","","","","","","","","","","","","","","","","","","","","","","","","","","","","","","","","","","","","","","","","","","","","","","","","","","","","","","","","","","","","","SYN060AAXX  31081 01016 46/// /0208 11068 2//// 30083 40099 52014;","","","","","","","","","",""
"01016099999","2010-10-31T10:00:00","78.9333333","28.9","20.0","KONGSOYA, NO","FM-12","4","","","18","","","-0.04","3","","","29.82","29.78","","","010","","20","","","","","","","","","","","","","","","","","","","","","","","","","","","","","","","","","","","","","","","","","","","","","","","","","","","","","","","","","","","","","","","","","","","","","","","","","","","","","","","","","","","","","","","","","","","SYN060AAXX  31091 01016 46/// /0109 11076 2//// 30083 40099 53013;","","","","","","","","","",""
"01016099999","2010-10-31T11:00:00","78.9333333","28.9","20.0","KONGSOYA, NO","FM-12","4","","","18","","","-0.03","2","","","29.83","29.78","","","020","","20","","","","","","","","","","","","","","","","","","","","","","","","","","","","","","","","","","","","","","","","","","","","","","","","","","","","","","","","","","","","","","","","","","","","","","","","","","","","","","","","","","","","","","","","","","","SYN060AAXX  31101 01016 46/// /0209 11080 2//// 30084 40100 52010;","","","","","","","","","",""
"01016099999","2010-10-31T12:00:00","78.9333333","28.9","20.0","KONGSOYA, NO","FM-12","4","","","17","","","0.00","4","","","29.83","29.78","","","010","","22","","","","","","","","","","","","","","","","","","","","","","","","","","","","","","","","","","","","","","","","","","","","","","","","","","","","","","","","","","","","","","","","","","","","","","","","","","","","","","","","","","","","","","","","","","","SYN060AAXX  31111 01016 46/// /0110 11086 2//// 30083 40100 54006;","","","","","","","","","",""
"01016099999","2010-10-31T13:00:00","78.9333333","28.9","20.0","KONGSOYA, NO","FM-12","4","","","17","","","+0.01","5","","","29.81","29.77","","","010","","22","","","","","","","","","","","","","","","","","","","","","","","","","","","","","","","","","","","","","","","","","","","","","","","","","","","","","","","","","","","","","","","","","","","","","","","","","","","","","","","","","","","","","","","","","","","SYN070AAXX  31121 01016 46/// /0110 11085 2//// 30080 40096 55003 333 91113;","","","","","","","","","",""
"01016099999","2010-10-31T14:00:00","78.9333333","28.9","20.0","KONGSOYA, NO","FM-12","4","","","16","","","+0.01","6","","","29.80","29.75","","","020","","25","","","","","","","","","","","","","","","","","","","","","","","","","","","","","","","","","","","","","","","","","","","","","","","","","","","","","","","","","","","","","","","","","","","","","","","","","","","","","","","","","","","","","","","","","","","SYN060AAXX  31131 01016 46/// /0211 11087 2//// 30076 40092 56003;","","","","","","","","","",""
"01016099999","2010-10-31T15:00:00","78.9333333","28.9","20.0","KONGSOYA, NO","FM-12","4","","","16","","","+0.01","8","","","29.80","29.75","","","010","","25","","","","","","","","","","","","","","","","","","","","","","","","","","","","","","","","","","","","","","","","","","","","","","","","","","","","","","","","","","","","","","","","","","","","","","","","","","","","","","","","","","","","","","","","","","","SYN060AAXX  31141 01016 46/// /0111 11090 2//// 30076 40093 58002;","","","","","","","","","",""
"01016099999","2010-10-31T16:00:00","78.9333333","28.9","20.0","KONGSOYA, NO","FM-12","4","","","15","","","+0.00","8","","","29.80","29.75","","","010","","22","","","","","","","","","","","","","","","","","","","","","","","","","","","","","","","","","","","","","","","","","","","","","","","","","","","","","","","","","","","","","","","","","","","","","","","","","","","","","","","","","","","","","","","","","","","SYN060AAXX  31151 01016 46/// /0110 11092 2//// 30076 40092 58001;","","","","","","","","","",""
"01016099999","2010-10-31T17:00:00","78.9333333","28.9","20.0","KONGSOYA, NO","FM-12","4","","","15","","","+0.01","5","","","29.79","29.75","","","360","","20","","","","","","","","","","","","","","","","","","","","","","","","","","","","","","","","","","","","","","","","","","","","","","","","","","","","","","","","","","","","","","","","","","","","","","","","","","","","","","","","","","","","","","","","","","","SYN060AAXX  31161 01016 46/// /3609 11097 2//// 30073 40089 55002;","","","","","","","","","",""
"01016099999","2010-10-31T18:00:00","78.9333333","28.9","20.0","KONGSOYA, NO","FM-12","4","","","14","","","+0.01","7","","","29.79","29.74","","","010","","20","","","","","","","","","","","","","","","","","","","","","","","","","","","","","","","","","","","","","","","","","","","","","","","","","","","","","","","","","","","","","","","","","","","","","","","","","","","","","","","","","","","","","","","","","","","SYN060AAXX  31171 01016 46/// /0109 11099 2//// 30071 40088 57000;","","","","","","","","","",""
"01016099999","2010-10-31T19:00:00","78.9333333","28.9","20.0","KONGSOYA, NO","FM-12","4","","","14","","","+0.01","7","","","29.79","29.74","","","010","","20","","","","","","","","","","","","","","","","","","","","","","","","","","","","","","","","","","","","","","","","","","","","","","","","","","","","","","","","","","","","","","","","","","","","","","","","","","","","","","","","","","","","","","","","","","","SYN076AAXX  31181 01016 46/// /0109 11101 2//// 30071 40087 57000 333 11061 91114;","","","","","","","","","",""
"01016099999","2010-10-31T20:00:00","78.9333333","28.9","20.0","KONGSOYA, NO","FM-12","4","","","14","","","0.00","4","","","29.79","29.74","","","010","","20","","","","","","","","","","","","","","","","","","","","","","","","","","","","","","","","","","","","","","","","","","","","","","","","","","","","","","","","","","","","","","","","","","","","","","","","","","","","","","","","","","","","","","","","","","","SYN060AAXX  31191 01016 46/// /0109 11100 2//// 30071 40087 54003;","","","","","","","","","",""
"01016099999","2010-10-31T21:00:00","78.9333333","28.9","20.0","KONGSOYA, NO","FM-12","4","","","13","","","+0.01","7","","","29.78","29.73","","","010","","18","","","","","","","","","","","","","","","","","","","","","","","","","","","","","","","","","","","","","","","","","","","","","","","","","","","","","","","","","","","","","","","","","","","","","","","","","","","","","","","","","","","","","","","","","","","SYN060AAXX  31201 01016 46/// /0108 11103 2//// 30068 40084 57002;","","","","","","","","","",""
"01016099999","2010-10-31T22:00:00","78.9333333","28.9","20.0","KONGSOYA, NO","FM-12","4","","","13","","","+0.01","7","","","29.78","29.72","","","010","","18","","","","","","","","","","","","","","","","","","","","","","","","","","","","","","","","","","","","","","","","","","","","","","","","","","","","","","","","","","","","","","","","","","","","","","","","","","","","","","","","","","","","","","","","","","","SYN060AAXX  31211 01016 46/// /0108 11105 2//// 30066 40083 57000;","","","","","","","","","",""
"01016099999","2010-10-31T23:00:00","78.9333333","28.9","20.0","KONGSOYA, NO","FM-12","4","","","13","","","+0.01","7","","","29.77","29.72","","","010","","20","","","","","","","","","","","","","","","","","","","","","","","","","","","","","","","","","","","","","","","","","","","","","","","","","","","","","","","","","","","","","","","","","","","","","","","","","","","","","","","","","","","","","","","","","","","SYN060AAXX  31221 01016 46/// /0109 11103 2//// 30063 40080 57002;","","","","","","","","","",""
"01016099999","2010-11-01T00:00:00","78.9333333","28.9","20.0","KONGSOYA, NO","FM-12","4","","","13","","","+0.01","7","","","29.76","29.71","","","360","","20","","","","","","","","","","","","","","","","","","","","","","","","","","","","","","","","","","","","","","","","","","","","","","","","","","","","","","","","","","","","","","","","","","","","","","","","","","","","","","","","","","","","","","","","","","","SYN060AAXX  31231 01016 46/// /3609 11103 2//// 30061 40077 57002;","","","","","","","","","",""
"01016099999","2010-11-01T01:00:00","78.9333333","28.9","20.0","KONGSOYA, NO","FM-12","4","","","14","","","+0.01","7","","","29.75","29.70","","","010","","20","","","","","","","","","","","","","","","","","","","","","","","","","","","","","","","","","","","","","","","","","","","","","","","","","","","","","","","","","","","","","","","","","","","","","","","","","","","","","","","","","","","","","","","","","","","SYN070AAXX  01001 01016 46/// /0109 11101 2//// 30057 40073 57005 333 91111;","","","","","","","","","",""
"01016099999","2010-11-01T02:00:00","78.9333333","28.9","20.0","KONGSOYA, NO","FM-12","4","","","14","","","+0.00","7","","","29.75","29.70","","","010","","20","","","","","","","","","","","","","","","","","","","","","","","","","","","","","","","","","","","","","","","","","","","","","","","","","","","","","","","","","","","","","","","","","","","","","","","","","","","","","","","","","","","","","","","","","","","SYN060AAXX  01011 01016 46/// /0109 11101 2//// 30057 40074 57001;","","","","","","","","","",""
"01016099999","2010-11-01T03:00:00","78.9333333","28.9","20.0","KONGSOYA, NO","FM-12","4","","","13","","","+0.00","7","","","29.74","29.69","","","020","","20","","","","","","","","","","","","","","","","","","","","","","","","","","","","","","","","","","","","","","","","","","","","","","","","","","","","","","","","","","","","","","","","","","","","","","","","","","","","","","","","","","","","","","","","","","","SYN060AAXX  01021 01016 46/// /0209 11103 2//// 30055 40071 57001;","","","","","","","","","",""
"01016099999","2010-11-01T04:00:00","78.9333333","28.9","20.0","KONGSOYA, NO","FM-12","4","","","13","","","0.00","4","","","29.74","29.69","","","020","","20","","","","","","","","","","","","","","","","","","","","","","","","","","","","","","","","","","","","","","","","","","","","","","","","","","","","","","","","","","","","","","","","","","","","","","","","","","","","","","","","","","","","","","","","","","","SYN060AAXX  01031 01016 46/// /0209 11106 2//// 30054 40070 54002;","","","","","","","","","",""
"01016099999","2010-11-01T05:00:00","78.9333333","28.9","20.0","KONGSOYA, NO","FM-12","4","","","13","","","+0.01","7","","","29.73","29.69","","","020","","20","","","","","","","","","","","","","","","","","","","","","","","","","","","","","","","","","","","","","","","","","","","","","","","","","","","","","","","","","","","","","","","","","","","","","","","","","","","","","","","","","","","","","","","","","","","SYN060AAXX  01041 01016 46/// /0209 11105 2//// 30053 40069 57000;","","","","","","","","","",""
"01016099999","2010-11-01T06:00:00","78.9333333","28.9","20.0","KONGSOYA, NO","FM-12","4","","","13","","","0.00","4","","","29.74","29.69","","","020","","20","","","","","","","","","","","","","","","","","","","","","","","","","","","","","","","","","","","","","","","","","","","","","","","","","","","","","","","","","","","","","","","","","","","","","","","","","","","","","","","","","","","","","","","","","","","SYN060AAXX  01051 01016 46/// /0209 11106 2//// 30053 40070 54003;","","","","","","","","","",""
"01016099999","2010-11-01T07:00:00","78.9333333","28.9","20.0","KONGSOYA, NO","FM-12","4","","","13","","","0.00","4","","","29.73","29.68","","","030","","20","","","","","","","","","","","","","","","","","","","","","","","","","","","","","","","","","","","","","","","","","","","","","","","","","","","","","","","","","","","","","","","","","","","","","","","","","","","","","","","","","","","","","","","","","","","SYN076AAXX  01061 01016 46/// /0309 11104 2//// 30052 40068 54003 333 21107 91112;","","","","","","","","","",""
"01016099999","2010-11-01T08:00:00","78.9333333","28.9","20.0","KONGSOYA, NO","FM-12","4","","","13","","","0.00","4","","","29.73","29.68","","","020","","20","","","","","","","","","","","","","","","","","","","","","","","","","","","","","","","","","","","","","","","","","","","","","","","","","","","","","","","","","","","","","","","","","","","","","","","","","","","","","","","","","","","","","","","","","","","SYN060AAXX  01071 01016 46/// /0209 11106 2//// 30052 40068 54004;","","","","","","","","","",""
"01016099999","2010-11-01T09:00:00","78.9333333","28.9","20.0","KONGSOYA, NO","FM-12","4","","","13","","","-0.02","0","","","29.74","29.69","","","020","","22","","","","","","","","","","","","","","","","","","","","","","","","","","","","","","","","","","","","","","","","","","","","","","","","","","","","","","","","","","","","","","","","","","","","","","","","","","","","","","","","","","","","","","","","","","","SYN060AAXX  01081 01016 46/// /0210 11108 2//// 30054 40070 50006;","","","","","","","","","",""
"01016099999","2010-11-01T10:00:00","78.9333333","28.9","20.0","KONGSOYA, NO","FM-12","4","","","12","","","-0.02","2","","","29.74","29.69","","","020","","18","","","","","","","","","","","","","","","","","","","","","","","","","","","","","","","","","","","","","","","","","","","","","","","","","","","","","","","","","","","","","","","","","","","","","","","","","","","","","","","","","","","","","","","","","","","SYN060AAXX  01091 01016 46/// /0208 11109 2//// 30055 40071 52008;","","","","","","","","","",""
"01016099999","2010-11-01T11:00:00","78.9333333","28.9","20.0","KONGSOYA, NO","FM-12","4","","","12","","","+0.01","5","","","29.73","29.68","","","020","","20","","","","","","","","","","","","","","","","","","","","","","","","","","","","","","","","","","","","","","","","","","","","","","","","","","","","","","","","","","","","","","","","","","","","","","","","","","","","","","","","","","","","","","","","","","","SYN060AAXX  01101 01016 46/// /0209 11110 2//// 30052 40069 55005;","","","","","","","","","",""
"01016099999","2010-11-01T12:00:00","78.9333333","28.9","20.0","KONGSOYA, NO","FM-12","4","","","12","","","0.00","4","","","29.73","29.68","","","020","","18","","","","","","","","","","","","","","","","","","","","","","","","","","","","","","","","","","","","","","","","","","","","","","","","","","","","","","","","","","","","","","","","","","","","","","","","","","","","","","","","","","","","","","","","","","","SYN060AAXX  01111 01016 46/// /0208 11112 2//// 30052 40068 54003;","","","","","","","","","",""
"01016099999","2010-11-01T13:00:00","78.9333333","28.9","20.0","KONGSOYA, NO","FM-12","4","","","11","","","+0.01","7","","","29.72","29.68","","","040","","18","","","","","","","","","","","","","","","","","","","","","","","","","","","","","","","","","","","","","","","","","","","","","","","","","","","","","","","","","","","","","","","","","","","","","","","","","","","","","","","","","","","","","","","","","","","SYN070AAXX  01121 01016 46/// /0408 11114 2//// 30050 40066 57000 333 91112;","","","","","","","","","",""
"01016099999","2010-11-01T15:00:00","78.9333333","28.9","20.0","KONGSOYA, NO","FM-12","4","","","11","","","+0.00","7","","","29.72","29.67","","","030","","18","","","","","","","","","","","","","","","","","","","","","","","","","","","","","","","","","","","","","","","","","","","","","","","","","","","","","","","","","","","","","","","","","","","","","","","","","","","","","","","","","","","","","","","","","","","SYN060AAXX  01141 01016 46/// /0308 11118 2//// 30048 40064 57001;","","","","","","","","","",""
"01016099999","2010-11-01T16:00:00","78.9333333","28.9","20.0","KONGSOYA, NO","FM-12","4","","","11","","","+0.01","7","","","29.71","29.66","","","040","","16","","","","","","","","","","","","","","","","","","","","","","","","","","","","","","","","","","","","","","","","","","","","","","","","","","","","","","","","","","","","","","","","","","","","","","","","","","","","","","","","","","","","","","","","","","","SYN060AAXX  01151 01016 46/// /0407 11115 2//// 30045 40062 57000;","","","","","","","","","",""
"01016099999","2010-11-01T17:00:00","78.9333333","28.9","20.0","KONGSOYA, NO","FM-12","4","","","11","","","+0.00","7","","","29.71","29.66","","","030","","18","","","","","","","","","","","","","","","","","","","","","","","","","","","","","","","","","","","","","","","","","","","","","","","","","","","","","","","","","","","","","","","","","","","","","","","","","","","","","","","","","","","","","","","","","","","SYN060AAXX  01161 01016 46/// /0308 11115 2//// 30045 40062 57001;","","","","","","","","","",""
"01016099999","2010-11-01T18:00:00","78.9333333","28.9","20.0","KONGSOYA, NO","FM-12","4","","","12","","","+0.00","7","","","29.71","29.66","","","030","","18","","","","","","","","","","","","","","","","","","","","","","","","","","","","","","","","","","","","","","","","","","","","","","","","","","","","","","","","","","","","","","","","","","","","","","","","","","","","","","","","","","","","","","","","","","","SYN060AAXX  01171 01016 46/// /0308 11110 2//// 30043 40060 57001;","","","","","","","","","",""
"01016099999","2010-11-01T19:00:00","78.9333333","28.9","20.0","KONGSOYA, NO","FM-12","4","","","13","","","+0.00","6","","","29.70","29.65","","","030","","18","","","","","","","","","","","","","","","","","","","","","","","","","","","","","","","","","","","","","","","","","","","","","","","","","","","","","","","","","","","","","","","","","","","","","","","","","","","","","","","","","","","","","","","","","","","SYN076AAXX  01181 01016 46/// /0308 11106 2//// 30039 40056 56001 333 11103 91111;","","","","","","","","","",""
"01016099999","2010-11-01T20:00:00","78.9333333","28.9","20.0","KONGSOYA, NO","FM-12","4","","","13","","","+0.01","8","","","29.70","29.65","","","030","","18","","","","","","","","","","","","","","","","","","","","","","","","","","","","","","","","","","","","","","","","","","","","","","","","","","","","","","","","","","","","","","","","","","","","","","","","","","","","","","","","","","","","","","","","","","","SYN060AAXX  01191 01016 46/// /0308 11103 2//// 30042 40058 58002;","","","","","","","","","",""
"01016099999","2010-11-01T21:00:00","78.9333333","28.9","20.0","KONGSOYA, NO","FM-12","4","","","14","","","+0.00","7","","","29.70","29.65","","","050","","16","","","","","","","","","","","","","","","","","","","","","","","","","","","","","","","","","","","","","","","","","","","","","","","","","","","","","","","","","","","","","","","","","","","","","","","","","","","","","","","","","","","","","","","","","","","SYN060AAXX  01201 01016 46/// /0507 11100 2//// 30039 40056 57001;","","","","","","","","","",""
"01016099999","2010-11-01T22:00:00","78.9333333","28.9","20.0","KONGSOYA, NO","FM-12","4","","","15","","","+0.01","7","","","29.68","29.63","","","030","","20","","","","","","","","","","","","","","","","","","","","","","","","","","","","","","","","","","","","","","","","","","","","","","","","","","","","","","","","","","","","","","","","","","","","","","","","","","","","","","","","","","","","","","","","","","","SYN060AAXX  01211 01016 46/// /0309 11097 2//// 30035 40051 56000;","","","","","","","","","",""
"01016099999","2010-11-01T23:00:00","78.9333333","28.9","20.0","KONGSOYA, NO","FM-12","4","","","15","","","+0.02","7","","","29.67","29.62","","","040","","20","","","","","","","","","","","","","","","","","","","","","","","","","","","","","","","","","","","","","","","","","","","","","","","","","","","","","","","","","","","","","","","","","","","","","","","","","","","","","","","","","","","","","","","","","","","SYN060AAXX  01221 01016 46/// /0409 11092 2//// 30031 40048 57006;","","","","","","","","","",""
"01016099999","2010-11-02T00:00:00","78.9333333","28.9","20.0","KONGSOYA, NO","FM-12","4","","","16","","","+0.01","8","","","29.67","29.62","","","040","","22","","","","","","","","","","","","","","","","","","","","","","","","","","","","","","","","","","","","","","","","","","","","","","","","","","","","","","","","","","","","","","","","","","","","","","","","","","","","","","","","","","","","","","","","","","","SYN060AAXX  01231 01016 46/// /0410 11087 2//// 30030 40046 58005;","","","","","","","","","",""
"01016099999","2010-11-02T01:00:00","78.9333333","28.9","20.0","KONGSOYA, NO","FM-12","4","","","16","","","+0.00","7","","","29.66","29.62","","","040","","27","","","","","","","","","","","","","","","","","","","","","","","","","","","","","","","","","","","","","","","","","","","","","","","","","","","","","","","","","","","","","","","","","","","","","","","","","","","","","","","","","","","","","","","","","","","SYN070AAXX  02001 01016 46/// /0412 11088 2//// 30029 40045 57001 333 91113;","","","","","","","","","",""
"01016099999","2010-11-02T02:00:00","78.9333333","28.9","20.0","KONGSOYA, NO","FM-12","4","","","16","","","+0.01","7","","","29.66","29.61","","","040","","25","","","","","","","","","","","","","","","","","","","","","","","","","","","","","","","","","","","","","","","","","","","","","","","","","","","","","","","","","","","","","","","","","","","","","","","","","","","","","","","","","","","","","","","","","","","SYN060AAXX  02011 01016 46/// /0411 11088 2//// 30027 40043 57000;","","","","","","","","","",""
"01016099999","2010-11-02T03:00:00","78.9333333","28.9","20.0","KONGSOYA, NO","FM-12","4","","","17","","","+0.01","7","","","29.65","29.60","","","050","","25","","","","","","","","","","","","","","","","","","","","","","","","","","","","","","","","","","","","","","","","","","","","","","","","","","","","","","","","","","","","","","","","","","","","","","","","","","","","","","","","","","","","","","","","","","","SYN060AAXX  02021 01016 46/// /0511 11085 2//// 30025 40041 57000;","","","","","","","","","",""
"01016099999","2010-11-02T04:00:00","78.9333333","28.9","20.0","KONGSOYA, NO","FM-12","4","","","17","","","+0.00","7","","","29.65","29.60","","","050","","25","","","","","","","","","","","","","","","","","","","","","","","","","","","","","","","","","","","","","","","","","","","","","","","","","","","","","","","","","","","","","","","","","","","","","","","","","","","","","","","","","","","","","","","","","","","SYN060AAXX  02031 01016 46/// /0511 11084 2//// 30023 40039 57001;","","","","","","","","","",""
"01016099999","2010-11-02T05:00:00","78.9333333","28.9","20.0","KONGSOYA, NO","FM-12","4","","","17","","","+0.00","7","","","29.64","29.59","","","050","","25","","","","","","","","","","","","","","","","","","","","","","","","","","","","","","","","","","","","","","","","","","","","","","","","","","","","","","","","","","","","","","","","","","","","","","","","","","","","","","","","","","","","","","","","","","","SYN060AAXX  02041 01016 46/// /0511 11084 2//// 30021 40037 57001;","","","","","","","","","",""
"01016099999","2010-11-02T06:00:00","78.9333333","28.9","20.0","KONGSOYA, NO","FM-12","4","","","17","","","-0.01","0","","","29.65","29.60","","","050","","25","","","","","","","","","","","","","","","","","","","","","","","","","","","","","","","","","","","","","","","","","","","","","","","","","","","","","","","","","","","","","","","","","","","","","","","","","","","","","","","","","","","","","","","","","","","SYN060AAXX  02051 01016 46/// /0511 11083 2//// 30024 40040 50004;","","","","","","","","","",""
"01016099999","2010-11-02T07:00:00","78.9333333","28.9","20.0","KONGSOYA, NO","FM-12","4","","","17","","","0.00","4","","","29.65","29.60","","","050","","25","","","","","","","","","","","","","","","","","","","","","","","","","","","","","","","","","","","","","","","","","","","","","","","","","","","","","","","","","","","","","","","","","","","","","","","","","","","","","","","","","","","","","","","","","","","SYN076AAXX  02061 01016 46/// /0511 11082 2//// 30023 40039 54005 333 21107 91114;","","","","","","","","","",""
"01016099999","2010-11-02T08:00:00","78.9333333","28.9","20.0","KONGSOYA, NO","FM-12","4","","","18","","","0.00","4","","","29.65","29.60","","","050","","25","","","","","","","","","","","","","","","","","","","","","","","","","","","","","","","","","","","","","","","","","","","","","","","","","","","","","","","","","","","","","","","","","","","","","","","","","","","","","","","","","","","","","","","","","","","SYN060AAXX  02071 01016 46/// /0511 11077 2//// 30024 40040 54008;","","","","","","","","","",""
"01016099999","2010-11-02T09:00:00","78.9333333","28.9","20.0","KONGSOYA, NO","FM-12","4","","","19","","","-0.03","1","","","29.66","29.61","","","060","","22","","","","","","","","","","","","","","","","","","","","","","","","","","","","","","","","","","","","","","","","","","","","","","","","","","","","","","","","","","","","","","","","","","","","","","","","","","","","","","","","","","","","","","","","","","","SYN060AAXX  02081 01016 46/// /0610 11073 2//// 30028 40044 51009;","","","","","","","","","",""
"01016099999","2010-11-02T10:00:00","78.9333333","28.9","20.0","KONGSOYA, NO","FM-12","4","","","19","","","-0.02","2","","","29.65","29.61","","","050","","22","","","","","","","","","","","","","","","","","","","","","","","","","","","","","","","","","","","","","","","","","","","","","","","","","","","","","","","","","","","","","","","","","","","","","","","","","","","","","","","","","","","","","","","","","","","SYN060AAXX  02091 01016 46/// /0510 11072 2//// 30026 40042 52008;","","","","","","","","","",""
"01016099999","2010-11-02T11:00:00","78.9333333","28.9","20.0","KONGSOYA, NO","FM-12","4","","","19","","","-0.03","2","","","29.66","29.61","","","050","","20","","","","","","","","","","","","","","","","","","","","","","","","","","","","","","","","","","","","","","","","","","","","","","","","","","","","","","","","","","","","","","","","","","","","","","","","","","","","","","","","","","","","","","","","","","","SYN060AAXX  02101 01016 46/// /0509 11070 2//// 30028 40044 52009;","","","","","","","","","",""
"01016099999","2010-11-02T12:00:00","78.9333333","28.9","20.0","KONGSOYA, NO","FM-12","4","","","19","","","0.00","4","","","29.65","29.61","","","070","","20","","","","","","","","","","","","","","","","","","","","","","","","","","","","","","","","","","","","","","","","","","","","","","","","","","","","","","","","","","","","","","","","","","","","","","","","","","","","","","","","","","","","","","","","","","","SYN060AAXX  02111 01016 46/// /0709 11072 2//// 30026 40042 54004;","","","","","","","","","",""
"01016099999","2010-11-02T13:00:00","78.9333333","28.9","20.0","KONGSOYA, NO","FM-12","4","","","19","","","+0.00","6","","","29.64","29.59","","","070","","20","","","","","","","","","","","","","","","","","","","","","","","","","","","","","","","","","","","","","","","","","","","","","","","","","","","","","","","","","","","","","","","","","","","","","","","","","","","","","","","","","","","","","","","","","","","SYN070AAXX  02121 01016 46/// /0709 11072 2//// 30022 40038 56001 333 91114;","","","","","","","","","",""
"01016099999","2010-11-02T14:00:00","78.9333333","28.9","20.0","KONGSOYA, NO","FM-12","4","","","18","","","-0.01","0","","","29.65","29.60","","","090","","16","","","","","","","","","","","","","","","","","","","","","","","","","","","","","","","","","","","","","","","","","","","","","","","","","","","","","","","","","","","","","","","","","","","","","","","","","","","","","","","","","","","","","","","","","","","SYN060AAXX  02131 01016 46/// /0907 11076 2//// 30025 40041 50002;","","","","","","","","","",""
"01016099999","2010-11-02T15:00:00","78.9333333","28.9","20.0","KONGSOYA, NO","FM-12","4","","","19","","","-0.01","0","","","29.65","29.61","","","090","","13","","","","","","","","","","","","","","","","","","","","","","","","","","","","","","","","","","","","","","","","","","","","","","","","","","","","","","","","","","","","","","","","","","","","","","","","","","","","","","","","","","","","","","","","","","","SYN060AAXX  02141 01016 46/// /0906 11071 2//// 30026 40042 50005;","","","","","","","","","",""
"01016099999","2010-11-02T16:00:00","78.9333333","28.9","20.0","KONGSOYA, NO","FM-12","4","","","19","","","-0.02","2","","","29.65","29.61","","","080","","13","","","","","","","","","","","","","","","","","","","","","","","","","","","","","","","","","","","","","","","","","","","","","","","","","","","","","","","","","","","","","","","","","","","","","","","","","","","","","","","","","","","","","","","","","","","SYN060AAXX  02151 01016 46/// /0806 11071 2//// 30026 40042 52008;","","","","","","","","","",""
"01016099999","2010-11-02T17:00:00","78.9333333","28.9","20.0","KONGSOYA, NO","FM-12","4","","","18","","","0.00","4","","","29.65","29.61","","","090","","11","","","","","","","","","","","","","","","","","","","","","","","","","","","","","","","","","","","","","","","","","","","","","","","","","","","","","","","","","","","","","","","","","","","","","","","","","","","","","","","","","","","","","","","","","","","SYN060AAXX  02161 01016 46/// /0905 11075 2//// 30026 40042 54006;","","","","","","","","","",""
"01016099999","2010-11-02T18:00:00","78.9333333","28.9","20.0","KONGSOYA, NO","FM-12","4","","","19","","","0.00","4","","","29.66","29.61","","","090","","13","","","","","","","","","","","","","","","","","","","","","","","","","","","","","","","","","","","","","","","","","","","","","","","","","","","","","","","","","","","","","","","","","","","","","","","","","","","","","","","","","","","","","","","","","","","SYN060AAXX  02171 01016 46/// /0906 11072 2//// 30027 40043 54006;","","","","","","","","","",""
"01016099999","2010-11-02T19:00:00","78.9333333","28.9","20.0","KONGSOYA, NO","FM-12","4","","","19","","","0.00","4","","","29.65","29.61","","","090","","13","","","","","","","","","","","","","","","","","","","","","","","","","","","","","","","","","","","","","","","","","","","","","","","","","","","","","","","","","","","","","","","","","","","","","","","","","","","","","","","","","","","","","","","","","","","SYN076AAXX  02181 01016 46/// /0906 11071 2//// 30026 40042 54005 333 11068 91110;","","","","","","","","","",""
"01016099999","2010-11-02T20:00:00","78.9333333","28.9","20.0","KONGSOYA, NO","FM-12","4","","","18","","","0.00","4","","","29.66","29.61","","","080","","13","","","","","","","","","","","","","","","","","","","","","","","","","","","","","","","","","","","","","","","","","","","","","","","","","","","","","","","","","","","","","","","","","","","","","","","","","","","","","","","","","","","","","","","","","","","SYN060AAXX  02191 01016 46/// /0806 11076 2//// 30028 40044 54007;","","","","","","","","","",""
"01016099999","2010-11-02T21:00:00","78.9333333","28.9","20.0","KONGSOYA, NO","FM-12","4","","","19","","","0.00","4","","","29.66","29.62","","","080","","11","","","","","","","","","","","","","","","","","","","","","","","","","","","","","","","","","","","","","","","","","","","","","","","","","","","","","","","","","","","","","","","","","","","","","","","","","","","","","","","","","","","","","","","","","","","SYN060AAXX  02201 01016 46/// /0805 11074 2//// 30029 40045 54007;","","","","","","","","","",""
"01016099999","2010-11-02T22:00:00","78.9333333","28.9","20.0","KONGSOYA, NO","FM-12","4","","","18","","","0.00","4","","","29.66","29.61","","","050","","16","","","","","","","","","","","","","","","","","","","","","","","","","","","","","","","","","","","","","","","","","","","","","","","","","","","","","","","","","","","","","","","","","","","","","","","","","","","","","","","","","","","","","","","","","","","SYN060AAXX  02211 01016 46/// /0507 11077 2//// 30028 40044 54007;","","","","","","","","","",""
"01016099999","2010-11-02T23:00:00","78.9333333","28.9","20.0","KONGSOYA, NO","FM-12","4","","","19","","","0.00","4","","","29.66","29.61","","","050","","16","","","","","","","","","","","","","","","","","","","","","","","","","","","","","","","","","","","","","","","","","","","","","","","","","","","","","","","","","","","","","","","","","","","","","","","","","","","","","","","","","","","","","","","","","","","SYN060AAXX  02221 01016 46/// /0507 11071 2//// 30027 40043 54004;","","","","","","","","","",""
"01016099999","2010-11-03T00:00:00","78.9333333","28.9","20.0","KONGSOYA, NO","FM-12","4","","","18","","","0.00","4","","","29.66","29.61","","","070","","16","","","","","","","","","","","","","","","","","","","","","","","","","","","","","","","","","","","","","","","","","","","","","","","","","","","","","","","","","","","","","","","","","","","","","","","","","","","","","","","","","","","","","","","","","","","SYN060AAXX  02231 01016 46/// /0707 11079 2//// 30027 40043 54003;","","","","","","","","","",""
"01016099999","2010-11-03T01:00:00","78.9333333","28.9","20.0","KONGSOYA, NO","FM-12","4","","","19","","","+0.01","7","","","29.65","29.60","","","080","","16","","","","","","","","","","","","","","","","","","","","","","","","","","","","","","","","","","","","","","","","","","","","","","","","","","","","","","","","","","","","","","","","","","","","","","","","","","","","","","","","","","","","","","","","","","","SYN070AAXX  03001 01016 46/// /0807 11072 2//// 30025 40041 57002 333 91109;","","","","","","","","","",""
"01016099999","2010-11-03T02:00:00","78.9333333","28.9","20.0","KONGSOYA, NO","FM-12","4","","","18","","","0.00","4","","","29.65","29.60","","","080","","18","","","","","","","","","","","","","","","","","","","","","","","","","","","","","","","","","","","","","","","","","","","","","","","","","","","","","","","","","","","","","","","","","","","","","","","","","","","","","","","","","","","","","","","","","","","SYN060AAXX  03011 01016 46/// /0808 11079 2//// 30024 40040 54002;","","","","","","","","","",""
"01016099999","2010-11-03T03:00:00","78.9333333","28.9","20.0","KONGSOYA, NO","FM-12","4","","","17","","","-0.01","0","","","29.65","29.61","","","080","","13","","","","","","","","","","","","","","","","","","","","","","","","","","","","","","","","","","","","","","","","","","","","","","","","","","","","","","","","","","","","","","","","","","","","","","","","","","","","","","","","","","","","","","","","","","","SYN060AAXX  03021 01016 46/// /0806 11085 2//// 30026 40042 50004;","","","","","","","","","",""
"01016099999","2010-11-03T04:00:00","78.9333333","28.9","20.0","KONGSOYA, NO","FM-12","4","","","17","","","0.00","4","","","29.66","29.61","","","080","","16","","","","","","","","","","","","","","","","","","","","","","","","","","","","","","","","","","","","","","","","","","","","","","","","","","","","","","","","","","","","","","","","","","","","","","","","","","","","","","","","","","","","","","","","","","","SYN060AAXX  03031 01016 46/// /0807 11083 2//// 30026 40043 54007;","","","","","","","","","",""
"01016099999","2010-11-03T05:00:00","78.9333333","28.9","20.0","KONGSOYA, NO","FM-12","4","","","17","","","0.00","4","","","29.65","29.61","","","090","","16","","","","","","","","","","","","","","","","","","","","","","","","","","","","","","","","","","","","","","","","","","","","","","","","","","","","","","","","","","","","","","","","","","","","","","","","","","","","","","","","","","","","","","","","","","","SYN060AAXX  03041 01016 46/// /0907 11084 2//// 30026 40042 54007;","","","","","","","","","",""
"01016099999","2010-11-03T06:00:00","78.9333333","28.9","20.0","KONGSOYA, NO","FM-12","4","","","16","","","0.00","4","","","29.65","29.61","","","080","","13","","","","","","","","","","","","","","","","","","","","","","","","","","","","","","","","","","","","","","","","","","","","","","","","","","","","","","","","","","","","","","","","","","","","","","","","","","","","","","","","","","","","","","","","","","","SYN060AAXX  03051 01016 46/// /0806 11087 2//// 30026 40042 54005;","","","","","","","","","",""
"01016099999","2010-11-03T07:00:00","78.9333333","28.9","20.0","KONGSOYA, NO","FM-12","4","","","16","","","0.00","4","","","29.65","29.60","","","080","","13","","","","","","","","","","","","","","","","","","","","","","","","","","","","","","","","","","","","","","","","","","","","","","","","","","","","","","","","","","","","","","","","","","","","","","","","","","","","","","","","","","","","","","","","","","","SYN076AAXX  03061 01016 46/// /0806 11087 2//// 30025 40041 54003 333 21090 91109;","","","","","","","","","",""
"01016099999","2010-11-03T08:00:00","78.9333333","28.9","20.0","KONGSOYA, NO","FM-12","4","","","17","","","0.00","4","","","29.65","29.60","","","080","","11","","","","","","","","","","","","","","","","","","","","","","","","","","","","","","","","","","","","","","","","","","","","","","","","","","","","","","","","","","","","","","","","","","","","","","","","","","","","","","","","","","","","","","","","","","","SYN060AAXX  03071 01016 46/// /0805 11085 2//// 30025 40041 54004;","","","","","","","","","",""
"01016099999","2010-11-03T09:00:00","78.9333333","28.9","20.0","KONGSOYA, NO","FM-12","4","","","18","","","0.00","4","","","29.65","29.60","","","080","","11","","","","","","","","","","","","","","","","","","","","","","","","","","","","","","","","","","","","","","","","","","","","","","","","","","","","","","","","","","","","","","","","","","","","","","","","","","","","","","","","","","","","","","","","","","","SYN060AAXX  03081 01016 46/// /0805 11080 2//// 30024 40040 54003;","","","","","","","","","",""
"01016099999","2010-11-03T10:00:00","78.9333333","28.9","20.0","KONGSOYA, NO","FM-12","4","","","18","","","0.00","4","","","29.65","29.60","","","090","","11","","","","","","","","","","","","","","","","","","","","","","","","","","","","","","","","","","","","","","","","","","","","","","","","","","","","","","","","","","","","","","","","","","","","","","","","","","","","","","","","","","","","","","","","","","","SYN060AAXX  03091 01016 46/// /0905 11078 2//// 30023 40039 54003;","","","","","","","","","",""
"01016099999","2010-11-03T11:00:00","78.9333333","28.9","20.0","KONGSOYA, NO","FM-12","4","","","17","","","0.00","4","","","29.65","29.60","","","090","","11","","","","","","","","","","","","","","","","","","","","","","","","","","","","","","","","","","","","","","","","","","","","","","","","","","","","","","","","","","","","","","","","","","","","","","","","","","","","","","","","","","","","","","","","","","","SYN060AAXX  03101 01016 46/// /0905 11081 2//// 30023 40039 54003;","","","","","","","","","",""
"01016099999","2010-11-03T12:00:00","78.9333333","28.9","20.0","KONGSOYA, NO","FM-12","4","","","15","","","0.00","4","","","29.65","29.60","","","080","","9","","","","","","","","","","","","","","","","","","","","","","","","","","","","","","","","","","","","","","","","","","","","","","","","","","","","","","","","","","","","","","","","","","","","","","","","","","","","","","","","","","","","","","","","","","","SYN060AAXX  03111 01016 46/// /0804 11092 2//// 30023 40039 54004;","","","","","","","","","",""
"01016099999","2010-11-03T13:00:00","78.9333333","28.9","20.0","KONGSOYA, NO","FM-12","4","","","18","","","0.00","4","","","29.65","29.60","","","080","","7","","","","","","","","","","","","","","","","","","","","","","","","","","","","","","","","","","","","","","","","","","","","","","","","","","","","","","","","","","","","","","","","","","","","","","","","","","","","","","","","","","","","","","","","","","","SYN070AAXX  03121 01016 46/// /0803 11078 2//// 30023 40039 54005 333 91106;","","","","","","","","","",""
"01016099999","2010-11-03T16:00:00","78.9333333","28.9","20.0","KONGSOYA, NO","FM-12","4","","","18","","","+0.00","7","","","29.63","29.58","","","090","","11","","","","","","","","","","","","","","","","","","","","","","","","","","","","","","","","","","","","","","","","","","","","","","","","","","","","","","","","","","","","","","","","","","","","","","","","","","","","","","","","","","","","","","","","","","","SYN060AAXX  03151 01016 46/// /0905 11079 2//// 30017 40033 57001;","","","","","","","","","",""
"01016099999","2010-11-03T17:00:00","78.9333333","28.9","20.0","KONGSOYA, NO","FM-12","4","","","17","","","+0.00","7","","","29.62","29.57","","","090","","13","","","","","","","","","","","","","","","","","","","","","","","","","","","","","","","","","","","","","","","","","","","","","","","","","","","","","","","","","","","","","","","","","","","","","","","","","","","","","","","","","","","","","","","","","","","SYN060AAXX  03161 01016 46/// /0906 11083 2//// 30014 40030 57001;","","","","","","","","","",""
"01016099999","2010-11-03T19:00:00","78.9333333","28.9","20.0","KONGSOYA, NO","FM-12","4","","","16","","","+0.00","7","","","29.61","29.56","","","100","","13","","","","","","","","","","","","","","","","","","","","","","","","","","","","","","","","","","","","","","","","","","","","","","","","","","","","","","","","","","","","","","","","","","","","","","","","","","","","","","","","","","","","","","","","","","","SYN076AAXX  03181 01016 46/// /1006 11089 2//// 30011 40027 57001 333 11070 91107;","","","","","","","","","",""
"01016099999","2010-11-03T20:00:00","78.9333333","28.9","20.0","KONGSOYA, NO","FM-12","4","","","17","","","+0.00","7","","","29.61","29.56","","","100","","11","","","","","","","","","","","","","","","","","","","","","","","","","","","","","","","","","","","","","","","","","","","","","","","","","","","","","","","","","","","","","","","","","","","","","","","","","","","","","","","","","","","","","","","","","","","SYN060AAXX  03191 01016 46/// /1005 11083 2//// 30009 40026 57001;","","","","","","","","","",""
"01016099999","2010-11-03T21:00:00","78.9333333","28.9","20.0","KONGSOYA, NO","FM-12","4","","","16","","","+0.00","7","","","29.60","29.55","","","110","","11","","","","","","","","","","","","","","","","","","","","","","","","","","","","","","","","","","","","","","","","","","","","","","","","","","","","","","","","","","","","","","","","","","","","","","","","","","","","","","","","","","","","","","","","","","","SYN060AAXX  03201 01016 46/// /1105 11091 2//// 30007 40023 57001;","","","","","","","","","",""
"01016099999","2010-11-03T22:00:00","78.9333333","28.9","20.0","KONGSOYA, NO","FM-12","4","","","19","","","0.00","4","","","29.60","29.55","","","120","","7","","","","","","","","","","","","","","","","","","","","","","","","","","","","","","","","","","","","","","","","","","","","","","","","","","","","","","","","","","","","","","","","","","","","","","","","","","","","","","","","","","","","","","","","","","","SYN060AAXX  03211 01016 46/// /1203 11071 2//// 30008 40024 54003;","","","","","","","","","",""
"01016099999","2010-11-03T23:00:00","78.9333333","28.9","20.0","KONGSOYA, NO","FM-12","4","","","19","","","0.00","4","","","29.60","29.55","","","110","","7","","","","","","","","","","","","","","","","","","","","","","","","","","","","","","","","","","","","","","","","","","","","","","","","","","","","","","","","","","","","","","","","","","","","","","","","","","","","","","","","","","","","","","","","","","","SYN060AAXX  03221 01016 46/// /1103 11071 2//// 30008 40024 54003;","","","","","","","","","",""
"01016099999","2010-11-04T00:00:00","78.9333333","28.9","20.0","KONGSOYA, NO","FM-12","4","","","19","","","0.00","4","","","29.59","29.55","","","100","","4","","","","","","","","","","","","","","","","","","","","","","","","","","","","","","","","","","","","","","","","","","","","","","","","","","","","","","","","","","","","","","","","","","","","","","","","","","","","","","","","","","","","","","","","","","","SYN060AAXX  03231 01016 46/// /1002 11074 2//// 30006 40022 54004;","","","","","","","","","",""
"01016099999","2010-11-04T01:00:00","78.9333333","28.9","20.0","KONGSOYA, NO","FM-12","4","","","21","","","+0.00","6","","","29.58","29.54","","","150","","9","","","","","","","","","","","","","","","","","","","","","","","","","","","","","","","","","","","","","","","","","","","","","","","","","","","","","","","","","","","","","","","","","","","","","","","","","","","","","","","","","","","","","","","","","","","SYN070AAXX  04001 01016 46/// /1504 11062 2//// 30002 40018 56001 333 91106;","","","","","","","","","",""
"01016099999","2010-11-04T02:00:00","78.9333333","28.9","20.0","KONGSOYA, NO","FM-12","4","","","21","","","+0.01","7","","","29.58","29.53","","","150","","11","","","","","","","","","","","","","","","","","","","","","","","","","","","","","","","","","","","","","","","","","","","","","","","","","","","","","","","","","","","","","","","","","","","","","","","","","","","","","","","","","","","","","","","","","","","SYN060AAXX  04011 01016 46/// /1505 11062 2//// 30001 40017 57002;","","","","","","","","","",""
"01016099999","2010-11-04T03:00:00","78.9333333","28.9","20.0","KONGSOYA, NO","FM-12","4","","","21","","","+0.01","7","","","29.57","29.53","","","150","","11","","","","","","","","","","","","","","","","","","","","","","","","","","","","","","","","","","","","","","","","","","","","","","","","","","","","","","","","","","","","","","","","","","","","","","","","","","","","","","","","","","","","","","","","","","","SYN060AAXX  04021 01016 46/// /1505 11061 2//// 39999 40015 57002;","","","","","","","","","",""
"01016099999","2010-11-04T04:00:00","78.9333333","28.9","20.0","KONGSOYA, NO","FM-12","4","","","21","","","","","","","29.57","29.52","","","160","","13","","","","","","","","","","","","","","","","","","","","","","","","","","","","","","","","","","","","","","","","","","","","","","","","","","","","","","","","","","","","","","","","","","","","","","","","","","","","","","","","","","","","","","","","","","","SYN060AAXX  04031 01016 46/// /1606 11060 2//// 39997 40012 57000;","","","","","","","","","",""
"01016099999","2010-11-04T07:00:00","78.9333333","28.9","20.0","KONGSOYA, NO","FM-12","4","","","19","","","0.00","4","","","29.56","29.52","","","210","","9","","","","","","","","","","","","","","","","","","","","","","","","","","","","","","","","","","","","","","","","","","","","","","","","","","","","","","","","","","","","","","","","","","","","","","","","","","","","","","","","","","","","","","","","","","","SYN076AAXX  04061 01016 46/// /2104 11070 2//// 39995 40011 54004 333 21094 91108;","","","","","","","","","",""
"01016099999","2010-11-04T08:00:00","78.9333333","28.9","20.0","KONGSOYA, NO","FM-12","4","","","20","","","+0.00","6","","","29.55","29.51","","","180","","9","","","","","","","","","","","","","","","","","","","","","","","","","","","","","","","","","","","","","","","","","","","","","","","","","","","","","","","","","","","","","","","","","","","","","","","","","","","","","","","","","","","","","","","","","","","SYN060AAXX  04071 01016 46/// /1804 11066 2//// 39992 40008 56001;","","","","","","","","","",""
"01016099999","2010-11-04T09:00:00","78.9333333","28.9","20.0","KONGSOYA, NO","FM-12","4","","","20","","","-0.01","0","","","29.56","29.51","","","180","","11","","","","","","","","","","","","","","","","","","","","","","","","","","","","","","","","","","","","","","","","","","","","","","","","","","","","","","","","","","","","","","","","","","","","","","","","","","","","","","","","","","","","","","","","","","","SYN060AAXX  04081 01016 46/// /1805 11065 2//// 39994 40010 50002;","","","","","","","","","",""
"01016099999","2010-11-04T10:00:00","78.9333333","28.9","20.0","KONGSOYA, NO","FM-12","4","","","20","","","-0.01","0","","","29.56","29.51","","","280","","7","","","","","","","","","","","","","","","","","","","","","","","","","","","","","","","","","","","","","","","","","","","","","","","","","","","","","","","","","","","","","","","","","","","","","","","","","","","","","","","","","","","","","","","","","","","SYN060AAXX  04091 01016 46/// /2803 11065 2//// 39994 40010 50004;","","","","","","","","","",""
"01016099999","2010-11-04T12:00:00","78.9333333","28.9","20.0","KONGSOYA, NO","FM-12","4","","","10","","","0.00","4","","","29.56","29.51","","","280","","4","","","","","","","","","","","","","","","","","","","","","","","","","","","","","","","","","","","","","","","","","","","","","","","","","","","","","","","","","","","","","","","","","","","","","","","","","","","","","","","","","","","","","","","","","","","SYN060AAXX  04111 01016 46/// /2802 11122 2//// 39994 40011 54005;","","","","","","","","","",""
"01016099999","2010-11-04T13:00:00","78.9333333","28.9","20.0","KONGSOYA, NO","FM-12","4","","","13","","","0.00","4","","","29.56","29.51","","","310","","4","","","","","","","","","","","","","","","","","","","","","","","","","","","","","","","","","","","","","","","","","","","","","","","","","","","","","","","","","","","","","","","","","","","","","","","","","","","","","","","","","","","","","","","","","","","SYN070AAXX  04121 01016 46/// /3102 11107 2//// 39994 40010 54005 333 91107;","","","","","","","","","",""
"01016099999","2010-11-04T14:00:00","78.9333333","28.9","20.0","KONGSOYA, NO","FM-12","4","","","11","","","0.00","4","","","29.57","29.52","","","320","","2","","","","","","","","","","","","","","","","","","","","","","","","","","","","","","","","","","","","","","","","","","","","","","","","","","","","","","","","","","","","","","","","","","","","","","","","","","","","","","","","","","","","","","","","","","","SYN060AAXX  04131 01016 46/// /3201 11118 2//// 39995 40012 54006;","","","","","","","","","",""
"01016099999","2010-11-04T15:00:00","78.9333333","28.9","20.0","KONGSOYA, NO","FM-12","4","","","18","","","0.00","4","","","29.56","29.52","","","000","","0","","","","","","","","","","","","","","","","","","","","","","","","","","","","","","","","","","","","","","","","","","","","","","","","","","","","","","","","","","","","","","","","","","","","","","","","","","","","","","","","","","","","","","","","","","","SYN060AAXX  04141 01016 46/// /0000 11080 2//// 39995 40011 54005;","","","","","","","","","",""
"01016099999","2010-11-04T16:00:00","78.9333333","28.9","20.0","KONGSOYA, NO","FM-12","4","","","19","","","0.00","4","","","29.56","29.51","","","290","","2","","","","","","","","","","","","","","","","","","","","","","","","","","","","","","","","","","","","","","","","","","","","","","","","","","","","","","","","","","","","","","","","","","","","","","","","","","","","","","","","","","","","","","","","","","","SYN060AAXX  04151 01016 46/// /2901 11073 2//// 39994 40010 54005;","","","","","","","","","",""
"01016099999","2010-11-04T18:00:00","78.9333333","28.9","20.0","KONGSOYA, NO","FM-12","4","","","18","","","+0.01","7","","","29.55","29.50","","","090","","4","","","","","","","","","","","","","","","","","","","","","","","","","","","","","","","","","","","","","","","","","","","","","","","","","","","","","","","","","","","","","","","","","","","","","","","","","","","","","","","","","","","","","","","","","","","SYN060AAXX  04171 01016 46/// /0902 11078 2//// 39990 40006 57000;","","","","","","","","","",""
"01016099999","2010-11-04T19:00:00","78.9333333","28.9","20.0","KONGSOYA, NO","FM-12","4","","","18","","","+0.00","7","","","29.55","29.50","","","080","","4","","","","","","","","","","","","","","","","","","","","","","","","","","","","","","","","","","","","","","","","","","","","","","","","","","","","","","","","","","","","","","","","","","","","","","","","","","","","","","","","","","","","","","","","","","","SYN076AAXX  04181 01016 46/// /0802 11078 2//// 39990 40006 57001 333 11060 91103;","","","","","","","","","",""
"01016099999","2010-11-04T20:00:00","78.9333333","28.9","20.0","KONGSOYA, NO","FM-12","4","","","18","","","-0.01","0","","","29.55","29.50","","","020","","2","","","","","","","","","","","","","","","","","","","","","","","","","","","","","","","","","","","","","","","","","","","","","","","","","","","","","","","","","","","","","","","","","","","","","","","","","","","","","","","","","","","","","","","","","","","SYN060AAXX  04191 01016 46/// /0201 11075 2//// 39991 40007 50002;","","","","","","","","","",""
"01016099999","2010-11-04T21:00:00","78.9333333","28.9","20.0","KONGSOYA, NO","FM-12","4","","","19","","","-0.02","1","","","29.56","29.51","","","360","","13","","","","","","","","","","","","","","","","","","","","","","","","","","","","","","","","","","","","","","","","","","","","","","","","","","","","","","","","","","","","","","","","","","","","","","","","","","","","","","","","","","","","","","","","","","","SYN060AAXX  04201 01016 46/// /3606 11073 2//// 39993 40009 51008;","","","","","","","","","",""
"01016099999","2010-11-04T22:00:00","78.9333333","28.9","20.0","KONGSOYA, NO","FM-12","4","","","18","","","-0.03","2","","","29.56","29.52","","","360","","9","","","","","","","","","","","","","","","","","","","","","","","","","","","","","","","","","","","","","","","","","","","","","","","","","","","","","","","","","","","","","","","","","","","","","","","","","","","","","","","","","","","","","","","","","","","SYN060AAXX  04211 01016 46/// /3604 11075 2//// 39995 40011 52010;","","","","","","","","","",""
"01016099999","2010-11-04T23:00:00","78.9333333","28.9","20.0","KONGSOYA, NO","FM-12","4","","","19","","","-0.03","2","","","29.56","29.52","","","010","","16","","","","","","","","","","","","","","","","","","","","","","","","","","","","","","","","","","","","","","","","","","","","","","","","","","","","","","","","","","","","","","","","","","","","","","","","","","","","","","","","","","","","","","","","","","","SYN060AAXX  04221 01016 46/// /0107 11074 2//// 39995 40011 52009;","","","","","","","","","",""
"01016099999","2010-11-05T00:00:00","78.9333333","28.9","20.0","KONGSOYA, NO","FM-12","4","","","18","","","0.00","4","","","29.56","29.52","","","030","","13","","","","","","","","","","","","","","","","","","","","","","","","","","","","","","","","","","","","","","","","","","","","","","","","","","","","","","","","","","","","","","","","","","","","","","","","","","","","","","","","","","","","","","","","","","","SYN060AAXX  04231 01016 46/// /0306 11080 2//// 39995 40011 54007;","","","","","","","","","",""
"01016099999","2010-11-05T01:00:00","78.9333333","28.9","20.0","KONGSOYA, NO","FM-12","4","","","18","","","0.00","4","","","29.56","29.52","","","010","","13","","","","","","","","","","","","","","","","","","","","","","","","","","","","","","","","","","","","","","","","","","","","","","","","","","","","","","","","","","","","","","","","","","","","","","","","","","","","","","","","","","","","","","","","","","","SYN070AAXX  05001 01016 46/// /0106 11080 2//// 39995 40011 54005 333 91108;","","","","","","","","","",""
"01016099999","2010-11-05T03:00:00","78.9333333","28.9","20.0","KONGSOYA, NO","FM-12","4","","","17","","","0.00","4","","","29.56","29.51","","","010","","7","","","","","","","","","","","","","","","","","","","","","","","","","","","","","","","","","","","","","","","","","","","","","","","","","","","","","","","","","","","","","","","","","","","","","","","","","","","","","","","","","","","","","","","","","","","SYN060AAXX  05021 01016 46/// /0103 11082 2//// 39993 40009 54003;","","","","","","","","","",""
"01016099999","2010-11-05T04:00:00","78.9333333","28.9","20.0","KONGSOYA, NO","FM-12","4","","","17","","","0.00","4","","","29.56","29.51","","","040","","13","","","","","","","","","","","","","","","","","","","","","","","","","","","","","","","","","","","","","","","","","","","","","","","","","","","","","","","","","","","","","","","","","","","","","","","","","","","","","","","","","","","","","","","","","","","SYN060AAXX  05031 01016 46/// /0406 11085 2//// 39992 40009 54002;","","","","","","","","","",""
"01016099999","2010-11-05T05:00:00","78.9333333","28.9","20.0","KONGSOYA, NO","FM-12","4","","","17","","","+0.00","7","","","29.55","29.50","","","040","","13","","","","","","","","","","","","","","","","","","","","","","","","","","","","","","","","","","","","","","","","","","","","","","","","","","","","","","","","","","","","","","","","","","","","","","","","","","","","","","","","","","","","","","","","","","","SYN060AAXX  05041 01016 46/// /0406 11086 2//// 39990 40006 57001;","","","","","","","","","",""
"01016099999","2010-11-05T06:00:00","78.9333333","28.9","20.0","KONGSOYA, NO","FM-12","4","","","16","","","+0.01","7","","","29.54","29.50","","","070","","11","","","","","","","","","","","","","","","","","","","","","","","","","","","","","","","","","","","","","","","","","","","","","","","","","","","","","","","","","","","","","","","","","","","","","","","","","","","","","","","","","","","","","","","","","","","SYN060AAXX  05051 01016 46/// /0705 11088 2//// 39989 40005 57000;","","","","","","","","","",""
"01016099999","2010-11-05T07:00:00","78.9333333","28.9","20.0","KONGSOYA, NO","FM-12","4","","","14","","","+0.00","7","","","29.54","29.49","","","090","","13","","","","","","","","","","","","","","","","","","","","","","","","","","","","","","","","","","","","","","","","","","","","","","","","","","","","","","","","","","","","","","","","","","","","","","","","","","","","","","","","","","","","","","","","","","","SYN076AAXX  05061 01016 46/// /0906 11098 2//// 39987 40003 57001 333 21099 91108;","","","","","","","","","",""
"01016099999","2010-11-05T08:00:00","78.9333333","28.9","20.0","KONGSOYA, NO","FM-12","4","","","15","","","+0.00","7","","","29.54","29.49","","","090","","9","","","","","","","","","","","","","","","","","","","","","","","","","","","","","","","","","","","","","","","","","","","","","","","","","","","","","","","","","","","","","","","","","","","","","","","","","","","","","","","","","","","","","","","","","","","SYN060AAXX  05071 01016 46/// /0904 11092 2//// 39987 40003 57001;","","","","","","","","","",""
"01016099999","2010-11-05T09:00:00","78.9333333","28.9","20.0","KONGSOYA, NO","FM-12","4","","","17","","","+0.00","7","","","29.52","29.48","","","070","","13","","","","","","","","","","","","","","","","","","","","","","","","","","","","","","","","","","","","","","","","","","","","","","","","","","","","","","","","","","","","","","","","","","","","","","","","","","","","","","","","","","","","","","","","","","","SYN060AAXX  05081 01016 46/// /0706 11086 2//// 39982 49998 57001;","","","","","","","","","",""
"01016099999","2010-11-05T10:00:00","78.9333333","28.9","20.0","KONGSOYA, NO","FM-12","4","","","16","","","+0.01","7","","","29.52","29.47","","","080","","13","","","","","","","","","","","","","","","","","","","","","","","","","","","","","","","","","","","","","","","","","","","","","","","","","","","","","","","","","","","","","","","","","","","","","","","","","","","","","","","","","","","","","","","","","","","SYN060AAXX  05091 01016 46/// /0806 11088 2//// 39979 49995 57003;","","","","","","","","","",""
"01016099999","2010-11-05T11:00:00","78.9333333","28.9","20.0","KONGSOYA, NO","FM-12","4","","","17","","","+0.02","7","","","29.50","29.45","","","070","","18","","","","","","","","","","","","","","","","","","","","","","","","","","","","","","","","","","","","","","","","","","","","","","","","","","","","","","","","","","","","","","","","","","","","","","","","","","","","","","","","","","","","","","","","","","","SYN060AAXX  05101 01016 46/// /0708 11083 2//// 39973 49989 57008;","","","","","","","","","",""
"01016099999","2010-11-05T12:00:00","78.9333333","28.9","20.0","KONGSOYA, NO","FM-12","4","","","17","","","+0.03","6","","","29.48","29.43","","","070","","20","","","","","","","","","","","","","","","","","","","","","","","","","","","","","","","","","","","","","","","","","","","","","","","","","","","","","","","","","","","","","","","","","","","","","","","","","","","","","","","","","","","","","","","","","","","SYN060AAXX  05111 01016 46/// /0709 11082 2//// 39966 49982 56011;","","","","","","","","","",""
"01016099999","2010-11-05T13:00:00","78.9333333","28.9","20.0","KONGSOYA, NO","FM-12","4","","","18","","","+0.04","7","","","29.47","29.42","","","070","","25","","","","","","","","","","","","","","","","","","","","","","","","","","","","","","","","","","","","","","","","","","","","","","","","","","","","","","","","","","","","","","","","","","","","","","","","","","","","","","","","","","","","","","","","","","","SYN070AAXX  05121 01016 46/// /0711 11080 2//// 39962 49978 57013 333 91112;","","","","","","","","","",""
"01016099999","2010-11-05T14:00:00","78.9333333","28.9","20.0","KONGSOYA, NO","FM-12","4","","","17","","","+0.04","7","","","29.45","29.40","","","060","","27","","","","","","","","","","","","","","","","","","","","","","","","","","","","","","","","","","","","","","","","","","","","","","","","","","","","","","","","","","","","","","","","","","","","","","","","","","","","","","","","","","","","","","","","","","","SYN060AAXX  05131 01016 46/// /0612 11081 2//// 39956 49972 57012;","","","","","","","","","",""
"01016099999","2010-11-05T15:00:00","78.9333333","28.9","20.0","KONGSOYA, NO","FM-12","4","","","17","","","+0.04","7","","","29.43","29.38","","","060","","29","","","","","","","","","","","","","","","","","","","","","","","","","","","","","","","","","","","","","","","","","","","","","","","","","","","","","","","","","","","","","","","","","","","","","","","","","","","","","","","","","","","","","","","","","","","SYN060AAXX  05141 01016 46/// /0613 11083 2//// 39949 49965 57012;","","","","","","","","","",""
"01016099999","2010-11-05T16:00:00","78.9333333","28.9","20.0","KONGSOYA, NO","FM-12","4","","","17","","","+0.04","7","","","29.41","29.36","","","050","","31","","","","","","","","","","","","","","","","","","","","","","","","","","","","","","","","","","","","","","","","","","","","","","","","","","","","","","","","","","","","","","","","","","","","","","","","","","","","","","","","","","","","","","","","","","","SYN060AAXX  05151 01016 46/// /0514 11084 2//// 39943 49959 57014;","","","","","","","","","",""
"01016099999","2010-11-05T17:00:00","78.9333333","28.9","20.0","KONGSOYA, NO","FM-12","4","","","16","","","+0.04","7","","","29.39","29.35","","","050","","38","","","","","","","","","","","","","","","","","","","","","","","","","","","","","","","","","","","","","","","","","","","","","","","","","","","","","","","","","","","","","","","","","","","","","","","","","","","","","","","","","","","","","","","","","","","SYN060AAXX  05161 01016 46/// /0517 11089 2//// 39938 49954 57013;","","","","","","","","","",""
"01016099999","2010-11-05T18:00:00","78.9333333","28.9","20.0","KONGSOYA, NO","FM-12","4","","","15","","","+0.01","8","","","29.40","29.35","","","040","","38","","","","","","","","","","","","","","","","","","","","","","","","","","","","","","","","","","","","","","","","","","","","","","","","","","","","","","","","","","","","","","","","","","","","","","","","","","","","","","","","","","","","","","","","","","","SYN060AAXX  05171 01016 46/// /0417 11097 2//// 39939 49955 58005;","","","","","","","","","",""
"01016099999","2010-11-05T19:00:00","78.9333333","28.9","20.0","KONGSOYA, NO","FM-12","4","","","13","","","+0.01","7","","","29.39","29.35","","","040","","40","","","","","","","","","","","","","","","","","","","","","","","","","","","","","","","","","","","","","","","","","","","","","","","","","","","","","","","","","","","","","","","","","","","","","","","","","","","","","","","","","","","","","","","","","","","SYN076AAXX  05181 01016 46/// /0418 11107 2//// 39938 49954 58000 333 11079 91120;","","","","","","","","","",""
"01016099999","2010-11-05T20:00:00","78.9333333","28.9","20.0","KONGSOYA, NO","FM-12","4","","","11","","","0.00","4","","","29.40","29.36","","","030","","43","","","","","","","","","","","","","","","","","","","","","","","","","","","","","","","","","","","","","","","","","","","","","","","","","","","","","","","","","","","","","","","","","","","","","","","","","","","","","","","","","","","","","","","","","","","SYN060AAXX  05191 01016 46/// /0319 11114 2//// 39941 49957 54008;","","","","","","","","","",""
"01016099999","2010-11-05T21:00:00","78.9333333","28.9","20.0","KONGSOYA, NO","FM-12","4","","","9","","","-0.03","1","","","29.41","29.37","","","020","","43","","","","","","","","","","","","","","","","","","","","","","","","","","","","","","","","","","","","","","","","","","","","","","","","","","","","","","","","","","","","","","","","","","","","","","","","","","","","","","","","","","","","","","","","","","","SYN060AAXX  05201 01016 46/// /0219 11125 2//// 39945 49961 51011;","","","","","","","","","",""
"01016099999","2010-11-05T23:00:00","78.9333333","28.9","20.0","KONGSOYA, NO","FM-12","4","","","7","","","-0.04","2","","","29.43","29.39","","","020","","38","","","","","","","","","","","","","","","","","","","","","","","","","","","","","","","","","","","","","","","","","","","","","","","","","","","","","","","","","","","","","","","","","","","","","","","","","","","","","","","","","","","","","","","","","","","SYN060AAXX  05221 01016 46/// /0217 11139 2//// 39951 49967 52014;","","","","","","","","","",""
"01016099999","2010-11-06T00:00:00","78.9333333","28.9","20.0","KONGSOYA, NO","FM-12","4","","","6","","","-0.04","2","","","29.44","29.39","","","020","","36","","","","","","","","","","","","","","","","","","","","","","","","","","","","","","","","","","","","","","","","","","","","","","","","","","","","","","","","","","","","","","","","","","","","","","","","","","","","","","","","","","","","","","","","","","","SYN060AAXX  05231 01016 46/// /0216 11144 2//// 39954 49970 52013;","","","","","","","","","",""
"01016099999","2010-11-06T01:00:00","78.9333333","28.9","20.0","KONGSOYA, NO","FM-12","4","","","5","","","-0.04","2","","","29.45","29.40","","","010","","36","","","","","","","","","","","","","","","","","","","","","","","","","","","","","","","","","","","","","","","","","","","","","","","","","","","","","","","","","","","","","","","","","","","","","","","","","","","","","","","","","","","","","","","","","","","SYN060AAXX  06001 01016 46/// /0116 11148 2//// 39956 49972 52014;","","","","","","","","","",""
"01016099999","2010-11-06T02:00:00","78.9333333","28.9","20.0","KONGSOYA, NO","FM-12","4","","","5","","","-0.03","3","","","29.44","29.40","","","010","","36","","","","","","","","","","","","","","","","","","","","","","","","","","","","","","","","","","","","","","","","","","","","","","","","","","","","","","","","","","","","","","","","","","","","","","","","","","","","","","","","","","","","","","","","","","","SYN060AAXX  06011 01016 46/// /0116 11152 2//// 39955 49971 53010;","","","","","","","","","",""
"01016099999","2010-11-06T03:00:00","78.9333333","28.9","20.0","KONGSOYA, NO","FM-12","4","","","3","","","-0.04","1","","","29.46","29.41","","","010","","34","","","","","","","","","","","","","","","","","","","","","","","","","","","","","","","","","","","","","","","","","","","","","","","","","","","","","","","","","","","","","","","","","","","","","","","","","","","","","","","","","","","","","","","","","","","SYN060AAXX  06021 01016 46/// /0115 11161 2//// 39961 49977 51012;","","","","","","","","","",""
"01016099999","2010-11-06T04:00:00","78.9333333","28.9","20.0","KONGSOYA, NO","FM-12","4","","","2","","","-0.04","1","","","29.47","29.43","","","010","","31","","","","","","","","","","","","","","","","","","","","","","","","","","","","","","","","","","","","","","","","","","","","","","","","","","","","","","","","","","","","","","","","","","","","","","","","","","","","","","","","","","","","","","","","","","","SYN060AAXX  06031 01016 46/// /0114 11164 2//// 39965 49981 51014;","","","","","","","","","",""
"01016099999","2010-11-06T05:00:00","78.9333333","28.9","20.0","KONGSOYA, NO","FM-12","4","","","2","","","-0.06","2","","","29.49","29.44","","","020","","27","","","","","","","","","","","","","","","","","","","","","","","","","","","","","","","","","","","","","","","","","","","","","","","","","","","","","","","","","","","","","","","","","","","","","","","","","","","","","","","","","","","","","","","","","","","SYN060AAXX  06041 01016 46/// /0212 11164 2//// 39969 49986 52019;","","","","","","","","","",""
"01016099999","2010-11-06T06:00:00","78.9333333","28.9","20.0","KONGSOYA, NO","FM-12","4","","","3","","","-0.04","3","","","29.48","29.44","","","020","","29","","","","","","","","","","","","","","","","","","","","","","","","","","","","","","","","","","","","","","","","","","","","","","","","","","","","","","","","","","","","","","","","","","","","","","","","","","","","","","","","","","","","","","","","","","","SYN060AAXX  06051 01016 46/// /0213 11159 2//// 39968 49984 53012;","","","","","","","","","",""
"01016099999","2010-11-06T07:00:00","78.9333333","28.9","20.0","KONGSOYA, NO","FM-12","4","","","4","","","-0.03","3","","","29.49","29.44","","","010","","29","","","","","","","","","","","","","","","","","","","","","","","","","","","","","","","","","","","","","","","","","","","","","","","","","","","","","","","","","","","","","","","","","","","","","","","","","","","","","","","","","","","","","","","","","","","SYN070AAXX  06061 01016 46/// /0113 11156 2//// 39969 49985 53009 333 91119;","","","","","","","","","",""
"01016099999","2010-11-06T08:00:00","78.9333333","28.9","20.0","KONGSOYA, NO","FM-12","4","","","4","","","-0.03","1","","","29.50","29.45","","","020","","25","","","","","","","","","","","","","","","","","","","","","","","","","","","","","","","","","","","","","","","","","","","","","","","","","","","","","","","","","","","","","","","","","","","","","","","","","","","","","","","","","","","","","","","","","","","SYN060AAXX  06071 01016 46/// /0211 11155 2//// 39974 49990 51009;","","","","","","","","","",""
"01016099999","2010-11-06T09:00:00","78.9333333","28.9","20.0","KONGSOYA, NO","FM-12","4","","","3","","","-0.05","1","","","29.52","29.47","","","010","","22","","","","","","","","","","","","","","","","","","","","","","","","","","","","","","","","","","","","","","","","","","","","","","","","","","","","","","","","","","","","","","","","","","","","","","","","","","","","","","","","","","","","","","","","","","","SYN060AAXX  06081 01016 46/// /0110 11159 2//// 39979 49996 51016;","","","","","","","","","",""
"01016099999","2010-11-06T10:00:00","78.9333333","28.9","20.0","KONGSOYA, NO","FM-12","4","","","4","","","-0.04","3","","","29.52","29.47","","","010","","22","","","","","","","","","","","","","","","","","","","","","","","","","","","","","","","","","","","","","","","","","","","","","","","","","","","","","","","","","","","","","","","","","","","","","","","","","","","","","","","","","","","","","","","","","","","SYN060AAXX  06091 01016 46/// /0110 11157 2//// 39979 49995 53015;","","","","","","","","","",""
"01016099999","2010-11-06T11:00:00","78.9333333","28.9","20.0","KONGSOYA, NO","FM-12","4","","","3","","","-0.03","3","","","29.51","29.47","","","360","","22","","","","","","","","","","","","","","","","","","","","","","","","","","","","","","","","","","","","","","","","","","","","","","","","","","","","","","","","","","","","","","","","","","","","","","","","","","","","","","","","","","","","","","","","","","","SYN060AAXX  06101 01016 46/// /3610 11159 2//// 39978 49994 53009;","","","","","","","","","",""
"01016099999","2010-11-06T12:00:00","78.9333333","28.9","20.0","KONGSOYA, NO","FM-12","4","","","4","","","0.00","4","","","29.52","29.47","","","360","","20","","","","","","","","","","","","","","","","","","","","","","","","","","","","","","","","","","","","","","","","","","","","","","","","","","","","","","","","","","","","","","","","","","","","","","","","","","","","","","","","","","","","","","","","","","","SYN060AAXX  06111 01016 46/// /3609 11158 2//// 39978 49995 54004;","","","","","","","","","",""
"01016099999","2010-11-06T13:00:00","78.9333333","28.9","20.0","KONGSOYA, NO","FM-12","4","","","4","","","0.00","4","","","29.52","29.47","","","360","","18","","","","","","","","","","","","","","","","","","","","","","","","","","","","","","","","","","","","","","","","","","","","","","","","","","","","","","","","","","","","","","","","","","","","","","","","","","","","","","","","","","","","","","","","","","","SYN070AAXX  06121 01016 46/// /3608 11157 2//// 39979 49995 54005 333 91116;","","","","","","","","","",""
"01016099999","2010-11-06T14:00:00","78.9333333","28.9","20.0","KONGSOYA, NO","FM-12","4","","","4","","","+0.01","5","","","29.51","29.46","","","360","","18","","","","","","","","","","","","","","","","","","","","","","","","","","","","","","","","","","","","","","","","","","","","","","","","","","","","","","","","","","","","","","","","","","","","","","","","","","","","","","","","","","","","","","","","","","","SYN060AAXX  06131 01016 46/// /3608 11156 2//// 39976 49993 55004;","","","","","","","","","",""
"01016099999","2010-11-06T15:00:00","78.9333333","28.9","20.0","KONGSOYA, NO","FM-12","4","","","5","","","0.00","4","","","29.51","29.46","","","350","","18","","","","","","","","","","","","","","","","","","","","","","","","","","","","","","","","","","","","","","","","","","","","","","","","","","","","","","","","","","","","","","","","","","","","","","","","","","","","","","","","","","","","","","","","","","","SYN060AAXX  06141 01016 46/// /3508 11152 2//// 39976 49992 54003;","","","","","","","","","",""
"01016099999","2010-11-06T16:00:00","78.9333333","28.9","20.0","KONGSOYA, NO","FM-12","4","","","5","","","+0.01","7","","","29.51","29.46","","","350","","13","","","","","","","","","","","","","","","","","","","","","","","","","","","","","","","","","","","","","","","","","","","","","","","","","","","","","","","","","","","","","","","","","","","","","","","","","","","","","","","","","","","","","","","","","","","SYN060AAXX  06151 01016 46/// /3506 11148 2//// 39975 49992 57002;","","","","","","","","","",""
"01016099999","2010-11-06T17:00:00","78.9333333","28.9","20.0","KONGSOYA, NO","FM-12","4","","","6","","","0.00","4","","","29.50","29.45","","","340","","13","","","","","","","","","","","","","","","","","","","","","","","","","","","","","","","","","","","","","","","","","","","","","","","","","","","","","","","","","","","","","","","","","","","","","","","","","","","","","","","","","","","","","","","","","","","SYN060AAXX  06161 01016 46/// /3406 11143 2//// 39974 49990 54003;","","","","","","","","","",""
"01016099999","2010-11-06T18:00:00","78.9333333","28.9","20.0","KONGSOYA, NO","FM-12","4","","","6","","","+0.00","7","","","29.49","29.45","","","320","","11","","","","","","","","","","","","","","","","","","","","","","","","","","","","","","","","","","","","","","","","","","","","","","","","","","","","","","","","","","","","","","","","","","","","","","","","","","","","","","","","","","","","","","","","","","","SYN060AAXX  06171 01016 46/// /3205 11143 2//// 39972 49988 57001;","","","","","","","","","",""
"01016099999","2010-11-06T19:00:00","78.9333333","28.9","20.0","KONGSOYA, NO","FM-12","4","","","6","","","+0.00","7","","","29.49","29.44","","","340","","9","","","","","","","","","","","","","","","","","","","","","","","","","","","","","","","","","","","","","","","","","","","","","","","","","","","","","","","","","","","","","","","","","","","","","","","","","","","","","","","","","","","","","","","","","","","SYN076AAXX  06181 01016 46/// /3404 11144 2//// 39969 49986 57001 333 11142 91111;","","","","","","","","","",""
"01016099999","2010-11-06T20:00:00","78.9333333","28.9","20.0","KONGSOYA, NO","FM-12","4","","","4","","","+0.01","7","","","29.48","29.43","","","","","","","","","","","","","","","","","","","","","","","","","","","","","","","","","","","","","","","","","","","","","","","","","","","","","","","","","","","","","","","","","","","","","","","","","","","","","","","","","","","","","","","","","","","","","","","","SYN060AAXX  06191 01016 46/// ///// 11155 2//// 39966 49982 57003;","","","","","","","","","",""
"01016099999","2010-11-06T21:00:00","78.9333333","28.9","20.0","KONGSOYA, NO","FM-12","4","","","6","","","+0.01","7","","","29.47","29.42","","","","","","","","","","","","","","","","","","","","","","","","","","","","","","","","","","","","","","","","","","","","","","","","","","","","","","","","","","","","","","","","","","","","","","","","","","","","","","","","","","","","","","","","","","","","","","","","SYN060AAXX  06201 01016 46/// ///// 11147 2//// 39963 49980 57004;","","","","","","","","","",""
"01016099999","2010-11-06T22:00:00","78.9333333","28.9","20.0","KONGSOYA, NO","FM-12","4","","","7","","","+0.00","8","","","29.47","29.42","","","350","","7","","","","","","","","","","","","","","","","","","","","","","","","","","","","","","","","","","","","","","","","","","","","","","","","","","","","","","","","","","","","","","","","","","","","","","","","","","","","","","","","","","","","","","","","","","","SYN060AAXX  06211 01016 46/// /3503 11141 2//// 39963 49979 58001;","","","","","","","","","",""
"01016099999","2010-11-06T23:00:00","78.9333333","28.9","20.0","KONGSOYA, NO","FM-12","4","","","6","","","+0.00","7","","","29.47","29.42","","","340","","4","","","","","","","","","","","","","","","","","","","","","","","","","","","","","","","","","","","","","","","","","","","","","","","","","","","","","","","","","","","","","","","","","","","","","","","","","","","","","","","","","","","","","","","","","","","SYN060AAXX  06221 01016 46/// /3402 11142 2//// 39962 49979 57001;","","","","","","","","","",""
"01016099999","2010-11-07T00:00:00","78.9333333","28.9","20.0","KONGSOYA, NO","FM-12","4","","","6","","","+0.00","6","","","29.45","29.41","","","350","","11","","","","","","","","","","","","","","","","","","","","","","","","","","","","","","","","","","","","","","","","","","","","","","","","","","","","","","","","","","","","","","","","","","","","","","","","","","","","","","","","","","","","","","","","","","","SYN060AAXX  06231 01016 46/// /3505 11144 2//// 39958 49974 56001;","","","","","","","","","",""
"01016099999","2010-11-07T01:00:00","78.9333333","28.9","20.0","KONGSOYA, NO","FM-12","4","","","6","","","+0.01","7","","","29.45","29.40","","","360","","9","","","","","","","","","","","","","","","","","","","","","","","","","","","","","","","","","","","","","","","","","","","","","","","","","","","","","","","","","","","","","","","","","","","","","","","","","","","","","","","","","","","","","","","","","","","SYN070AAXX  07001 01016 46/// /3604 11142 2//// 39956 49972 57002 333 91107;","","","","","","","","","",""
"01016099999","2010-11-07T02:00:00","78.9333333","28.9","20.0","KONGSOYA, NO","FM-12","4","","","6","","","+0.02","7","","","29.45","29.40","","","","","","","","","","","","","","","","","","","","","","","","","","","","","","","","","","","","","","","","","","","","","","","","","","","","","","","","","","","","","","","","","","","","","","","","","","","","","","","","","","","","","","","","","","","","","","","","SYN060AAXX  07011 01016 46/// ///// 11145 2//// 39957 49973 58000;","","","","","","","","","",""
"01016099999","2010-11-07T03:00:00","78.9333333","28.9","20.0","KONGSOYA, NO","FM-12","4","","","4","","","+0.00","7","","","29.44","29.39","","","360","","9","","","","","","","","","","","","","","","","","","","","","","","","","","","","","","","","","","","","","","","","","","","","","","","","","","","","","","","","","","","","","","","","","","","","","","","","","","","","","","","","","","","","","","","","","","","SYN060AAXX  07021 01016 46/// /3604 11156 2//// 39954 49970 57001;","","","","","","","","","",""
"01016099999","2010-11-07T04:00:00","78.9333333","28.9","20.0","KONGSOYA, NO","FM-12","4","","","5","","","0.00","4","","","29.44","29.39","","","350","","7","","","","","","","","","","","","","","","","","","","","","","","","","","","","","","","","","","","","","","","","","","","","","","","","","","","","","","","","","","","","","","","","","","","","","","","","","","","","","","","","","","","","","","","","","","","SYN060AAXX  07031 01016 46/// /3503 11150 2//// 39954 49970 54003;","","","","","","","","","",""
"01016099999","2010-11-07T05:00:00","78.9333333","28.9","20.0","KONGSOYA, NO","FM-12","4","","","5","","","+0.00","7","","","29.44","29.39","","","310","","7","","","","","","","","","","","","","","","","","","","","","","","","","","","","","","","","","","","","","","","","","","","","","","","","","","","","","","","","","","","","","","","","","","","","","","","","","","","","","","","","","","","","","","","","","","","SYN060AAXX  07041 01016 46/// /3103 11150 2//// 39952 49969 57001;","","","","","","","","","",""
"01016099999","2010-11-07T06:00:00","78.9333333","28.9","20.0","KONGSOYA, NO","FM-12","4","","","5","","","0.00","4","","","29.44","29.39","","","300","","7","","","","","","","","","","","","","","","","","","","","","","","","","","","","","","","","","","","","","","","","","","","","","","","","","","","","","","","","","","","","","","","","","","","","","","","","","","","","","","","","","","","","","","","","","","","SYN060AAXX  07051 01016 46/// /3003 11152 2//// 39953 49969 54004;","","","","","","","","","",""
"01016099999","2010-11-07T07:00:00","78.9333333","28.9","20.0","KONGSOYA, NO","FM-12","4","","","5","","","-0.02","0","","","29.44","29.40","","","330","","9","","","","","","","","","","","","","","","","","","","","","","","","","","","","","","","","","","","","","","","","","","","","","","","","","","","","","","","","","","","","","","","","","","","","","","","","","","","","","","","","","","","","","","","","","","","SYN076AAXX  07061 01016 46/// /3304 11148 2//// 39955 49971 50006 333 21159 91107;","","","","","","","","","",""
"01016099999","2010-11-07T08:00:00","78.9333333","28.9","20.0","KONGSOYA, NO","FM-12","4","","","5","","","-0.03","2","","","29.45","29.40","","","330","","9","","","","","","","","","","","","","","","","","","","","","","","","","","","","","","","","","","","","","","","","","","","","","","","","","","","","","","","","","","","","","","","","","","","","","","","","","","","","","","","","","","","","","","","","","","","SYN060AAXX  07071 01016 46/// /3304 11152 2//// 39957 49974 52010;","","","","","","","","","",""
"01016099999","2010-11-07T09:00:00","78.9333333","28.9","20.0","KONGSOYA, NO","FM-12","4","","","4","","","-0.04","2","","","29.46","29.41","","","350","","11","","","","","","","","","","","","","","","","","","","","","","","","","","","","","","","","","","","","","","","","","","","","","","","","","","","","","","","","","","","","","","","","","","","","","","","","","","","","","","","","","","","","","","","","","","","SYN060AAXX  07081 01016 46/// /3505 11157 2//// 39960 49976 52012;","","","","","","","","","",""
"01016099999","2010-11-07T10:00:00","78.9333333","28.9","20.0","KONGSOYA, NO","FM-12","4","","","5","","","-0.04","2","","","29.47","29.42","","","","","","","","","","","","","","","","","","","","","","","","","","","","","","","","","","","","","","","","","","","","","","","","","","","","","","","","","","","","","","","","","","","","","","","","","","","","","","","","","","","","","","","","","","","","","","","","SYN060AAXX  07091 01016 46/// ///// 11152 2//// 39964 49980 52014;","","","","","","","","","",""
"01016099999","2010-11-07T11:00:00","78.9333333","28.9","20.0","KONGSOYA, NO","FM-12","4","","","4","","","-0.04","2","","","29.48","29.43","","","350","","11","","","","","","","","","","","","","","","","","","","","","","","","","","","","","","","","","","","","","","","","","","","","","","","","","","","","","","","","","","","","","","","","","","","","","","","","","","","","","","","","","","","","","","","","","","","SYN060AAXX  07101 01016 46/// /3505 11158 2//// 39967 49983 52015;","","","","","","","","","",""
"01016099999","2010-11-07T12:00:00","78.9333333","28.9","20.0","KONGSOYA, NO","FM-12","4","","","2","","","-0.04","2","","","29.49","29.44","","","350","","11","","","","","","","","","","","","","","","","","","","","","","","","","","","","","","","","","","","","","","","","","","","","","","","","","","","","","","","","","","","","","","","","","","","","","","","","","","","","","","","","","","","","","","","","","","","SYN060AAXX  07111 01016 46/// /3505 11164 2//// 39968 49985 52014;","","","","","","","","","",""
"01016099999","2010-11-07T13:00:00","78.9333333","28.9","20.0","KONGSOYA, NO","FM-12","4","","","1","","","-0.03","2","","","29.49","29.44","","","350","","11","","","","","","","","","","","","","","","","","","","","","","","","","","","","","","","","","","","","","","","","","","","","","","","","","","","","","","","","","","","","","","","","","","","","","","","","","","","","","","","","","","","","","","","","","","","SYN070AAXX  07121 01016 46/// /3505 11172 2//// 39970 49987 52011 333 91107;","","","","","","","","","",""
"01016099999","2010-11-07T14:00:00","78.9333333","28.9","20.0","KONGSOYA, NO","FM-12","4","","","-1","","","-0.03","2","","","29.49","29.45","","","350","","13","","","","","","","","","","","","","","","","","","","","","","","","","","","","","","","","","","","","","","","","","","","","","","","","","","","","","","","","","","","","","","","","","","","","","","","","","","","","","","","","","","","","","","","","","","","SYN060AAXX  07131 01016 46/// /3506 11181 2//// 39972 49988 52010;","","","","","","","","","",""
"01016099999","2010-11-07T15:00:00","78.9333333","28.9","20.0","KONGSOYA, NO","FM-12","4","","","-1","","","-0.04","1","","","29.51","29.46","","","350","","13","","","","","","","","","","","","","","","","","","","","","","","","","","","","","","","","","","","","","","","","","","","","","","","","","","","","","","","","","","","","","","","","","","","","","","","","","","","","","","","","","","","","","","","","","","","SYN060AAXX  07141 01016 46/// /3506 11184 2//// 39977 49994 51014;","","","","","","","","","",""
"01016099999","2010-11-07T16:00:00","78.9333333","28.9","20.0","KONGSOYA, NO","FM-12","4","","","-2","","","-0.04","2","","","29.52","29.47","","","360","","16","","","","","","","","","","","","","","","","","","","","","","","","","","","","","","","","","","","","","","","","","","","","","","","","","","","","","","","","","","","","","","","","","","","","","","","","","","","","","","","","","","","","","","","","","","","SYN060AAXX  07151 01016 46/// /3607 11187 2//// 39980 49996 52015;","","","","","","","","","",""
"01016099999","2010-11-07T17:00:00","78.9333333","28.9","20.0","KONGSOYA, NO","FM-12","4","","","-2","","","-0.05","2","","","29.53","29.48","","","360","","18","","","","","","","","","","","","","","","","","","","","","","","","","","","","","","","","","","","","","","","","","","","","","","","","","","","","","","","","","","","","","","","","","","","","","","","","","","","","","","","","","","","","","","","","","","","SYN060AAXX  07161 01016 46/// /3608 11190 2//// 39982 49999 52016;","","","","","","","","","",""
"01016099999","2010-11-07T18:00:00","78.9333333","28.9","20.0","KONGSOYA, NO","FM-12","4","","","-3","","","-0.04","2","","","29.54","29.49","","","010","","18","","","","","","","","","","","","","","","","","","","","","","","","","","","","","","","","","","","","","","","","","","","","","","","","","","","","","","","","","","","","","","","","","","","","","","","","","","","","","","","","","","","","","","","","","","","SYN060AAXX  07171 01016 46/// /0108 11192 2//// 39985 40002 52013;","","","","","","","","","",""
"01016099999","2010-11-07T19:00:00","78.9333333","28.9","20.0","KONGSOYA, NO","FM-12","4","","","-2","","","-0.04","2","","","29.55","29.50","","","010","","18","","","","","","","","","","","","","","","","","","","","","","","","","","","","","","","","","","","","","","","","","","","","","","","","","","","","","","","","","","","","","","","","","","","","","","","","","","","","","","","","","","","","","","","","","","","SYN076AAXX  07181 01016 46/// /0108 11191 2//// 39990 40007 52015 333 11148 91109;","","","","","","","","","",""
"01016099999","2010-11-07T20:00:00","78.9333333","28.9","20.0","KONGSOYA, NO","FM-12","4","","","-2","","","-0.04","2","","","29.55","29.50","","","010","","16","","","","","","","","","","","","","","","","","","","","","","","","","","","","","","","","","","","","","","","","","","","","","","","","","","","","","","","","","","","","","","","","","","","","","","","","","","","","","","","","","","","","","","","","","","","SYN060AAXX  07191 01016 46/// /0107 11191 2//// 39991 40008 52014;","","","","","","","","","",""
"01016099999","2010-11-07T21:00:00","78.9333333","28.9","20.0","KONGSOYA, NO","FM-12","4","","","-2","","","-0.04","3","","","29.56","29.51","","","360","","16","","","","","","","","","","","","","","","","","","","","","","","","","","","","","","","","","","","","","","","","","","","","","","","","","","","","","","","","","","","","","","","","","","","","","","","","","","","","","","","","","","","","","","","","","","","SYN060AAXX  07201 01016 46/// /3607 11191 2//// 39992 40009 53012;","","","","","","","","","",""
"01016099999","2010-11-07T22:00:00","78.9333333","28.9","20.0","KONGSOYA, NO","FM-12","4","","","-2","","","-0.03","2","","","29.56","29.51","","","360","","16","","","","","","","","","","","","","","","","","","","","","","","","","","","","","","","","","","","","","","","","","","","","","","","","","","","","","","","","","","","","","","","","","","","","","","","","","","","","","","","","","","","","","","","","","","","SYN060AAXX  07211 01016 46/// /3607 11191 2//// 39994 40011 52009;","","","","","","","","","",""
"01016099999","2010-11-07T23:00:00","78.9333333","28.9","20.0","KONGSOYA, NO","FM-12","4","","","-3","","","-0.03","2","","","29.57","29.52","","","360","","13","","","","","","","","","","","","","","","","","","","","","","","","","","","","","","","","","","","","","","","","","","","","","","","","","","","","","","","","","","","","","","","","","","","","","","","","","","","","","","","","","","","","","","","","","","","SYN060AAXX  07221 01016 46/// /3606 11192 2//// 39996 40013 52010;","","","","","","","","","",""
"01016099999","2010-11-08T00:00:00","78.9333333","28.9","20.0","KONGSOYA, NO","FM-12","4","","","-2","","","-0.03","2","","","29.57","29.52","","","010","","13","","","","","","","","","","","","","","","","","","","","","","","","","","","","","","","","","","","","","","","","","","","","","","","","","","","","","","","","","","","","","","","","","","","","","","","","","","","","","","","","","","","","","","","","","","","SYN060AAXX  07231 01016 46/// /0106 11190 2//// 39997 40014 52010;","","","","","","","","","",""
"01016099999","2010-11-08T01:00:00","78.9333333","28.9","20.0","KONGSOYA, NO","FM-12","4","","","-2","","","-0.04","2","","","29.58","29.53","","","010","","11","","","","","","","","","","","","","","","","","","","","","","","","","","","","","","","","","","","","","","","","","","","","","","","","","","","","","","","","","","","","","","","","","","","","","","","","","","","","","","","","","","","","","","","","","","","SYN070AAXX  08001 01016 46/// /0105 11189 2//// 30001 40018 52012 333 91109;","","","","","","","","","",""
"01016099999","2010-11-08T02:00:00","78.9333333","28.9","20.0","KONGSOYA, NO","FM-12","4","","","-3","","","-0.03","2","","","29.58","29.53","","","360","","9","","","","","","","","","","","","","","","","","","","","","","","","","","","","","","","","","","","","","","","","","","","","","","","","","","","","","","","","","","","","","","","","","","","","","","","","","","","","","","","","","","","","","","","","","","","SYN060AAXX  08011 01016 46/// /3604 11192 2//// 30001 40018 52010;","","","","","","","","","",""
"01016099999","2010-11-08T03:00:00","78.9333333","28.9","20.0","KONGSOYA, NO","FM-12","4","","","-2","","","-0.03","3","","","29.59","29.54","","","350","","9","","","","","","","","","","","","","","","","","","","","","","","","","","","","","","","","","","","","","","","","","","","","","","","","","","","","","","","","","","","","","","","","","","","","","","","","","","","","","","","","","","","","","","","","","","","SYN060AAXX  08021 01016 46/// /3504 11190 2//// 30002 40019 53010;","","","","","","","","","",""
"01016099999","2010-11-08T04:00:00","78.9333333","28.9","20.0","KONGSOYA, NO","FM-12","4","","","-3","","","0.00","4","","","29.59","29.54","","","340","","11","","","","","","","","","","","","","","","","","","","","","","","","","","","","","","","","","","","","","","","","","","","","","","","","","","","","","","","","","","","","","","","","","","","","","","","","","","","","","","","","","","","","","","","","","","","SYN060AAXX  08031 01016 46/// /3405 11192 2//// 30002 40019 54006;","","","","","","","","","",""
"01016099999","2010-11-08T05:00:00","78.9333333","28.9","20.0","KONGSOYA, NO","FM-12","4","","","-2","","","0.00","4","","","29.59","29.54","","","350","","9","","","","","","","","","","","","","","","","","","","","","","","","","","","","","","","","","","","","","","","","","","","","","","","","","","","","","","","","","","","","","","","","","","","","","","","","","","","","","","","","","","","","","","","","","","","SYN060AAXX  08041 01016 46/// /3504 11188 2//// 30002 40019 54006;","","","","","","","","","",""
"01016099999","2010-11-08T06:00:00","78.9333333","28.9","20.0","KONGSOYA, NO","FM-12","4","","","-2","","","0.00","4","","","29.59","29.54","","","360","","7","","","","","","","","","","","","","","","","","","","","","","","","","","","","","","","","","","","","","","","","","","","","","","","","","","","","","","","","","","","","","","","","","","","","","","","","","","","","","","","","","","","","","","","","","","","SYN060AAXX  08051 01016 46/// /3603 11187 2//// 30004 40021 54007;","","","","","","","","","",""
"01016099999","2010-11-08T07:00:00","78.9333333","28.9","20.0","KONGSOYA, NO","FM-12","4","","","0","","","-0.03","2","","","29.60","29.55","","","350","","7","","","","","","","","","","","","","","","","","","","","","","","","","","","","","","","","","","","","","","","","","","","","","","","","","","","","","","","","","","","","","","","","","","","","","","","","","","","","","","","","","","","","","","","","","","","SYN076AAXX  08061 01016 46/// /3503 11180 2//// 30006 40023 52009 333 21195 91106;","","","","","","","","","",""
"01016099999","2010-11-08T08:00:00","78.9333333","28.9","20.0","KONGSOYA, NO","FM-12","4","","","-1","","","-0.03","2","","","29.60","29.55","","","340","","2","","","","","","","","","","","","","","","","","","","","","","","","","","","","","","","","","","","","","","","","","","","","","","","","","","","","","","","","","","","","","","","","","","","","","","","","","","","","","","","","","","","","","","","","","","","SYN060AAXX  08071 01016 46/// /3401 11181 2//// 30008 40024 52010;","","","","","","","","","",""
"01016099999","2010-11-08T09:00:00","78.9333333","28.9","20.0","KONGSOYA, NO","FM-12","4","","","-1","","","-0.03","2","","","29.60","29.55","","","030","","2","","","","","","","","","","","","","","","","","","","","","","","","","","","","","","","","","","","","","","","","","","","","","","","","","","","","","","","","","","","","","","","","","","","","","","","","","","","","","","","","","","","","","","","","","","","SYN060AAXX  08081 01016 46/// /0301 11181 2//// 30008 40024 52009;","","","","","","","","","",""
"01016099999","2010-11-08T10:00:00","78.9333333","28.9","20.0","KONGSOYA, NO","FM-12","4","","","-1","","","0.00","4","","","29.60","29.56","","","050","","2","","","","","","","","","","","","","","","","","","","","","","","","","","","","","","","","","","","","","","","","","","","","","","","","","","","","","","","","","","","","","","","","","","","","","","","","","","","","","","","","","","","","","","","","","","","SYN060AAXX  08091 01016 46/// /0501 11182 2//// 30009 40025 54008;","","","","","","","","","",""
"01016099999","2010-11-08T11:00:00","78.9333333","28.9","20.0","KONGSOYA, NO","FM-12","4","","","-1","","","0.00","4","","","29.60","29.55","","","080","","7","","","","","","","","","","","","","","","","","","","","","","","","","","","","","","","","","","","","","","","","","","","","","","","","","","","","","","","","","","","","","","","","","","","","","","","","","","","","","","","","","","","","","","","","","","","SYN060AAXX  08101 01016 46/// /0803 11183 2//// 30007 40023 54004;","","","","","","","","","",""
"01016099999","2010-11-08T12:00:00","78.9333333","28.9","20.0","KONGSOYA, NO","FM-12","4","","","-2","","","0.00","4","","","29.59","29.54","","","080","","7","","","","","","","","","","","","","","","","","","","","","","","","","","","","","","","","","","","","","","","","","","","","","","","","","","","","","","","","","","","","","","","","","","","","","","","","","","","","","","","","","","","","","","","","","","","SYN060AAXX  08111 01016 46/// /0803 11187 2//// 30005 40022 54002;","","","","","","","","","",""
"01016099999","2010-11-08T13:00:00","78.9333333","28.9","20.0","KONGSOYA, NO","FM-12","4","","","0","","","+0.01","7","","","29.59","29.54","","","060","","4","","","","","","","","","","","","","","","","","","","","","","","","","","","","","","","","","","","","","","","","","","","","","","","","","","","","","","","","","","","","","","","","","","","","","","","","","","","","","","","","","","","","","","","","","","","SYN070AAXX  08121 01016 46/// /0602 11178 2//// 30004 40020 57000 333 91104;","","","","","","","","","",""
"01016099999","2010-11-08T14:00:00","78.9333333","28.9","20.0","KONGSOYA, NO","FM-12","4","","","0","","","+0.01","7","","","29.59","29.54","","","000","","0","","","","","","","","","","","","","","","","","","","","","","","","","","","","","","","","","","","","","","","","","","","","","","","","","","","","","","","","","","","","","","","","","","","","","","","","","","","","","","","","","","","","","","","","","","","SYN060AAXX  08131 01016 46/// /0000 11177 2//// 30002 40019 57000;","","","","","","","","","",""
"01016099999","2010-11-08T15:00:00","78.9333333","28.9","20.0","KONGSOYA, NO","FM-12","4","","","0","","","0.00","4","","","29.59","29.54","","","000","","0","","","","","","","","","","","","","","","","","","","","","","","","","","","","","","","","","","","","","","","","","","","","","","","","","","","","","","","","","","","","","","","","","","","","","","","","","","","","","","","","","","","","","","","","","","","SYN060AAXX  08141 01016 46/// /0000 11176 2//// 30002 40019 54002;","","","","","","","","","",""
"01016099999","2010-11-08T16:00:00","78.9333333","28.9","20.0","KONGSOYA, NO","FM-12","4","","","-1","","","0.00","4","","","29.59","29.54","","","310","","2","","","","","","","","","","","","","","","","","","","","","","","","","","","","","","","","","","","","","","","","","","","","","","","","","","","","","","","","","","","","","","","","","","","","","","","","","","","","","","","","","","","","","","","","","","","SYN060AAXX  08151 01016 46/// /3101 11185 2//// 30003 40020 54005;","","","","","","","","","",""
"01016099999","2010-11-08T17:00:00","78.9333333","28.9","20.0","KONGSOYA, NO","FM-12","4","","","-4","","","0.00","4","","","29.59","29.54","","","320","","4","","","","","","","","","","","","","","","","","","","","","","","","","","","","","","","","","","","","","","","","","","","","","","","","","","","","","","","","","","","","","","","","","","","","","","","","","","","","","","","","","","","","","","","","","","","SYN060AAXX  08161 01016 46/// /3202 11198 2//// 30004 40021 54007;","","","","","","","","","",""
"01016099999","2010-11-08T18:00:00","78.9333333","28.9","20.0","KONGSOYA, NO","FM-12","4","","","0","","","0.00","4","","","29.59","29.54","","","320","","4","","","","","","","","","","","","","","","","","","","","","","","","","","","","","","","","","","","","","","","","","","","","","","","","","","","","","","","","","","","","","","","","","","","","","","","","","","","","","","","","","","","","","","","","","","","SYN060AAXX  08171 01016 46/// /3202 11178 2//// 30005 40022 54008;","","","","","","","","","",""
"01016099999","2010-11-08T19:00:00","78.9333333","28.9","20.0","KONGSOYA, NO","FM-12","4","","","2","","","-0.02","2","","","29.60","29.55","","","290","","7","","","","","","","","","","","","","","","","","","","","","","","","","","","","","","","","","","","","","","","","","","","","","","","","","","","","","","","","","","","","","","","","","","","","","","","","","","","","","","","","","","","","","","","","","","","SYN076AAXX  08181 01016 46/// /2903 11169 2//// 30006 40023 52008 333 11169 91104;","","","","","","","","","",""
"01016099999","2010-11-08T20:00:00","78.9333333","28.9","20.0","KONGSOYA, NO","FM-12","4","","","-3","","","0.00","4","","","29.60","29.55","","","280","","4","","","","","","","","","","","","","","","","","","","","","","","","","","","","","","","","","","","","","","","","","","","","","","","","","","","","","","","","","","","","","","","","","","","","","","","","","","","","","","","","","","","","","","","","","","","SYN060AAXX  08191 01016 46/// /2802 11192 2//// 30007 40023 54008;","","","","","","","","","",""
"01016099999","2010-11-08T21:00:00","78.9333333","28.9","20.0","KONGSOYA, NO","FM-12","4","","","-3","","","0.00","4","","","29.60","29.55","","","310","","4","","","","","","","","","","","","","","","","","","","","","","","","","","","","","","","","","","","","","","","","","","","","","","","","","","","","","","","","","","","","","","","","","","","","","","","","","","","","","","","","","","","","","","","","","","","SYN060AAXX  08201 01016 46/// /3102 11193 2//// 30008 40025 54008;","","","","","","","","","",""
"01016099999","2010-11-08T22:00:00","78.9333333","28.9","20.0","KONGSOYA, NO","FM-12","4","","","-4","","","0.00","4","","","29.60","29.55","","","310","","9","","","","","","","","","","","","","","","","","","","","","","","","","","","","","","","","","","","","","","","","","","","","","","","","","","","","","","","","","","","","","","","","","","","","","","","","","","","","","","","","","","","","","","","","","","","SYN060AAXX  08211 01016 46/// /3104 11199 2//// 30007 40024 54006;","","","","","","","","","",""
"01016099999","2010-11-08T23:00:00","78.9333333","28.9","20.0","KONGSOYA, NO","FM-12","4","","","-3","","","0.00","4","","","29.60","29.55","","","300","","7","","","","","","","","","","","","","","","","","","","","","","","","","","","","","","","","","","","","","","","","","","","","","","","","","","","","","","","","","","","","","","","","","","","","","","","","","","","","","","","","","","","","","","","","","","","SYN060AAXX  08221 01016 46/// /3003 11194 2//// 30007 40024 54006;","","","","","","","","","",""
"01016099999","2010-11-09T00:00:00","78.9333333","28.9","20.0","KONGSOYA, NO","FM-12","4","","","-3","","","0.00","4","","","29.60","29.55","","","300","","9","","","","","","","","","","","","","","","","","","","","","","","","","","","","","","","","","","","","","","","","","","","","","","","","","","","","","","","","","","","","","","","","","","","","","","","","","","","","","","","","","","","","","","","","","","","SYN060AAXX  08231 01016 46/// /3004 11192 2//// 30006 40023 54003;","","","","","","","","","",""
"01016099999","2010-11-09T01:00:00","78.9333333","28.9","20.0","KONGSOYA, NO","FM-12","4","","","-2","","","0.00","4","","","29.60","29.55","","","290","","11","","","","","","","","","","","","","","","","","","","","","","","","","","","","","","","","","","","","","","","","","","","","","","","","","","","","","","","","","","","","","","","","","","","","","","","","","","","","","","","","","","","","","","","","","","","SYN070AAXX  09001 01016 46/// /2905 11190 2//// 30007 40023 54004 333 91106;","","","","","","","","","",""
"01016099999","2010-11-09T02:00:00","78.9333333","28.9","20.0","KONGSOYA, NO","FM-12","4","","","-3","","","0.00","4","","","29.60","29.55","","","290","","13","","","","","","","","","","","","","","","","","","","","","","","","","","","","","","","","","","","","","","","","","","","","","","","","","","","","","","","","","","","","","","","","","","","","","","","","","","","","","","","","","","","","","","","","","","","SYN060AAXX  09011 01016 46/// /2906 11195 2//// 30006 40023 54004;","","","","","","","","","",""
"01016099999","2010-11-09T03:00:00","78.9333333","28.9","20.0","KONGSOYA, NO","FM-12","4","","","-3","","","0.00","4","","","29.60","29.55","","","280","","13","","","","","","","","","","","","","","","","","","","","","","","","","","","","","","","","","","","","","","","","","","","","","","","","","","","","","","","","","","","","","","","","","","","","","","","","","","","","","","","","","","","","","","","","","","","SYN060AAXX  09021 01016 46/// /2806 11193 2//// 30006 40023 54005;","","","","","","","","","",""
"01016099999","2010-11-09T04:00:00","78.9333333","28.9","20.0","KONGSOYA, NO","FM-12","4","","","-3","","","0.00","4","","","29.60","29.55","","","300","","11","","","","","","","","","","","","","","","","","","","","","","","","","","","","","","","","","","","","","","","","","","","","","","","","","","","","","","","","","","","","","","","","","","","","","","","","","","","","","","","","","","","","","","","","","","","SYN060AAXX  09031 01016 46/// /3005 11197 2//// 30006 40023 54005;","","","","","","","","","",""
"01016099999","2010-11-09T05:00:00","78.9333333","28.9","20.0","KONGSOYA, NO","FM-12","4","","","-1","","","0.00","4","","","29.59","29.54","","","280","","11","","","","","","","","","","","","","","","","","","","","","","","","","","","","","","","","","","","","","","","","","","","","","","","","","","","","","","","","","","","","","","","","","","","","","","","","","","","","","","","","","","","","","","","","","","","SYN060AAXX  09041 01016 46/// /2805 11185 2//// 30005 40022 54004;","","","","","","","","","",""
"01016099999","2010-11-09T06:00:00","78.9333333","28.9","20.0","KONGSOYA, NO","FM-12","4","","","-2","","","0.00","4","","","29.59","29.54","","","270","","11","","","","","","","","","","","","","","","","","","","","","","","","","","","","","","","","","","","","","","","","","","","","","","","","","","","","","","","","","","","","","","","","","","","","","","","","","","","","","","","","","","","","","","","","","","","SYN060AAXX  09051 01016 46/// /2705 11188 2//// 30005 40022 54004;","","","","","","","","","",""
"01016099999","2010-11-09T07:00:00","78.9333333","28.9","20.0","KONGSOYA, NO","FM-12","4","","","-5","","","0.00","4","","","29.59","29.54","","","290","","9","","","","","","","","","","","","","","","","","","","","","","","","","","","","","","","","","","","","","","","","","","","","","","","","","","","","","","","","","","","","","","","","","","","","","","","","","","","","","","","","","","","","","","","","","","","SYN076AAXX  09061 01016 46/// /2904 11203 2//// 30004 40021 54003 333 21208 91107;","","","","","","","","","",""
"01016099999","2010-11-09T08:00:00","78.9333333","28.9","20.0","KONGSOYA, NO","FM-12","4","","","-1","","","0.00","4","","","29.59","29.54","","","280","","13","","","","","","","","","","","","","","","","","","","","","","","","","","","","","","","","","","","","","","","","","","","","","","","","","","","","","","","","","","","","","","","","","","","","","","","","","","","","","","","","","","","","","","","","","","","SYN060AAXX  09071 01016 46/// /2806 11185 2//// 30005 40021 54005;","","","","","","","","","",""
"01016099999","2010-11-09T09:00:00","78.9333333","28.9","20.0","KONGSOYA, NO","FM-12","4","","","-1","","","0.00","4","","","29.59","29.54","","","270","","13","","","","","","","","","","","","","","","","","","","","","","","","","","","","","","","","","","","","","","","","","","","","","","","","","","","","","","","","","","","","","","","","","","","","","","","","","","","","","","","","","","","","","","","","","","","SYN060AAXX  09081 01016 46/// /2706 11184 2//// 30005 40022 54005;","","","","","","","","","",""
"01016099999","2010-11-09T10:00:00","78.9333333","28.9","20.0","KONGSOYA, NO","FM-12","4","","","1","","","0.00","4","","","29.59","29.54","","","280","","16","","","","","","","","","","","","","","","","","","","","","","","","","","","","","","","","","","","","","","","","","","","","","","","","","","","","","","","","","","","","","","","","","","","","","","","","","","","","","","","","","","","","","","","","","","","SYN060AAXX  09091 01016 46/// /2807 11173 2//// 30005 40021 54006;","","","","","","","","","",""
"01016099999","2010-11-09T11:00:00","78.9333333","28.9","20.0","KONGSOYA, NO","FM-12","4","","","4","","","0.00","4","","","29.59","29.54","","","260","","16","","","","","","","","","","","","","","","","","","","","","","","","","","","","","","","","","","","","","","","","","","","","","","","","","","","","","","","","","","","","","","","","","","","","","","","","","","","","","","","","","","","","","","","","","","","SYN060AAXX  09101 01016 46/// /2607 11156 2//// 30005 40021 54005;","","","","","","","","","",""
"01016099999","2010-11-09T12:00:00","78.9333333","28.9","20.0","KONGSOYA, NO","FM-12","4","","","5","","","0.00","4","","","29.59","29.54","","","260","","16","","","","","","","","","","","","","","","","","","","","","","","","","","","","","","","","","","","","","","","","","","","","","","","","","","","","","","","","","","","","","","","","","","","","","","","","","","","","","","","","","","","","","","","","","","","SYN060AAXX  09111 01016 46/// /2607 11152 2//// 30003 40019 54003;","","","","","","","","","",""
"01016099999","2010-11-09T13:00:00","78.9333333","28.9","20.0","KONGSOYA, NO","FM-12","4","","","5","","","+0.00","7","","","29.58","29.53","","","260","","16","","","","","","","","","","","","","","","","","","","","","","","","","","","","","","","","","","","","","","","","","","","","","","","","","","","","","","","","","","","","","","","","","","","","","","","","","","","","","","","","","","","","","","","","","","","SYN070AAXX  09121 01016 46/// /2607 11148 2//// 30001 40017 57001 333 91108;","","","","","","","","","",""
"01016099999","2010-11-09T14:00:00","78.9333333","28.9","20.0","KONGSOYA, NO","FM-12","4","","","6","","","+0.01","7","","","29.57","29.52","","","250","","18","","","","","","","","","","","","","","","","","","","","","","","","","","","","","","","","","","","","","","","","","","","","","","","","","","","","","","","","","","","","","","","","","","","","","","","","","","","","","","","","","","","","","","","","","","","SYN060AAXX  09131 01016 46/// /2508 11142 2//// 39997 40013 57003;","","","","","","","","","",""
"01016099999","2010-11-09T15:00:00","78.9333333","28.9","20.0","KONGSOYA, NO","FM-12","4","","","8","","","+0.00","7","","","29.57","29.52","","","250","","18","","","","","","","","","","","","","","","","","","","","","","","","","","","","","","","","","","","","","","","","","","","","","","","","","","","","","","","","","","","","","","","","","","","","","","","","","","","","","","","","","","","","","","","","","","","SYN060AAXX  09141 01016 46/// /2508 11136 2//// 39997 40013 57001;","","","","","","","","","",""
"01016099999","2010-11-09T16:00:00","78.9333333","28.9","20.0","KONGSOYA, NO","FM-12","4","","","9","","","+0.00","7","","","29.56","29.52","","","250","","20","","","","","","","","","","","","","","","","","","","","","","","","","","","","","","","","","","","","","","","","","","","","","","","","","","","","","","","","","","","","","","","","","","","","","","","","","","","","","","","","","","","","","","","","","","","SYN060AAXX  09151 01016 46/// /2509 11129 2//// 39995 40011 57001;","","","","","","","","","",""
"01016099999","2010-11-09T17:00:00","78.9333333","28.9","20.0","KONGSOYA, NO","FM-12","4","","","9","","","0.00","4","","","29.57","29.52","","","250","","22","","","","","","","","","","","","","","","","","","","","","","","","","","","","","","","","","","","","","","","","","","","","","","","","","","","","","","","","","","","","","","","","","","","","","","","","","","","","","","","","","","","","","","","","","","","SYN060AAXX  09161 01016 46/// /2510 11126 2//// 39997 40013 54005;","","","","","","","","","",""
"01016099999","2010-11-09T18:00:00","78.9333333","28.9","20.0","KONGSOYA, NO","FM-12","4","","","10","","","-0.02","0","","","29.57","29.53","","","260","","20","","","","","","","","","","","","","","","","","","","","","","","","","","","","","","","","","","","","","","","","","","","","","","","","","","","","","","","","","","","","","","","","","","","","","","","","","","","","","","","","","","","","","","","","","","","SYN060AAXX  09171 01016 46/// /2609 11122 2//// 39999 40015 50007;","","","","","","","","","",""
"01016099999","2010-11-09T19:00:00","78.9333333","28.9","20.0","KONGSOYA, NO","FM-12","4","","","10","","","-0.03","2","","","29.58","29.53","","","270","","25","","","","","","","","","","","","","","","","","","","","","","","","","","","","","","","","","","","","","","","","","","","","","","","","","","","","","","","","","","","","","","","","","","","","","","","","","","","","","","","","","","","","","","","","","","","SYN076AAXX  09181 01016 46/// /2711 11123 2//// 30000 40016 52010 333 11122 91112;","","","","","","","","","",""
"01016099999","2010-11-09T20:00:00","78.9333333","28.9","20.0","KONGSOYA, NO","FM-12","4","","","9","","","-0.04","2","","","29.59","29.54","","","270","","25","","","","","","","","","","","","","","","","","","","","","","","","","","","","","","","","","","","","","","","","","","","","","","","","","","","","","","","","","","","","","","","","","","","","","","","","","","","","","","","","","","","","","","","","","","","SYN060AAXX  09191 01016 46/// /2711 11129 2//// 30004 40020 52012;","","","","","","","","","",""
"01016099999","2010-11-09T21:00:00","78.9333333","28.9","20.0","KONGSOYA, NO","FM-12","4","","","8","","","-0.04","2","","","29.60","29.55","","","280","","22","","","","","","","","","","","","","","","","","","","","","","","","","","","","","","","","","","","","","","","","","","","","","","","","","","","","","","","","","","","","","","","","","","","","","","","","","","","","","","","","","","","","","","","","","","","SYN060AAXX  09201 01016 46/// /2810 11132 2//// 30007 40024 52014;","","","","","","","","","",""
"01016099999","2010-11-09T22:00:00","78.9333333","28.9","20.0","KONGSOYA, NO","FM-12","4","","","8","","","-0.05","2","","","29.61","29.57","","","280","","18","","","","","","","","","","","","","","","","","","","","","","","","","","","","","","","","","","","","","","","","","","","","","","","","","","","","","","","","","","","","","","","","","","","","","","","","","","","","","","","","","","","","","","","","","","","SYN060AAXX  09211 01016 46/// /2808 11133 2//// 30012 40028 52017;","","","","","","","","","",""
"01016099999","2010-11-09T23:00:00","78.9333333","28.9","20.0","KONGSOYA, NO","FM-12","4","","","8","","","-0.06","2","","","29.63","29.58","","","290","","16","","","","","","","","","","","","","","","","","","","","","","","","","","","","","","","","","","","","","","","","","","","","","","","","","","","","","","","","","","","","","","","","","","","","","","","","","","","","","","","","","","","","","","","","","","","SYN060AAXX  09221 01016 46/// /2907 11131 2//// 30017 40034 52019;","","","","","","","","","",""
"01016099999","2010-11-10T00:00:00","78.9333333","28.9","20.0","KONGSOYA, NO","FM-12","4","","","8","","","-0.05","2","","","29.64","29.59","","","290","","25","","","","","","","","","","","","","","","","","","","","","","","","","","","","","","","","","","","","","","","","","","","","","","","","","","","","","","","","","","","","","","","","","","","","","","","","","","","","","","","","","","","","","","","","","","","SYN060AAXX  09231 01016 46/// /2911 11132 2//// 30020 40036 52018;","","","","","","","","","",""
"01016099999","2010-11-10T01:00:00","78.9333333","28.9","20.0","KONGSOYA, NO","FM-12","4","","","8","","","-0.05","2","","","29.65","29.60","","","290","","25","","","","","","","","","","","","","","","","","","","","","","","","","","","","","","","","","","","","","","","","","","","","","","","","","","","","","","","","","","","","","","","","","","","","","","","","","","","","","","","","","","","","","","","","","","","SYN070AAXX  10001 01016 46/// /2911 11131 2//// 30025 40041 52018 333 91113;","","","","","","","","","",""
"01016099999","2010-11-10T02:00:00","78.9333333","28.9","20.0","KONGSOYA, NO","FM-12","4","","","8","","","-0.05","2","","","29.67","29.62","","","290","","27","","","","","","","","","","","","","","","","","","","","","","","","","","","","","","","","","","","","","","","","","","","","","","","","","","","","","","","","","","","","","","","","","","","","","","","","","","","","","","","","","","","","","","","","","","","SYN060AAXX  10011 01016 46/// /2912 11131 2//// 30029 40046 52017;","","","","","","","","","",""
"01016099999","2010-11-10T03:00:00","78.9333333","28.9","20.0","KONGSOYA, NO","FM-12","4","","","9","","","-0.06","2","","","29.68","29.64","","","290","","25","","","","","","","","","","","","","","","","","","","","","","","","","","","","","","","","","","","","","","","","","","","","","","","","","","","","","","","","","","","","","","","","","","","","","","","","","","","","","","","","","","","","","","","","","","","SYN060AAXX  10021 01016 46/// /2911 11130 2//// 30036 40052 52021;","","","","","","","","","",""
"01016099999","2010-11-10T04:00:00","78.9333333","28.9","20.0","KONGSOYA, NO","FM-12","4","","","9","","","-0.07","1","","","29.71","29.66","","","290","","20","","","","","","","","","","","","","","","","","","","","","","","","","","","","","","","","","","","","","","","","","","","","","","","","","","","","","","","","","","","","","","","","","","","","","","","","","","","","","","","","","","","","","","","","","","","SYN060AAXX  10031 01016 46/// /2909 11128 2//// 30044 40060 51024;","","","","","","","","","",""
"01016099999","2010-11-10T05:00:00","78.9333333","28.9","20.0","KONGSOYA, NO","FM-12","4","","","8","","","-0.07","2","","","29.72","29.67","","","290","","25","","","","","","","","","","","","","","","","","","","","","","","","","","","","","","","","","","","","","","","","","","","","","","","","","","","","","","","","","","","","","","","","","","","","","","","","","","","","","","","","","","","","","","","","","","","SYN060AAXX  10041 01016 46/// /2911 11133 2//// 30048 40065 52024;","","","","","","","","","",""
"01016099999","2010-11-10T06:00:00","78.9333333","28.9","20.0","KONGSOYA, NO","FM-12","4","","","8","","","-0.08","2","","","29.75","29.70","","","290","","20","","","","","","","","","","","","","","","","","","","","","","","","","","","","","","","","","","","","","","","","","","","","","","","","","","","","","","","","","","","","","","","","","","","","","","","","","","","","","","","","","","","","","","","","","","","SYN060AAXX  10051 01016 46/// /2909 11131 2//// 30058 40074 52027;","","","","","","","","","",""
"01016099999","2010-11-10T07:00:00","78.9333333","28.9","20.0","KONGSOYA, NO","FM-12","4","","","9","","","-0.08","2","","","29.77","29.72","","","290","","13","","","","","","","","","","","","","","","","","","","","","","","","","","","","","","","","","","","","","","","","","","","","","","","","","","","","","","","","","","","","","","","","","","","","","","","","","","","","","","","","","","","","","","","","","","","SYN076AAXX  10061 01016 46/// /2906 11130 2//// 30065 40082 52026 333 21134 91115;","","","","","","","","","",""
"01016099999","2010-11-10T08:00:00","78.9333333","28.9","20.0","KONGSOYA, NO","FM-12","4","","","9","","","-0.08","3","","","29.78","29.74","","","290","","25","","","","","","","","","","","","","","","","","","","","","","","","","","","","","","","","","","","","","","","","","","","","","","","","","","","","","","","","","","","","","","","","","","","","","","","","","","","","","","","","","","","","","","","","","","","SYN060AAXX  10071 01016 46/// /2911 11127 2//// 30070 40086 53026;","","","","","","","","","",""
"01016099999","2010-11-10T09:00:00","78.9333333","28.9","20.0","KONGSOYA, NO","FM-12","4","","","9","","","-0.08","1","","","29.82","29.77","","","300","","20","","","","","","","","","","","","","","","","","","","","","","","","","","","","","","","","","","","","","","","","","","","","","","","","","","","","","","","","","","","","","","","","","","","","","","","","","","","","","","","","","","","","","","","","","","","SYN060AAXX  10081 01016 46/// /3009 11129 2//// 30081 40097 51028;","","","","","","","","","",""
"01016099999","2010-11-10T10:00:00","78.9333333","28.9","20.0","KONGSOYA, NO","FM-12","4","","","9","","","-0.08","2","","","29.84","29.79","","","290","","20","","","","","","","","","","","","","","","","","","","","","","","","","","","","","","","","","","","","","","","","","","","","","","","","","","","","","","","","","","","","","","","","","","","","","","","","","","","","","","","","","","","","","","","","","","","SYN060AAXX  10091 01016 46/// /2909 11126 2//// 30087 40104 52027;","","","","","","","","","",""
"01016099999","2010-11-10T11:00:00","78.9333333","28.9","20.0","KONGSOYA, NO","FM-12","4","","","9","","","-0.09","3","","","29.86","29.81","","","290","","18","","","","","","","","","","","","","","","","","","","","","","","","","","","","","","","","","","","","","","","","","","","","","","","","","","","","","","","","","","","","","","","","","","","","","","","","","","","","","","","","","","","","","","","","","","","SYN060AAXX  10101 01016 46/// /2908 11127 2//// 30095 40112 53031;","","","","","","","","","",""
"01016099999","2010-11-10T12:00:00","78.9333333","28.9","20.0","KONGSOYA, NO","FM-12","4","","","9","","","-0.07","2","","","29.87","29.83","","","280","","13","","","","","","","","","","","","","","","","","","","","","","","","","","","","","","","","","","","","","","","","","","","","","","","","","","","","","","","","","","","","","","","","","","","","","","","","","","","","","","","","","","","","","","","","","","","SYN060AAXX  10111 01016 46/// /2806 11127 2//// 30100 40116 52024;","","","","","","","","","",""
"01016099999","2010-11-10T13:00:00","78.9333333","28.9","20.0","KONGSOYA, NO","FM-12","4","","","9","","","-0.06","3","","","29.88","29.84","","","290","","11","","","","","","","","","","","","","","","","","","","","","","","","","","","","","","","","","","","","","","","","","","","","","","","","","","","","","","","","","","","","","","","","","","","","","","","","","","","","","","","","","","","","","","","","","","","SYN070AAXX  10121 01016 46/// /2905 11130 2//// 30104 40120 53022 333 91113;","","","","","","","","","",""
"01016099999","2010-11-10T14:00:00","78.9333333","28.9","20.0","KONGSOYA, NO","FM-12","4","","","7","","","-0.06","2","","","29.90","29.85","","","290","","11","","","","","","","","","","","","","","","","","","","","","","","","","","","","","","","","","","","","","","","","","","","","","","","","","","","","","","","","","","","","","","","","","","","","","","","","","","","","","","","","","","","","","","","","","","","SYN060AAXX  10131 01016 46/// /2905 11140 2//// 30109 40126 52019;","","","","","","","","","",""
"01016099999","2010-11-10T15:00:00","78.9333333","28.9","20.0","KONGSOYA, NO","FM-12","4","","","9","","","-0.06","2","","","29.92","29.87","","","250","","7","","","","","","","","","","","","","","","","","","","","","","","","","","","","","","","","","","","","","","","","","","","","","","","","","","","","","","","","","","","","","","","","","","","","","","","","","","","","","","","","","","","","","","","","","","","SYN060AAXX  10141 01016 46/// /2503 11128 2//// 30115 40132 52021;","","","","","","","","","",""
"01016099999","2010-11-10T16:00:00","78.9333333","28.9","20.0","KONGSOYA, NO","FM-12","4","","","3","","","-0.06","2","","","29.93","29.89","","","330","","7","","","","","","","","","","","","","","","","","","","","","","","","","","","","","","","","","","","","","","","","","","","","","","","","","","","","","","","","","","","","","","","","","","","","","","","","","","","","","","","","","","","","","","","","","","","SYN060AAXX  10151 01016 46/// /3303 11161 2//// 30121 40137 52022;","","","","","","","","","",""
"01016099999","2010-11-10T17:00:00","78.9333333","28.9","20.0","KONGSOYA, NO","FM-12","4","","","7","","","-0.07","2","","","29.96","29.91","","","080","","4","","","","","","","","","","","","","","","","","","","","","","","","","","","","","","","","","","","","","","","","","","","","","","","","","","","","","","","","","","","","","","","","","","","","","","","","","","","","","","","","","","","","","","","","","","","SYN060AAXX  10161 01016 46/// /0802 11138 2//// 30128 40144 52023;","","","","","","","","","",""
"01016099999","2010-11-10T18:00:00","78.9333333","28.9","20.0","KONGSOYA, NO","FM-12","4","","","8","","","-0.06","2","","","29.97","29.92","","","070","","4","","","","","","","","","","","","","","","","","","","","","","","","","","","","","","","","","","","","","","","","","","","","","","","","","","","","","","","","","","","","","","","","","","","","","","","","","","","","","","","","","","","","","","","","","","","SYN060AAXX  10171 01016 46/// /0702 11132 2//// 30133 40149 52022;","","","","","","","","","",""
"01016099999","2010-11-10T19:00:00","78.9333333","28.9","20.0","KONGSOYA, NO","FM-12","4","","","8","","","-0.06","3","","","29.98","29.93","","","060","","2","","","","","","","","","","","","","","","","","","","","","","","","","","","","","","","","","","","","","","","","","","","","","","","","","","","","","","","","","","","","","","","","","","","","","","","","","","","","","","","","","","","","","","","","","","","SYN076AAXX  10181 01016 46/// /0601 11131 2//// 30135 40152 53020 333 11123 91106;","","","","","","","","","",""
"01016099999","2010-11-10T20:00:00","78.9333333","28.9","20.0","KONGSOYA, NO","FM-12","4","","","7","","","-0.05","2","","","29.99","29.94","","","000","","0","","","","","","","","","","","","","","","","","","","","","","","","","","","","","","","","","","","","","","","","","","","","","","","","","","","","","","","","","","","","","","","","","","","","","","","","","","","","","","","","","","","","","","","","","","","SYN060AAXX  10191 01016 46/// /0000 11139 2//// 30140 40157 52018;","","","","","","","","","",""
"01016099999","2010-11-10T21:00:00","78.9333333","28.9","20.0","KONGSOYA, NO","FM-12","4","","","7","","","-0.05","2","","","30.00","29.95","","","000","","0","","","","","","","","","","","","","","","","","","","","","","","","","","","","","","","","","","","","","","","","","","","","","","","","","","","","","","","","","","","","","","","","","","","","","","","","","","","","","","","","","","","","","","","","","","","SYN060AAXX  10201 01016 46/// /0000 11140 2//// 30143 40160 52016;","","","","","","","","","",""
"01016099999","2010-11-10T22:00:00","78.9333333","28.9","20.0","KONGSOYA, NO","FM-12","4","","","5","","","-0.04","2","","","30.01","29.96","","","100","","2","","","","","","","","","","","","","","","","","","","","","","","","","","","","","","","","","","","","","","","","","","","","","","","","","","","","","","","","","","","","","","","","","","","","","","","","","","","","","","","","","","","","","","","","","","","SYN060AAXX  10211 01016 46/// /1001 11149 2//// 30146 40162 52015;","","","","","","","","","",""
"01016099999","2010-11-10T23:00:00","78.9333333","28.9","20.0","KONGSOYA, NO","FM-12","4","","","8","","","-0.03","2","","","30.01","29.96","","","050","","2","","","","","","","","","","","","","","","","","","","","","","","","","","","","","","","","","","","","","","","","","","","","","","","","","","","","","","","","","","","","","","","","","","","","","","","","","","","","","","","","","","","","","","","","","","","SYN060AAXX  10221 01016 46/// /0501 11136 2//// 30146 40162 52011;","","","","","","","","","",""
"01016099999","2010-11-11T00:00:00","78.9333333","28.9","20.0","KONGSOYA, NO","FM-12","4","","","9","","","+0.02","5","","","30.01","29.96","","","060","","7","","","","","","","","","","","","","","","","","","","","","","","","","","","","","","","","","","","","","","","","","","","","","","","","","","","","","","","","","","","","","","","","","","","","","","","","","","","","","","","","","","","","","","","","","","","SYN060AAXX  10231 01016 46/// /0603 11127 2//// 30145 40161 55007;","","","","","","","","","",""
"01016099999","2010-11-11T01:00:00","78.9333333","28.9","20.0","KONGSOYA, NO","FM-12","4","","","6","","","+0.01","7","","","30.00","29.95","","","110","","13","","","","","","","","","","","","","","","","","","","","","","","","","","","","","","","","","","","","","","","","","","","","","","","","","","","","","","","","","","","","","","","","","","","","","","","","","","","","","","","","","","","","","","","","","","","SYN070AAXX  11001 01016 46/// /1106 11146 2//// 30142 40159 57002 333 91106;","","","","","","","","","",""
"01016099999","2010-11-11T02:00:00","78.9333333","28.9","20.0","KONGSOYA, NO","FM-12","4","","","6","","","+0.00","7","","","29.99","29.94","","","100","","13","","","","","","","","","","","","","","","","","","","","","","","","","","","","","","","","","","","","","","","","","","","","","","","","","","","","","","","","","","","","","","","","","","","","","","","","","","","","","","","","","","","","","","","","","","","SYN060AAXX  11011 01016 46/// /1006 11143 2//// 30139 40156 57001;","","","","","","","","","",""
"01016099999","2010-11-11T03:00:00","78.9333333","28.9","20.0","KONGSOYA, NO","FM-12","4","","","5","","","+0.00","7","","","29.99","29.94","","","090","","11","","","","","","","","","","","","","","","","","","","","","","","","","","","","","","","","","","","","","","","","","","","","","","","","","","","","","","","","","","","","","","","","","","","","","","","","","","","","","","","","","","","","","","","","","","","SYN060AAXX  11021 01016 46/// /0905 11149 2//// 30139 40155 57001;","","","","","","","","","",""
"01016099999","2010-11-11T04:00:00","78.9333333","28.9","20.0","KONGSOYA, NO","FM-12","4","","","8","","","+0.00","7","","","29.98","29.93","","","090","","13","","","","","","","","","","","","","","","","","","","","","","","","","","","","","","","","","","","","","","","","","","","","","","","","","","","","","","","","","","","","","","","","","","","","","","","","","","","","","","","","","","","","","","","","","","","SYN060AAXX  11031 01016 46/// /0906 11133 2//// 30136 40153 57001;","","","","","","","","","",""
"01016099999","2010-11-11T05:00:00","78.9333333","28.9","20.0","KONGSOYA, NO","FM-12","4","","","10","","","+0.01","6","","","29.97","29.92","","","080","","11","","","","","","","","","","","","","","","","","","","","","","","","","","","","","","","","","","","","","","","","","","","","","","","","","","","","","","","","","","","","","","","","","","","","","","","","","","","","","","","","","","","","","","","","","","","SYN060AAXX  11041 01016 46/// /0805 11124 2//// 30132 40149 56002;","","","","","","","","","",""
"01016099999","2010-11-11T06:00:00","78.9333333","28.9","20.0","KONGSOYA, NO","FM-12","4","","","11","","","+0.02","7","","","29.95","29.91","","","080","","16","","","","","","","","","","","","","","","","","","","","","","","","","","","","","","","","","","","","","","","","","","","","","","","","","","","","","","","","","","","","","","","","","","","","","","","","","","","","","","","","","","","","","","","","","","","SYN060AAXX  11051 01016 46/// /0807 11114 2//// 30127 40143 57007;","","","","","","","","","",""
"01016099999","2010-11-11T07:00:00","78.9333333","28.9","20.0","KONGSOYA, NO","FM-12","4","","","13","","","+0.04","6","","","29.93","29.88","","","090","","16","","","","","","","","","","","","","","","","","","","","","","","","","","","","","","","","","","","","","","","","","","","","","","","","","","","","","","","","","","","","","","","","","","","","","","","","","","","","","","","","","","","","","","","","","","","SYN076AAXX  11061 01016 46/// /0907 11104 2//// 30119 40135 56012 333 21159 91109;","","","","","","","","","",""
"01016099999","2010-11-11T08:00:00","78.9333333","28.9","20.0","KONGSOYA, NO","FM-12","4","","","15","","","+0.04","7","","","29.91","29.87","","","090","","16","","","","","","","","","","","","","","","","","","","","","","","","","","","","","","","","","","","","","","","","","","","","","","","","","","","","","","","","","","","","","","","","","","","","","","","","","","","","","","","","","","","","","","","","","","","SYN060AAXX  11071 01016 46/// /0907 11095 2//// 30114 40130 57013;","","","","","","","","","",""
"01016099999","2010-11-11T09:00:00","78.9333333","28.9","20.0","KONGSOYA, NO","FM-12","4","","","16","","","+0.04","7","","","29.90","29.85","","","090","","13","","","","","","","","","","","","","","","","","","","","","","","","","","","","","","","","","","","","","","","","","","","","","","","","","","","","","","","","","","","","","","","","","","","","","","","","","","","","","","","","","","","","","","","","","","","SYN060AAXX  11081 01016 46/// /0906 11089 2//// 30107 40124 57014;","","","","","","","","","",""
"01016099999","2010-11-11T10:00:00","78.9333333","28.9","20.0","KONGSOYA, NO","FM-12","4","","","17","","","+0.04","7","","","29.87","29.83","","","090","","16","","","","","","","","","","","","","","","","","","","","","","","","","","","","","","","","","","","","","","","","","","","","","","","","","","","","","","","","","","","","","","","","","","","","","","","","","","","","","","","","","","","","","","","","","","","SYN060AAXX  11091 01016 46/// /0907 11084 2//// 30100 40116 57014;","","","","","","","","","",""
"01016099999","2010-11-11T11:00:00","78.9333333","28.9","20.0","KONGSOYA, NO","FM-12","4","","","18","","","+0.05","7","","","29.85","29.80","","","090","","16","","","","","","","","","","","","","","","","","","","","","","","","","","","","","","","","","","","","","","","","","","","","","","","","","","","","","","","","","","","","","","","","","","","","","","","","","","","","","","","","","","","","","","","","","","","SYN060AAXX  11101 01016 46/// /0907 11077 2//// 30091 40107 57018;","","","","","","","","","",""
"01016099999","2010-11-11T12:00:00","78.9333333","28.9","20.0","KONGSOYA, NO","FM-12","4","","","19","","","+0.08","6","","","29.80","29.75","","","090","","18","","","","","","","","","","","","","","","","","","","","","","","","","","","","","","","","","","","","","","","","","","","","","","","","","","","","","","","","","","","","","","","","","","","","","","","","","","","","","","","","","","","","","","","","","","","SYN060AAXX  11111 01016 46/// /0908 11071 2//// 30075 40091 56027;","","","","","","","","","",""
"01016099999","2010-11-11T13:00:00","78.9333333","28.9","20.0","KONGSOYA, NO","FM-12","4","","","20","","","+0.11","6","","","29.75","29.70","","","090","","16","","","","","","","","","","","","","","","","","","","","","","","","","","","","","","","","","","","","","","","","","","","","","","","","","","","","","","","","","","","","","","","","","","","","","","","","","","","","","","","","","","","","","","","","","","","SYN070AAXX  11121 01016 46/// /0907 11064 2//// 30057 40073 56038 333 91110;","","","","","","","","","",""
"01016099999","2010-11-11T14:00:00","78.9333333","28.9","20.0","KONGSOYA, NO","FM-12","4","","","25","","","+0.13","7","","","29.70","29.65","","","110","","25","","","","","","","","","","","","","","","","","","","","","","","","","","","","","","","","","","","","","","","","","","","","","","","","","","","","","","","","","","","","","","","","","","","","","","","","","","","","","","","","","","","","","","","","","","","SYN060AAXX  11131 01016 46/// /1111 11039 2//// 30042 40058 57044;","","","","","","","","","",""
"01016099999","2010-11-11T15:00:00","78.9333333","28.9","20.0","KONGSOYA, NO","FM-12","4","","","28","","","+0.13","7","","","29.65","29.60","","","160","","36","","","","","","","","","","","","","","","","","","","","","","","","","","","","","","","","","","","","","","","","","","","","","","","","","","","","","","","","","","","","","","","","","","","","","","","","","","","","","","","","","","","","","","","","","","","SYN060AAXX  11141 01016 46/// /1616 11023 2//// 30025 40041 57045;","","","","","","","","","",""
"01016099999","2010-11-11T16:00:00","78.9333333","28.9","20.0","KONGSOYA, NO","FM-12","4","","","29","","","+0.12","7","","","29.62","29.57","","","160","","40","","","","","","","","","","","","","","","","","","","","","","","","","","","","","","","","","","","","","","","","","","","","","","","","","","","","","","","","","","","","","","","","","","","","","","","","","","","","","","","","","","","","","","","","","","","SYN060AAXX  11151 01016 46/// /1618 11019 2//// 30013 40029 57039;","","","","","","","","","",""
"01016099999","2010-11-11T17:00:00","78.9333333","28.9","20.0","KONGSOYA, NO","FM-12","4","","","29","","","+0.09","8","","","29.59","29.55","","","160","","43","","","","","","","","","","","","","","","","","","","","","","","","","","","","","","","","","","","","","","","","","","","","","","","","","","","","","","","","","","","","","","","","","","","","","","","","","","","","","","","","","","","","","","","","","","","SYN060AAXX  11161 01016 46/// /1619 11017 2//// 30006 40022 58031;","","","","","","","","","",""
"01016099999","2010-11-11T18:00:00","78.9333333","28.9","20.0","KONGSOYA, NO","FM-12","4","","","29","","","+0.06","8","","","29.58","29.53","","","160","","43","","","","","","","","","","","","","","","","","","","","","","","","","","","","","","","","","","","","","","","","","","","","","","","","","","","","","","","","","","","","","","","","","","","","","","","","","","","","","","","","","","","","","","","","","","","SYN060AAXX  11171 01016 46/// /1619 11015 2//// 30000 40016 58020;","","","","","","","","","",""
"01016099999","2010-11-11T19:00:00","78.9333333","28.9","20.0","KONGSOYA, NO","FM-12","4","","","30","","","+0.03","8","","","29.57","29.53","","","170","","40","","","","","","","","","","","","","","","","","","","","","","","","","","","","","","","","","","","","","","","","","","","","","","","","","","","","","","","","","","","","","","","","","","","","","","","","","","","","","","","","","","","","","","","","","","","SYN076AAXX  11181 01016 46/// /1718 11012 2//// 39999 40015 58009 333 11011 91124;","","","","","","","","","",""
"01016099999","2010-11-11T20:00:00","78.9333333","28.9","20.0","KONGSOYA, NO","FM-12","4","","","29","","","+0.01","8","","","29.57","29.52","","","170","","45","","","","","","","","","","","","","","","","","","","","","","","","","","","","","","","","","","","","","","","","","","","","","","","","","","","","","","","","","","","","","","","","","","","","","","","","","","","","","","","","","","","","","","","","","","","SYN060AAXX  11191 01016 46/// /1720 11017 2//// 39996 40012 58005;","","","","","","","","","",""
"01016099999","2010-11-11T21:00:00","78.9333333","28.9","20.0","KONGSOYA, NO","FM-12","4","","","29","","","-0.01","0","","","29.57","29.53","","","180","","43","","","","","","","","","","","","","","","","","","","","","","","","","","","","","","","","","","","","","","","","","","","","","","","","","","","","","","","","","","","","","","","","","","","","","","","","","","","","","","","","","","","","","","","","","","","SYN060AAXX  11201 01016 46/// /1819 11017 2//// 39999 40014 50004;","","","","","","","","","",""
"01016099999","2010-11-11T23:00:00","78.9333333","28.9","20.0","KONGSOYA, NO","FM-12","4","","","24","","","-0.11","1","","","29.66","29.61","","","230","","9","","","","","","","","","","","","","","","","","","","","","","","","","","","","","","","","","","","","","","","","","","","","","","","","","","","","","","","","","","","","","","","","","","","","","","","","","","","","","","","","","","","","","","","","","","","SYN060AAXX  11221 01016 46/// /2304 11042 2//// 30028 40044 51037;","","","","","","","","","",""
"01016099999","2010-11-12T00:00:00","78.9333333","28.9","20.0","KONGSOYA, NO","FM-12","4","","","23","","","-0.13","3","","","29.69","29.65","","","270","","7","","","","","","","","","","","","","","","","","","","","","","","","","","","","","","","","","","","","","","","","","","","","","","","","","","","","","","","","","","","","","","","","","","","","","","","","","","","","","","","","","","","","","","","","","","","SYN060AAXX  11231 01016 46/// /2703 11050 2//// 30039 40055 53045;","","","","","","","","","",""
"01016099999","2010-11-12T01:00:00","78.9333333","28.9","20.0","KONGSOYA, NO","FM-12","4","","","16","","","-0.12","2","","","29.73","29.68","","","010","","25","","","","","","","","","","","","","","","","","","","","","","","","","","","","","","","","","","","","","","","","","","","","","","","","","","","","","","","","","","","","","","","","","","","","","","","","","","","","","","","","","","","","","","","","","","","SYN060AAXX  12001 01016 46/// /0111 11087 2//// 30051 40067 52041;","","","","","","","","","",""
"01016099999","2010-11-12T02:00:00","78.9333333","28.9","20.0","KONGSOYA, NO","FM-12","4","","","15","","","-0.11","3","","","29.75","29.70","","","010","","27","","","","","","","","","","","","","","","","","","","","","","","","","","","","","","","","","","","","","","","","","","","","","","","","","","","","","","","","","","","","","","","","","","","","","","","","","","","","","","","","","","","","","","","","","","","SYN060AAXX  12011 01016 46/// /0112 11097 2//// 30059 40075 53036;","","","","","","","","","",""
"01016099999","2010-11-12T03:00:00","78.9333333","28.9","20.0","KONGSOYA, NO","FM-12","4","","","13","","","-0.09","3","","","29.77","29.72","","","020","","31","","","","","","","","","","","","","","","","","","","","","","","","","","","","","","","","","","","","","","","","","","","","","","","","","","","","","","","","","","","","","","","","","","","","","","","","","","","","","","","","","","","","","","","","","","","SYN060AAXX  12021 01016 46/// /0214 11108 2//// 30064 40080 53030;","","","","","","","","","",""
"01016099999","2010-11-12T04:00:00","78.9333333","28.9","20.0","KONGSOYA, NO","FM-12","4","","","12","","","-0.07","3","","","29.78","29.73","","","020","","29","","","","","","","","","","","","","","","","","","","","","","","","","","","","","","","","","","","","","","","","","","","","","","","","","","","","","","","","","","","","","","","","","","","","","","","","","","","","","","","","","","","","","","","","","","","SYN060AAXX  12031 01016 46/// /0213 11112 2//// 30068 40085 53023;","","","","","","","","","",""
"01016099999","2010-11-12T05:00:00","78.9333333","28.9","20.0","KONGSOYA, NO","FM-12","4","","","11","","","-0.05","2","","","29.79","29.74","","","020","","29","","","","","","","","","","","","","","","","","","","","","","","","","","","","","","","","","","","","","","","","","","","","","","","","","","","","","","","","","","","","","","","","","","","","","","","","","","","","","","","","","","","","","","","","","","","SYN060AAXX  12041 01016 46/// /0213 11116 2//// 30071 40087 52017;","","","","","","","","","",""
"01016099999","2010-11-12T06:00:00","78.9333333","28.9","20.0","KONGSOYA, NO","FM-12","4","","","10","","","-0.04","2","","","29.79","29.74","","","010","","31","","","","","","","","","","","","","","","","","","","","","","","","","","","","","","","","","","","","","","","","","","","","","","","","","","","","","","","","","","","","","","","","","","","","","","","","","","","","","","","","","","","","","","","","","","","SYN060AAXX  12051 01016 46/// /0114 11124 2//// 30072 40089 52013;","","","","","","","","","",""
"01016099999","2010-11-12T07:00:00","78.9333333","28.9","20.0","KONGSOYA, NO","FM-12","4","","","9","","","-0.04","1","","","29.81","29.76","","","010","","31","","","","","","","","","","","","","","","","","","","","","","","","","","","","","","","","","","","","","","","","","","","","","","","","","","","","","","","","","","","","","","","","","","","","","","","","","","","","","","","","","","","","","","","","","","","SYN070AAXX  12061 01016 46/// /0114 11126 2//// 30078 40094 51015 333 91116;","","","","","","","","","",""
"01016099999","2010-11-12T08:00:00","78.9333333","28.9","20.0","KONGSOYA, NO","FM-12","4","","","9","","","-0.04","2","","","29.82","29.77","","","010","","31","","","","","","","","","","","","","","","","","","","","","","","","","","","","","","","","","","","","","","","","","","","","","","","","","","","","","","","","","","","","","","","","","","","","","","","","","","","","","","","","","","","","","","","","","","","SYN060AAXX  12071 01016 46/// /0114 11130 2//// 30081 40098 52015;","","","","","","","","","",""
"01016099999","2010-11-12T09:00:00","78.9333333","28.9","20.0","KONGSOYA, NO","FM-12","4","","","8","","","-0.05","3","","","29.83","29.78","","","010","","31","","","","","","","","","","","","","","","","","","","","","","","","","","","","","","","","","","","","","","","","","","","","","","","","","","","","","","","","","","","","","","","","","","","","","","","","","","","","","","","","","","","","","","","","","","","SYN060AAXX  12081 01016 46/// /0114 11131 2//// 30084 40100 53017;","","","","","","","","","",""
"01016099999","2010-11-12T10:00:00","78.9333333","28.9","20.0","KONGSOYA, NO","FM-12","4","","","8","","","-0.04","2","","","29.84","29.79","","","010","","31","","","","","","","","","","","","","","","","","","","","","","","","","","","","","","","","","","","","","","","","","","","","","","","","","","","","","","","","","","","","","","","","","","","","","","","","","","","","","","","","","","","","","","","","","","","SYN060AAXX  12091 01016 46/// /0114 11133 2//// 30088 40105 52015;","","","","","","","","","",""
"01016099999","2010-11-12T11:00:00","78.9333333","28.9","20.0","KONGSOYA, NO","FM-12","4","","","8","","","-0.04","2","","","29.84","29.79","","","010","","31","","","","","","","","","","","","","","","","","","","","","","","","","","","","","","","","","","","","","","","","","","","","","","","","","","","","","","","","","","","","","","","","","","","","","","","","","","","","","","","","","","","","","","","","","","","SYN060AAXX  12101 01016 46/// /0114 11135 2//// 30088 40105 52012;","","","","","","","","","",""
"01016099999","2010-11-12T12:00:00","78.9333333","28.9","20.0","KONGSOYA, NO","FM-12","4","","","8","","","-0.03","3","","","29.84","29.79","","","010","","31","","","","","","","","","","","","","","","","","","","","","","","","","","","","","","","","","","","","","","","","","","","","","","","","","","","","","","","","","","","","","","","","","","","","","","","","","","","","","","","","","","","","","","","","","","","SYN060AAXX  12111 01016 46/// /0114 11131 2//// 30087 40104 53009;","","","","","","","","","",""
"01016099999","2010-11-12T13:00:00","78.9333333","28.9","20.0","KONGSOYA, NO","FM-12","4","","","9","","","0.00","4","","","29.84","29.79","","","010","","27","","","","","","","","","","","","","","","","","","","","","","","","","","","","","","","","","","","","","","","","","","","","","","","","","","","","","","","","","","","","","","","","","","","","","","","","","","","","","","","","","","","","","","","","","","","SYN070AAXX  12121 01016 46/// /0112 11129 2//// 30087 40104 54004 333 91116;","","","","","","","","","",""
"01016099999","2010-11-12T14:00:00","78.9333333","28.9","20.0","KONGSOYA, NO","FM-12","4","","","9","","","+0.00","7","","","29.83","29.78","","","030","","31","","","","","","","","","","","","","","","","","","","","","","","","","","","","","","","","","","","","","","","","","","","","","","","","","","","","","","","","","","","","","","","","","","","","","","","","","","","","","","","","","","","","","","","","","","","SYN060AAXX  12131 01016 46/// /0314 11125 2//// 30084 40101 57001;","","","","","","","","","",""
"01016099999","2010-11-12T15:00:00","78.9333333","28.9","20.0","KONGSOYA, NO","FM-12","4","","","9","","","+0.00","7","","","29.83","29.78","","","020","","31","","","","","","","","","","","","","","","","","","","","","","","","","","","","","","","","","","","","","","","","","","","","","","","","","","","","","","","","","","","","","","","","","","","","","","","","","","","","","","","","","","","","","","","","","","","SYN060AAXX  12141 01016 46/// /0214 11128 2//// 30084 40100 57001;","","","","","","","","","",""
"01016099999","2010-11-12T16:00:00","78.9333333","28.9","20.0","KONGSOYA, NO","FM-12","4","","","9","","","-0.01","0","","","29.83","29.78","","","020","","31","","","","","","","","","","","","","","","","","","","","","","","","","","","","","","","","","","","","","","","","","","","","","","","","","","","","","","","","","","","","","","","","","","","","","","","","","","","","","","","","","","","","","","","","","","","SYN060AAXX  12151 01016 46/// /0214 11130 2//// 30085 40102 50003;","","","","","","","","","",""
"01016099999","2010-11-12T17:00:00","78.9333333","28.9","20.0","KONGSOYA, NO","FM-12","4","","","9","","","0.00","4","","","29.83","29.78","","","020","","29","","","","","","","","","","","","","","","","","","","","","","","","","","","","","","","","","","","","","","","","","","","","","","","","","","","","","","","","","","","","","","","","","","","","","","","","","","","","","","","","","","","","","","","","","","","SYN060AAXX  12161 01016 46/// /0213 11129 2//// 30086 40103 54007;","","","","","","","","","",""
"01016099999","2010-11-12T18:00:00","78.9333333","28.9","20.0","KONGSOYA, NO","FM-12","4","","","8","","","0.00","4","","","29.83","29.78","","","020","","31","","","","","","","","","","","","","","","","","","","","","","","","","","","","","","","","","","","","","","","","","","","","","","","","","","","","","","","","","","","","","","","","","","","","","","","","","","","","","","","","","","","","","","","","","","","SYN060AAXX  12171 01016 46/// /0214 11132 2//// 30085 40101 54006;","","","","","","","","","",""
"01016099999","2010-11-12T19:00:00","78.9333333","28.9","20.0","KONGSOYA, NO","FM-12","4","","","8","","","+0.01","6","","","29.82","29.77","","","030","","31","","","","","","","","","","","","","","","","","","","","","","","","","","","","","","","","","","","","","","","","","","","","","","","","","","","","","","","","","","","","","","","","","","","","","","","","","","","","","","","","","","","","","","","","","","","SYN076AAXX  12181 01016 46/// /0314 11134 2//// 30082 40098 56002 333 11123 91116;","","","","","","","","","",""
"01016099999","2010-11-12T20:00:00","78.9333333","28.9","20.0","KONGSOYA, NO","FM-12","4","","","8","","","+0.02","7","","","29.82","29.77","","","030","","31","","","","","","","","","","","","","","","","","","","","","","","","","","","","","","","","","","","","","","","","","","","","","","","","","","","","","","","","","","","","","","","","","","","","","","","","","","","","","","","","","","","","","","","","","","","SYN060AAXX  12191 01016 46/// /0314 11135 2//// 30081 40097 57000;","","","","","","","","","",""
"01016099999","2010-11-12T21:00:00","78.9333333","28.9","20.0","KONGSOYA, NO","FM-12","4","","","7","","","+0.00","7","","","29.81","29.76","","","030","","31","","","","","","","","","","","","","","","","","","","","","","","","","","","","","","","","","","","","","","","","","","","","","","","","","","","","","","","","","","","","","","","","","","","","","","","","","","","","","","","","","","","","","","","","","","","SYN060AAXX  12201 01016 46/// /0314 11137 2//// 30079 40095 57001;","","","","","","","","","",""
"01016099999","2010-11-12T22:00:00","78.9333333","28.9","20.0","KONGSOYA, NO","FM-12","4","","","7","","","+0.00","7","","","29.81","29.76","","","020","","31","","","","","","","","","","","","","","","","","","","","","","","","","","","","","","","","","","","","","","","","","","","","","","","","","","","","","","","","","","","","","","","","","","","","","","","","","","","","","","","","","","","","","","","","","","","SYN060AAXX  12211 01016 46/// /0214 11138 2//// 30078 40095 57001;","","","","","","","","","",""
"01016099999","2010-11-12T23:00:00","78.9333333","28.9","20.0","KONGSOYA, NO","FM-12","4","","","7","","","+0.00","7","","","29.80","29.75","","","020","","31","","","","","","","","","","","","","","","","","","","","","","","","","","","","","","","","","","","","","","","","","","","","","","","","","","","","","","","","","","","","","","","","","","","","","","","","","","","","","","","","","","","","","","","","","","","SYN060AAXX  12221 01016 46/// /0214 11139 2//// 30075 40092 57001;","","","","","","","","","",""
"01016099999","2010-11-13T00:00:00","78.9333333","28.9","20.0","KONGSOYA, NO","FM-12","4","","","7","","","+0.01","7","","","29.79","29.74","","","030","","29","","","","","","","","","","","","","","","","","","","","","","","","","","","","","","","","","","","","","","","","","","","","","","","","","","","","","","","","","","","","","","","","","","","","","","","","","","","","","","","","","","","","","","","","","","","SYN060AAXX  12231 01016 46/// /0313 11137 2//// 30071 40088 57002;","","","","","","","","","",""
"01016099999","2010-11-13T01:00:00","78.9333333","28.9","20.0","KONGSOYA, NO","FM-12","4","","","7","","","+0.02","7","","","29.78","29.72","","","030","","34","","","","","","","","","","","","","","","","","","","","","","","","","","","","","","","","","","","","","","","","","","","","","","","","","","","","","","","","","","","","","","","","","","","","","","","","","","","","","","","","","","","","","","","","","","","SYN070AAXX  13001 01016 46/// /0315 11138 2//// 30066 40083 57007 333 91116;","","","","","","","","","",""
"01016099999","2010-11-13T02:00:00","78.9333333","28.9","20.0","KONGSOYA, NO","FM-12","4","","","8","","","+0.03","7","","","29.76","29.71","","","030","","31","","","","","","","","","","","","","","","","","","","","","","","","","","","","","","","","","","","","","","","","","","","","","","","","","","","","","","","","","","","","","","","","","","","","","","","","","","","","","","","","","","","","","","","","","","","SYN060AAXX  13011 01016 46/// /0314 11134 2//// 30061 40078 57009;","","","","","","","","","",""
"01016099999","2010-11-13T03:00:00","78.9333333","28.9","20.0","KONGSOYA, NO","FM-12","4","","","8","","","+0.04","6","","","29.73","29.69","","","030","","34","","","","","","","","","","","","","","","","","","","","","","","","","","","","","","","","","","","","","","","","","","","","","","","","","","","","","","","","","","","","","","","","","","","","","","","","","","","","","","","","","","","","","","","","","","","SYN060AAXX  13021 01016 46/// /0315 11134 2//// 30053 40069 56014;","","","","","","","","","",""
"01016099999","2010-11-13T04:00:00","78.9333333","28.9","20.0","KONGSOYA, NO","FM-12","4","","","8","","","+0.03","7","","","29.73","29.68","","","030","","34","","","","","","","","","","","","","","","","","","","","","","","","","","","","","","","","","","","","","","","","","","","","","","","","","","","","","","","","","","","","","","","","","","","","","","","","","","","","","","","","","","","","","","","","","","","SYN060AAXX  13031 01016 46/// /0315 11135 2//// 30051 40067 57010;","","","","","","","","","",""
"01016099999","2010-11-13T05:00:00","78.9333333","28.9","20.0","KONGSOYA, NO","FM-12","4","","","8","","","+0.03","8","","","29.72","29.67","","","030","","34","","","","","","","","","","","","","","","","","","","","","","","","","","","","","","","","","","","","","","","","","","","","","","","","","","","","","","","","","","","","","","","","","","","","","","","","","","","","","","","","","","","","","","","","","","","SYN060AAXX  13041 01016 46/// /0315 11134 2//// 30047 40064 58009;","","","","","","","","","",""
"01016099999","2010-11-13T06:00:00","78.9333333","28.9","20.0","KONGSOYA, NO","FM-12","4","","","9","","","+0.01","7","","","29.70","29.65","","","030","","31","","","","","","","","","","","","","","","","","","","","","","","","","","","","","","","","","","","","","","","","","","","","","","","","","","","","","","","","","","","","","","","","","","","","","","","","","","","","","","","","","","","","","","","","","","","SYN060AAXX  13051 01016 46/// /0314 11130 2//// 30042 40059 57005;","","","","","","","","","",""
"01016099999","2010-11-13T07:00:00","78.9333333","28.9","20.0","KONGSOYA, NO","FM-12","4","","","9","","","+0.02","7","","","29.70","29.65","","","030","","31","","","","","","","","","","","","","","","","","","","","","","","","","","","","","","","","","","","","","","","","","","","","","","","","","","","","","","","","","","","","","","","","","","","","","","","","","","","","","","","","","","","","","","","","","","","SYN076AAXX  13061 01016 46/// /0314 11128 2//// 30040 40056 57006 333 21140 91117;","","","","","","","","","",""
"01016099999","2010-11-13T08:00:00","78.9333333","28.9","20.0","KONGSOYA, NO","FM-12","4","","","9","","","+0.01","7","","","29.69","29.64","","","030","","29","","","","","","","","","","","","","","","","","","","","","","","","","","","","","","","","","","","","","","","","","","","","","","","","","","","","","","","","","","","","","","","","","","","","","","","","","","","","","","","","","","","","","","","","","","","SYN060AAXX  13071 01016 46/// /0313 11128 2//// 30037 40054 57005;","","","","","","","","","",""
"01016099999","2010-11-13T09:00:00","78.9333333","28.9","20.0","KONGSOYA, NO","FM-12","4","","","10","","","+0.01","7","","","29.67","29.63","","","020","","29","","","","","","","","","","","","","","","","","","","","","","","","","","","","","","","","","","","","","","","","","","","","","","","","","","","","","","","","","","","","","","","","","","","","","","","","","","","","","","","","","","","","","","","","","","","SYN060AAXX  13081 01016 46/// /0213 11124 2//// 30033 40049 57005;","","","","","","","","","",""
"01016099999","2010-11-13T10:00:00","78.9333333","28.9","20.0","KONGSOYA, NO","FM-12","4","","","10","","","+0.01","7","","","29.67","29.62","","","030","","27","","","","","","","","","","","","","","","","","","","","","","","","","","","","","","","","","","","","","","","","","","","","","","","","","","","","","","","","","","","","","","","","","","","","","","","","","","","","","","","","","","","","","","","","","","","SYN060AAXX  13091 01016 46/// /0312 11120 2//// 30029 40046 57005;","","","","","","","","","",""
"01016099999","2010-11-13T11:00:00","78.9333333","28.9","20.0","KONGSOYA, NO","FM-12","4","","","11","","","+0.03","7","","","29.65","29.60","","","030","","25","","","","","","","","","","","","","","","","","","","","","","","","","","","","","","","","","","","","","","","","","","","","","","","","","","","","","","","","","","","","","","","","","","","","","","","","","","","","","","","","","","","","","","","","","","","SYN060AAXX  13101 01016 46/// /0311 11117 2//// 30023 40039 57010;","","","","","","","","","",""
"01016099999","2010-11-13T12:00:00","78.9333333","28.9","20.0","KONGSOYA, NO","FM-12","4","","","11","","","+0.03","7","","","29.63","29.59","","","020","","25","","","","","","","","","","","","","","","","","","","","","","","","","","","","","","","","","","","","","","","","","","","","","","","","","","","","","","","","","","","","","","","","","","","","","","","","","","","","","","","","","","","","","","","","","","","SYN060AAXX  13111 01016 46/// /0211 11115 2//// 30019 40035 57009;","","","","","","","","","",""
"01016099999","2010-11-15T09:00:00","78.9333333","28.9","20.0","KONGSOYA, NO","FM-12","4","","","21","","","0.00","4","","","29.30","29.26","","","","","","","","","","","","","","","","","","","","","","","","","","","","","","","","","","","","","","","","","","","","","","","","","","","","","","","","","","","","","","","","","","","","","","","","","","","","","","","","","","","","","","","","","","","","","","","","SYN060AAXX  15081 01016 46/// ///// 11063 2//// 39907 49922 54004;","","","","","","","","","",""
"01016099999","2010-11-15T10:00:00","78.9333333","28.9","20.0","KONGSOYA, NO","FM-12","4","","","21","","","-0.02","0","","","29.31","29.26","","","360","","22","","","","","","","","","","","","","","","","","","","","","","","","","","","","","","","","","","","","","","","","","","","","","","","","","","","","","","","","","","","","","","","","","","","","","","","","","","","","","","","","","","","","","","","","","","","SYN060AAXX  15091 01016 46/// /3610 11061 2//// 39910 49926 50008;","","","","","","","","","",""
"01016099999","2010-11-15T11:00:00","78.9333333","28.9","20.0","KONGSOYA, NO","FM-12","4","","","21","","","-0.03","2","","","29.32","29.27","","","360","","25","","","","","","","","","","","","","","","","","","","","","","","","","","","","","","","","","","","","","","","","","","","","","","","","","","","","","","","","","","","","","","","","","","","","","","","","","","","","","","","","","","","","","","","","","","","SYN060AAXX  15101 01016 46/// /3611 11062 2//// 39912 49928 52011;","","","","","","","","","",""
"01016099999","2010-11-15T12:00:00","78.9333333","28.9","20.0","KONGSOYA, NO","FM-12","4","","","21","","","-0.04","2","","","29.33","29.28","","","010","","27","","","","","","","","","","","","","","","","","","","","","","","","","","","","","","","","","","","","","","","","","","","","","","","","","","","","","","","","","","","","","","","","","","","","","","","","","","","","","","","","","","","","","","","","","","","SYN060AAXX  15111 01016 46/// /0112 11063 2//// 39917 49933 52015;","","","","","","","","","",""
"01016099999","2010-11-15T13:00:00","78.9333333","28.9","20.0","KONGSOYA, NO","FM-12","4","","","19","","","-0.04","2","","","29.34","29.29","","","360","","25","","","","","","","","","","","","","","","","","","","","","","","","","","","","","","","","","","","","","","","","","","","","","","","","","","","","","","","","","","","","","","","","","","","","","","","","","","","","","","","","","","","","","","","","","","","SYN060AAXX  15121 01016 46/// /3611 11072 2//// 39920 49936 52015;","","","","","","","","","",""
"01016099999","2010-11-15T14:00:00","78.9333333","28.9","20.0","KONGSOYA, NO","FM-12","4","","","17","","","-0.04","2","","","29.35","29.30","","","360","","25","","","","","","","","","","","","","","","","","","","","","","","","","","","","","","","","","","","","","","","","","","","","","","","","","","","","","","","","","","","","","","","","","","","","","","","","","","","","","","","","","","","","","","","","","","","SYN060AAXX  15131 01016 46/// /3611 11081 2//// 39923 49938 52015;","","","","","","","","","",""
"01016099999","2010-11-15T15:00:00","78.9333333","28.9","20.0","KONGSOYA, NO","FM-12","4","","","17","","","-0.04","2","","","29.36","29.31","","","360","","25","","","","","","","","","","","","","","","","","","","","","","","","","","","","","","","","","","","","","","","","","","","","","","","","","","","","","","","","","","","","","","","","","","","","","","","","","","","","","","","","","","","","","","","","","","","SYN060AAXX  15141 01016 46/// /3611 11082 2//// 39925 49941 52013;","","","","","","","","","",""
"01016099999","2010-11-15T16:00:00","78.9333333","28.9","20.0","KONGSOYA, NO","FM-12","4","","","17","","","-0.04","2","","","29.37","29.32","","","360","","22","","","","","","","","","","","","","","","","","","","","","","","","","","","","","","","","","","","","","","","","","","","","","","","","","","","","","","","","","","","","","","","","","","","","","","","","","","","","","","","","","","","","","","","","","","","SYN060AAXX  15151 01016 46/// /3610 11081 2//// 39930 49946 52015;","","","","","","","","","",""
"01016099999","2010-11-15T17:00:00","78.9333333","28.9","20.0","KONGSOYA, NO","FM-12","4","","","17","","","-0.05","2","","","29.38","29.34","","","","","","","","","","","","","","","","","","","","","","","","","","","","","","","","","","","","","","","","","","","","","","","","","","","","","","","","","","","","","","","","","","","","","","","","","","","","","","","","","","","","","","","","","","","","","","","","SYN060AAXX  15161 01016 46/// ///// 11086 2//// 39934 49950 52016;","","","","","","","","","",""
"01016099999","2010-11-15T18:00:00","78.9333333","28.9","20.0","KONGSOYA, NO","FM-12","4","","","16","","","-0.05","2","","","29.39","29.34","","","360","","22","","","","","","","","","","","","","","","","","","","","","","","","","","","","","","","","","","","","","","","","","","","","","","","","","","","","","","","","","","","","","","","","","","","","","","","","","","","","","","","","","","","","","","","","","","","SYN060AAXX  15171 01016 46/// /3610 11089 2//// 39936 49952 52016;","","","","","","","","","",""
"01016099999","2010-11-15T19:00:00","78.9333333","28.9","20.0","KONGSOYA, NO","FM-12","4","","","15","","","-0.05","2","","","29.40","29.36","","","350","","25","","","","","","","","","","","","","","","","","","","","","","","","","","","","","","","","","","","","","","","","","","","","","","","","","","","","","","","","","","","","","","","","","","","","","","","","","","","","","","","","","","","","","","","","","","","SYN070AAXX  15181 01016 46/// /3511 11092 2//// 39941 49957 52016 333 91114;","","","","","","","","","",""
"01016099999","2010-11-15T20:00:00","78.9333333","28.9","20.0","KONGSOYA, NO","FM-12","4","","","14","","","-0.05","2","","","29.42","29.37","","","350","","20","","","","","","","","","","","","","","","","","","","","","","","","","","","","","","","","","","","","","","","","","","","","","","","","","","","","","","","","","","","","","","","","","","","","","","","","","","","","","","","","","","","","","","","","","","","SYN060AAXX  15191 01016 46/// /3509 11100 2//// 39946 49962 52017;","","","","","","","","","",""
"01016099999","2010-11-15T21:00:00","78.9333333","28.9","20.0","KONGSOYA, NO","FM-12","4","","","14","","","-0.06","2","","","29.44","29.39","","","350","","16","","","","","","","","","","","","","","","","","","","","","","","","","","","","","","","","","","","","","","","","","","","","","","","","","","","","","","","","","","","","","","","","","","","","","","","","","","","","","","","","","","","","","","","","","","","SYN060AAXX  15201 01016 46/// /3507 11099 2//// 39952 49968 52020;","","","","","","","","","",""
"01016099999","2010-11-15T22:00:00","78.9333333","28.9","20.0","KONGSOYA, NO","FM-12","4","","","13","","","-0.06","2","","","29.45","29.40","","","","","","","","","","","","","","","","","","","","","","","","","","","","","","","","","","","","","","","","","","","","","","","","","","","","","","","","","","","","","","","","","","","","","","","","","","","","","","","","","","","","","","","","","","","","","","","","SYN060AAXX  15211 01016 46/// ///// 11103 2//// 39956 49972 52020;","","","","","","","","","",""
"01016099999","2010-11-15T23:00:00","78.9333333","28.9","20.0","KONGSOYA, NO","FM-12","4","","","12","","","-0.06","2","","","29.47","29.42","","","350","","18","","","","","","","","","","","","","","","","","","","","","","","","","","","","","","","","","","","","","","","","","","","","","","","","","","","","","","","","","","","","","","","","","","","","","","","","","","","","","","","","","","","","","","","","","","","SYN060AAXX  15221 01016 46/// /3508 11109 2//// 39962 49978 52021;","","","","","","","","","",""
"01016099999","2010-11-16T00:00:00","78.9333333","28.9","20.0","KONGSOYA, NO","FM-12","4","","","12","","","-0.05","2","","","29.47","29.43","","","350","","18","","","","","","","","","","","","","","","","","","","","","","","","","","","","","","","","","","","","","","","","","","","","","","","","","","","","","","","","","","","","","","","","","","","","","","","","","","","","","","","","","","","","","","","","","","","SYN060AAXX  15231 01016 46/// /3508 11112 2//// 39965 49981 52018;","","","","","","","","","",""
"01016099999","2010-11-16T01:00:00","78.9333333","28.9","20.0","KONGSOYA, NO","FM-12","4","","","8","","","-0.05","2","","","29.49","29.44","","","","","","","","","","","","","","","","","","","","","","","","","","","","","","","","","","","","","","","","","","","","","","","","","","","","","","","","","","","","","","","","","","","","","","","","","","","","","","","","","","","","","","","","","","","","","","","","SYN070AAXX  16001 01016 46/// ///// 11136 2//// 39968 49985 52018 333 91111;","","","","","","","","","",""
"01016099999","2010-11-16T02:00:00","78.9333333","28.9","20.0","KONGSOYA, NO","FM-12","4","","","7","","","-0.05","2","","","29.50","29.45","","","340","","13","","","","","","","","","","","","","","","","","","","","","","","","","","","","","","","","","","","","","","","","","","","","","","","","","","","","","","","","","","","","","","","","","","","","","","","","","","","","","","","","","","","","","","","","","","","SYN060AAXX  16011 01016 46/// /3406 11139 2//// 39973 49989 52016;","","","","","","","","","",""
"01016099999","2010-11-16T03:00:00","78.9333333","28.9","20.0","KONGSOYA, NO","FM-12","4","","","5","","","-0.04","2","","","29.50","29.46","","","330","","7","","","","","","","","","","","","","","","","","","","","","","","","","","","","","","","","","","","","","","","","","","","","","","","","","","","","","","","","","","","","","","","","","","","","","","","","","","","","","","","","","","","","","","","","","","","SYN060AAXX  16021 01016 46/// /3303 11151 2//// 39975 49991 52015;","","","","","","","","","",""
"01016099999","2010-11-16T04:00:00","78.9333333","28.9","20.0","KONGSOYA, NO","FM-12","4","","","6","","","-0.03","3","","","29.50","29.46","","","330","","9","","","","","","","","","","","","","","","","","","","","","","","","","","","","","","","","","","","","","","","","","","","","","","","","","","","","","","","","","","","","","","","","","","","","","","","","","","","","","","","","","","","","","","","","","","","SYN060AAXX  16031 01016 46/// /3304 11145 2//// 39975 49991 53011;","","","","","","","","","",""
"01016099999","2010-11-16T05:00:00","78.9333333","28.9","20.0","KONGSOYA, NO","FM-12","4","","","6","","","-0.02","2","","","29.51","29.46","","","330","","4","","","","","","","","","","","","","","","","","","","","","","","","","","","","","","","","","","","","","","","","","","","","","","","","","","","","","","","","","","","","","","","","","","","","","","","","","","","","","","","","","","","","","","","","","","","SYN060AAXX  16041 01016 46/// /3302 11147 2//// 39976 49992 52008;","","","","","","","","","",""
"01016099999","2010-11-16T06:00:00","78.9333333","28.9","20.0","KONGSOYA, NO","FM-12","4","","","9","","","0.00","4","","","29.51","29.46","","","310","","4","","","","","","","","","","","","","","","","","","","","","","","","","","","","","","","","","","","","","","","","","","","","","","","","","","","","","","","","","","","","","","","","","","","","","","","","","","","","","","","","","","","","","","","","","","","SYN060AAXX  16051 01016 46/// /3102 11130 2//// 39976 49992 54006;","","","","","","","","","",""
"01016099999","2010-11-16T07:00:00","78.9333333","28.9","20.0","KONGSOYA, NO","FM-12","4","","","7","","","0.00","4","","","29.51","29.46","","","320","","4","","","","","","","","","","","","","","","","","","","","","","","","","","","","","","","","","","","","","","","","","","","","","","","","","","","","","","","","","","","","","","","","","","","","","","","","","","","","","","","","","","","","","","","","","","","SYN076AAXX  16061 01016 46/// /3202 11138 2//// 39976 49993 54007 333 21153 91107;","","","","","","","","","",""
"01016099999","2010-11-16T08:00:00","78.9333333","28.9","20.0","KONGSOYA, NO","FM-12","4","","","10","","","0.00","4","","","29.51","29.46","","","040","","4","","","","","","","","","","","","","","","","","","","","","","","","","","","","","","","","","","","","","","","","","","","","","","","","","","","","","","","","","","","","","","","","","","","","","","","","","","","","","","","","","","","","","","","","","","","SYN060AAXX  16071 01016 46/// /0402 11122 2//// 39976 49992 54005;","","","","","","","","","",""
"01016099999","2010-11-16T09:00:00","78.9333333","28.9","20.0","KONGSOYA, NO","FM-12","4","","","10","","","+0.01","5","","","29.50","29.45","","","070","","7","","","","","","","","","","","","","","","","","","","","","","","","","","","","","","","","","","","","","","","","","","","","","","","","","","","","","","","","","","","","","","","","","","","","","","","","","","","","","","","","","","","","","","","","","","","SYN060AAXX  16081 01016 46/// /0703 11122 2//// 39973 49990 55003;","","","","","","","","","",""
"01016099999","2010-11-16T10:00:00","78.9333333","28.9","20.0","KONGSOYA, NO","FM-12","4","","","12","","","0.00","4","","","29.51","29.46","","","100","","4","","","","","","","","","","","","","","","","","","","","","","","","","","","","","","","","","","","","","","","","","","","","","","","","","","","","","","","","","","","","","","","","","","","","","","","","","","","","","","","","","","","","","","","","","","","SYN060AAXX  16091 01016 46/// /1002 11112 2//// 39975 49992 54004;","","","","","","","","","",""
"01016099999","2010-11-16T11:00:00","78.9333333","28.9","20.0","KONGSOYA, NO","FM-12","4","","","19","","","0.00","4","","","29.50","29.45","","","160","","11","","","","","","","","","","","","","","","","","","","","","","","","","","","","","","","","","","","","","","","","","","","","","","","","","","","","","","","","","","","","","","","","","","","","","","","","","","","","","","","","","","","","","","","","","","","SYN060AAXX  16101 01016 46/// /1605 11072 2//// 39974 49990 54003;","","","","","","","","","",""
"01016099999","2010-11-16T12:00:00","78.9333333","28.9","20.0","KONGSOYA, NO","FM-12","4","","","20","","","+0.00","6","","","29.49","29.44","","","150","","11","","","","","","","","","","","","","","","","","","","","","","","","","","","","","","","","","","","","","","","","","","","","","","","","","","","","","","","","","","","","","","","","","","","","","","","","","","","","","","","","","","","","","","","","","","","SYN060AAXX  16111 01016 46/// /1505 11066 2//// 39970 49986 56001;","","","","","","","","","",""
"01016099999","2010-11-16T13:00:00","78.9333333","28.9","20.0","KONGSOYA, NO","FM-12","4","","","21","","","+0.02","6","","","29.47","29.42","","","140","","16","","","","","","","","","","","","","","","","","","","","","","","","","","","","","","","","","","","","","","","","","","","","","","","","","","","","","","","","","","","","","","","","","","","","","","","","","","","","","","","","","","","","","","","","","","","SYN070AAXX  16121 01016 46/// /1407 11060 2//// 39963 49979 56007 333 91108;","","","","","","","","","",""
"01016099999","2010-11-16T14:00:00","78.9333333","28.9","20.0","KONGSOYA, NO","FM-12","4","","","22","","","+0.04","6","","","29.44","29.40","","","140","","16","","","","","","","","","","","","","","","","","","","","","","","","","","","","","","","","","","","","","","","","","","","","","","","","","","","","","","","","","","","","","","","","","","","","","","","","","","","","","","","","","","","","","","","","","","","SYN060AAXX  16131 01016 46/// /1407 11054 2//// 39956 49971 56013;","","","","","","","","","",""
"01016099999","2010-11-16T15:00:00","78.9333333","28.9","20.0","KONGSOYA, NO","FM-12","4","","","24","","","+0.05","7","","","29.42","29.37","","","150","","18","","","","","","","","","","","","","","","","","","","","","","","","","","","","","","","","","","","","","","","","","","","","","","","","","","","","","","","","","","","","","","","","","","","","","","","","","","","","","","","","","","","","","","","","","","","SYN060AAXX  16141 01016 46/// /1508 11045 2//// 39947 49963 57018;","","","","","","","","","",""
"01016099999","2010-11-16T16:00:00","78.9333333","28.9","20.0","KONGSOYA, NO","FM-12","4","","","25","","","+0.06","7","","","29.40","29.35","","","150","","18","","","","","","","","","","","","","","","","","","","","","","","","","","","","","","","","","","","","","","","","","","","","","","","","","","","","","","","","","","","","","","","","","","","","","","","","","","","","","","","","","","","","","","","","","","","SYN060AAXX  16151 01016 46/// /1508 11041 2//// 39939 49955 57019;","","","","","","","","","",""
"01016099999","2010-11-16T17:00:00","78.9333333","28.9","20.0","KONGSOYA, NO","FM-12","4","","","26","","","+0.06","7","","","29.37","29.32","","","150","","20","","","","","","","","","","","","","","","","","","","","","","","","","","","","","","","","","","","","","","","","","","","","","","","","","","","","","","","","","","","","","","","","","","","","","","","","","","","","","","","","","","","","","","","","","","","SYN060AAXX  16161 01016 46/// /1509 11036 2//// 39930 49945 57021;","","","","","","","","","",""
"01016099999","2010-11-17T03:00:00","78.9333333","28.9","20.0","KONGSOYA, NO","FM-12","4","","","4","","","-0.12","1","","","29.47","29.43","","","350","","45","","","","","","","","","","","","","","","","","","","","","","","","","","","","","","","","","","","","","","","","","","","","","","","","","","","","","","","","","","","","","","","","","","","","","","","","","","","","","","","","","","","","","","","","","","","SYN060AAXX  17021 01016 46/// /3520 11154 2//// 39965 49981 51041;","","","","","","","","","",""
"01016099999","2010-11-17T04:00:00","78.9333333","28.9","20.0","KONGSOYA, NO","FM-12","4","","","4","","","-0.13","2","","","29.51","29.46","","","340","","40","","","","","","","","","","","","","","","","","","","","","","","","","","","","","","","","","","","","","","","","","","","","","","","","","","","","","","","","","","","","","","","","","","","","","","","","","","","","","","","","","","","","","","","","","","","SYN060AAXX  17031 01016 46/// /3418 11158 2//// 39977 49993 52043;","","","","","","","","","",""
"01016099999","2010-11-17T06:00:00","78.9333333","28.9","20.0","KONGSOYA, NO","FM-12","4","","","4","","","-0.12","2","","","29.58","29.54","","","350","","36","","","","","","","","","","","","","","","","","","","","","","","","","","","","","","","","","","","","","","","","","","","","","","","","","","","","","","","","","","","","","","","","","","","","","","","","","","","","","","","","","","","","","","","","","","","SYN060AAXX  17051 01016 46/// /3516 11154 2//// 30002 40018 52042;","","","","","","","","","",""
"01016099999","2010-11-17T07:00:00","78.9333333","28.9","20.0","KONGSOYA, NO","FM-12","4","","","4","","","-0.12","2","","","29.62","29.57","","","350","","34","","","","","","","","","","","","","","","","","","","","","","","","","","","","","","","","","","","","","","","","","","","","","","","","","","","","","","","","","","","","","","","","","","","","","","","","","","","","","","","","","","","","","","","","","","","SYN060AAXX  17061 01016 46/// /3515 11156 2//// 30013 40030 52041;","","","","","","","","","",""
"01016099999","2010-11-17T12:00:00","78.9333333","28.9","20.0","KONGSOYA, NO","FM-12","4","","","2","","","-0.12","3","","","29.80","29.75","","","340","","29","","","","","","","","","","","","","","","","","","","","","","","","","","","","","","","","","","","","","","","","","","","","","","","","","","","","","","","","","","","","","","","","","","","","","","","","","","","","","","","","","","","","","","","","","","","SYN060AAXX  17111 01016 46/// /3413 11166 2//// 30075 40092 53042;","","","","","","","","","",""
"01016099999","2010-11-17T13:00:00","78.9333333","28.9","20.0","KONGSOYA, NO","FM-12","4","","","1","","","-0.11","3","","","29.83","29.78","","","340","","25","","","","","","","","","","","","","","","","","","","","","","","","","","","","","","","","","","","","","","","","","","","","","","","","","","","","","","","","","","","","","","","","","","","","","","","","","","","","","","","","","","","","","","","","","","","SYN060AAXX  17121 01016 46/// /3411 11170 2//// 30084 40101 53037;","","","","","","","","","",""
"01016099999","2010-11-17T14:00:00","78.9333333","28.9","20.0","KONGSOYA, NO","FM-12","4","","","1","","","-0.10","2","","","29.86","29.81","","","350","","25","","","","","","","","","","","","","","","","","","","","","","","","","","","","","","","","","","","","","","","","","","","","","","","","","","","","","","","","","","","","","","","","","","","","","","","","","","","","","","","","","","","","","","","","","","","SYN060AAXX  17131 01016 46/// /3511 11171 2//// 30094 40111 52034;","","","","","","","","","",""
"01016099999","2010-11-17T15:00:00","78.9333333","28.9","20.0","KONGSOYA, NO","FM-12","4","","","2","","","-0.10","2","","","29.88","29.83","","","340","","20","","","","","","","","","","","","","","","","","","","","","","","","","","","","","","","","","","","","","","","","","","","","","","","","","","","","","","","","","","","","","","","","","","","","","","","","","","","","","","","","","","","","","","","","","","","SYN060AAXX  17141 01016 46/// /3409 11167 2//// 30103 40120 52033;","","","","","","","","","",""
"01016099999","2010-11-17T16:00:00","78.9333333","28.9","20.0","KONGSOYA, NO","FM-12","4","","","1","","","-0.09","3","","","29.91","29.85","","","350","","13","","","","","","","","","","","","","","","","","","","","","","","","","","","","","","","","","","","","","","","","","","","","","","","","","","","","","","","","","","","","","","","","","","","","","","","","","","","","","","","","","","","","","","","","","","","SYN060AAXX  17151 01016 46/// /3506 11170 2//// 30110 40127 53031;","","","","","","","","","",""
"01016099999","2010-11-17T17:00:00","78.9333333","28.9","20.0","KONGSOYA, NO","FM-12","4","","","1","","","-0.07","3","","","29.91","29.86","","","350","","20","","","","","","","","","","","","","","","","","","","","","","","","","","","","","","","","","","","","","","","","","","","","","","","","","","","","","","","","","","","","","","","","","","","","","","","","","","","","","","","","","","","","","","","","","","","SYN060AAXX  17161 01016 46/// /3509 11171 2//// 30113 40130 53024;","","","","","","","","","",""
"01016099999","2010-11-17T18:00:00","78.9333333","28.9","20.0","KONGSOYA, NO","FM-12","4","","","1","","","-0.06","2","","","29.93","29.88","","","350","","18","","","","","","","","","","","","","","","","","","","","","","","","","","","","","","","","","","","","","","","","","","","","","","","","","","","","","","","","","","","","","","","","","","","","","","","","","","","","","","","","","","","","","","","","","","","SYN060AAXX  17171 01016 46/// /3508 11171 2//// 30119 40135 52021;","","","","","","","","","",""
"01016099999","2010-11-17T19:00:00","78.9333333","28.9","20.0","KONGSOYA, NO","FM-12","4","","","0","","","-0.04","3","","","29.93","29.88","","","","","","","","","","","","","","","","","","","","","","","","","","","","","","","","","","","","","","","","","","","","","","","","","","","","","","","","","","","","","","","","","","","","","","","","","","","","","","","","","","","","","","","","","","","","","","","","SYN070AAXX  17181 01016 46/// ///// 11176 2//// 30118 40135 53014 333 91114;","","","","","","","","","",""
"01016099999","2010-11-17T20:00:00","78.9333333","28.9","20.0","KONGSOYA, NO","FM-12","4","","","2","","","-0.04","2","","","29.94","29.89","","","350","","16","","","","","","","","","","","","","","","","","","","","","","","","","","","","","","","","","","","","","","","","","","","","","","","","","","","","","","","","","","","","","","","","","","","","","","","","","","","","","","","","","","","","","","","","","","","SYN060AAXX  17191 01016 46/// /3507 11169 2//// 30123 40140 52015;","","","","","","","","","",""
"01016099999","2010-11-17T21:00:00","78.9333333","28.9","20.0","KONGSOYA, NO","FM-12","4","","","1","","","-0.04","1","","","29.95","29.90","","","350","","11","","","","","","","","","","","","","","","","","","","","","","","","","","","","","","","","","","","","","","","","","","","","","","","","","","","","","","","","","","","","","","","","","","","","","","","","","","","","","","","","","","","","","","","","","","","SYN060AAXX  17201 01016 46/// /3505 11173 2//// 30126 40143 51013;","","","","","","","","","",""
"01016099999","2010-11-17T22:00:00","78.9333333","28.9","20.0","KONGSOYA, NO","FM-12","4","","","1","","","-0.04","3","","","29.95","29.90","","","350","","16","","","","","","","","","","","","","","","","","","","","","","","","","","","","","","","","","","","","","","","","","","","","","","","","","","","","","","","","","","","","","","","","","","","","","","","","","","","","","","","","","","","","","","","","","","","SYN060AAXX  17211 01016 46/// /3507 11170 2//// 30126 40143 53013;","","","","","","","","","",""
"01016099999","2010-11-17T23:00:00","78.9333333","28.9","20.0","KONGSOYA, NO","FM-12","4","","","0","","","-0.03","2","","","29.96","29.91","","","","","","","","","","","","","","","","","","","","","","","","","","","","","","","","","","","","","","","","","","","","","","","","","","","","","","","","","","","","","","","","","","","","","","","","","","","","","","","","","","","","","","","","","","","","","","","","SYN060AAXX  17221 01016 46/// ///// 11175 2//// 30127 40144 52009;","","","","","","","","","",""
"01016099999","2010-11-18T00:00:00","78.9333333","28.9","20.0","KONGSOYA, NO","FM-12","4","","","-1","","","0.00","4","","","29.96","29.91","","","010","","9","","","","","","","","","","","","","","","","","","","","","","","","","","","","","","","","","","","","","","","","","","","","","","","","","","","","","","","","","","","","","","","","","","","","","","","","","","","","","","","","","","","","","","","","","","","SYN060AAXX  17231 01016 46/// /0104 11184 2//// 30129 40146 54008;","","","","","","","","","",""
"01016099999","2010-11-18T01:00:00","78.9333333","28.9","20.0","KONGSOYA, NO","FM-12","4","","","-1","","","0.00","4","","","29.96","29.91","","","","","","","","","","","","","","","","","","","","","","","","","","","","","","","","","","","","","","","","","","","","","","","","","","","","","","","","","","","","","","","","","","","","","","","","","","","","","","","","","","","","","","","","","","","","","","","","SYN070AAXX  18001 01016 46/// ///// 11181 2//// 30129 40146 54007 333 91109;","","","","","","","","","",""
"01016099999","2010-11-18T02:00:00","78.9333333","28.9","20.0","KONGSOYA, NO","FM-12","4","","","-1","","","+0.01","5","","","29.96","29.91","","","350","","16","","","","","","","","","","","","","","","","","","","","","","","","","","","","","","","","","","","","","","","","","","","","","","","","","","","","","","","","","","","","","","","","","","","","","","","","","","","","","","","","","","","","","","","","","","","SYN060AAXX  18011 01016 46/// /3507 11181 2//// 30127 40144 55005;","","","","","","","","","",""
"01016099999","2010-11-18T03:00:00","78.9333333","28.9","20.0","KONGSOYA, NO","FM-12","4","","","-1","","","0.00","4","","","29.96","29.91","","","","","","","","","","","","","","","","","","","","","","","","","","","","","","","","","","","","","","","","","","","","","","","","","","","","","","","","","","","","","","","","","","","","","","","","","","","","","","","","","","","","","","","","","","","","","","","","SYN060AAXX  18021 01016 46/// ///// 11185 2//// 30129 40146 54005;","","","","","","","","","",""
"01016099999","2010-11-18T04:00:00","78.9333333","28.9","20.0","KONGSOYA, NO","FM-12","4","","","-2","","","-0.02","0","","","29.97","29.92","","","360","","16","","","","","","","","","","","","","","","","","","","","","","","","","","","","","","","","","","","","","","","","","","","","","","","","","","","","","","","","","","","","","","","","","","","","","","","","","","","","","","","","","","","","","","","","","","","SYN060AAXX  18031 01016 46/// /3607 11187 2//// 30131 40148 50008;","","","","","","","","","",""
"01016099999","2010-11-18T05:00:00","78.9333333","28.9","20.0","KONGSOYA, NO","FM-12","4","","","-1","","","-0.04","2","","","29.97","29.92","","","360","","20","","","","","","","","","","","","","","","","","","","","","","","","","","","","","","","","","","","","","","","","","","","","","","","","","","","","","","","","","","","","","","","","","","","","","","","","","","","","","","","","","","","","","","","","","","","SYN060AAXX  18041 01016 46/// /3609 11182 2//// 30133 40150 52012;","","","","","","","","","",""
"01016099999","2010-11-18T06:00:00","78.9333333","28.9","20.0","KONGSOYA, NO","FM-12","4","","","-1","","","-0.04","2","","","29.99","29.94","","","010","","18","","","","","","","","","","","","","","","","","","","","","","","","","","","","","","","","","","","","","","","","","","","","","","","","","","","","","","","","","","","","","","","","","","","","","","","","","","","","","","","","","","","","","","","","","","","SYN060AAXX  18051 01016 46/// /0108 11185 2//// 30138 40155 52015;","","","","","","","","","",""
"01016099999","2010-11-18T07:00:00","78.9333333","28.9","20.0","KONGSOYA, NO","FM-12","4","","","-1","","","-0.05","1","","","30.01","29.96","","","350","","20","","","","","","","","","","","","","","","","","","","","","","","","","","","","","","","","","","","","","","","","","","","","","","","","","","","","","","","","","","","","","","","","","","","","","","","","","","","","","","","","","","","","","","","","","","","SYN076AAXX  18061 01016 46/// /3509 11185 2//// 30144 40161 51018 333 21190 91110;","","","","","","","","","",""
"01016099999","2010-11-18T08:00:00","78.9333333","28.9","20.0","KONGSOYA, NO","FM-12","4","","","0","","","-0.07","2","","","30.03","29.98","","","360","","20","","","","","","","","","","","","","","","","","","","","","","","","","","","","","","","","","","","","","","","","","","","","","","","","","","","","","","","","","","","","","","","","","","","","","","","","","","","","","","","","","","","","","","","","","","","SYN060AAXX  18071 01016 46/// /3609 11179 2//// 30152 40168 52023;","","","","","","","","","",""
"01016099999","2010-11-18T09:00:00","78.9333333","28.9","20.0","KONGSOYA, NO","FM-12","4","","","0","","","-0.08","1","","","30.06","30.01","","","360","","20","","","","","","","","","","","","","","","","","","","","","","","","","","","","","","","","","","","","","","","","","","","","","","","","","","","","","","","","","","","","","","","","","","","","","","","","","","","","","","","","","","","","","","","","","","","SYN060AAXX  18081 01016 46/// /3609 11177 2//// 30161 40178 51028;","","","","","","","","","",""
"01016099999","2010-11-18T10:00:00","78.9333333","28.9","20.0","KONGSOYA, NO","FM-12","4","","","-1","","","-0.09","2","","","30.08","30.03","","","350","","18","","","","","","","","","","","","","","","","","","","","","","","","","","","","","","","","","","","","","","","","","","","","","","","","","","","","","","","","","","","","","","","","","","","","","","","","","","","","","","","","","","","","","","","","","","","SYN060AAXX  18091 01016 46/// /3508 11181 2//// 30170 40187 52031;","","","","","","","","","",""
"01016099999","2010-11-18T11:00:00","78.9333333","28.9","20.0","KONGSOYA, NO","FM-12","4","","","-1","","","-0.10","2","","","30.11","30.06","","","350","","13","","","","","","","","","","","","","","","","","","","","","","","","","","","","","","","","","","","","","","","","","","","","","","","","","","","","","","","","","","","","","","","","","","","","","","","","","","","","","","","","","","","","","","","","","","","SYN060AAXX  18101 01016 46/// /3506 11185 2//// 30179 40196 52033;","","","","","","","","","",""
"01016099999","2010-11-18T12:00:00","78.9333333","28.9","20.0","KONGSOYA, NO","FM-12","4","","","-4","","","-0.09","3","","","30.13","30.08","","","350","","9","","","","","","","","","","","","","","","","","","","","","","","","","","","","","","","","","","","","","","","","","","","","","","","","","","","","","","","","","","","","","","","","","","","","","","","","","","","","","","","","","","","","","","","","","","","SYN060AAXX  18111 01016 46/// /3504 11199 2//// 30185 40202 53029;","","","","","","","","","",""
"01016099999","2010-11-18T13:00:00","78.9333333","28.9","20.0","KONGSOYA, NO","FM-12","4","","","-5","","","-0.08","2","","","30.15","30.10","","","340","","13","","","","","","","","","","","","","","","","","","","","","","","","","","","","","","","","","","","","","","","","","","","","","","","","","","","","","","","","","","","","","","","","","","","","","","","","","","","","","","","","","","","","","","","","","","","SYN070AAXX  18121 01016 46/// /3406 11204 2//// 30192 40210 52027 333 91111;","","","","","","","","","",""
"01016099999","2010-11-18T14:00:00","78.9333333","28.9","20.0","KONGSOYA, NO","FM-12","4","","","-5","","","-0.07","2","","","30.16","30.11","","","","","","","","","","","","","","","","","","","","","","","","","","","","","","","","","","","","","","","","","","","","","","","","","","","","","","","","","","","","","","","","","","","","","","","","","","","","","","","","","","","","","","","","","","","","","","","","SYN060AAXX  18131 01016 46/// ///// 11206 2//// 30198 40215 52024;","","","","","","","","","",""
"01016099999","2010-11-18T15:00:00","78.9333333","28.9","20.0","KONGSOYA, NO","FM-12","4","","","-6","","","-0.06","3","","","30.17","30.12","","","","","","","","","","","","","","","","","","","","","","","","","","","","","","","","","","","","","","","","","","","","","","","","","","","","","","","","","","","","","","","","","","","","","","","","","","","","","","","","","","","","","","","","","","","","","","","","SYN060AAXX  18141 01016 46/// ///// 11211 2//// 30201 40218 53021;","","","","","","","","","",""
"01016099999","2010-11-18T16:00:00","78.9333333","28.9","20.0","KONGSOYA, NO","FM-12","4","","","-6","","","-0.06","2","","","30.19","30.14","","","010","","11","","","","","","","","","","","","","","","","","","","","","","","","","","","","","","","","","","","","","","","","","","","","","","","","","","","","","","","","","","","","","","","","","","","","","","","","","","","","","","","","","","","","","","","","","","","SYN060AAXX  18151 01016 46/// /0105 11213 2//// 30207 40224 52020;","","","","","","","","","",""
"01016099999","2010-11-18T17:00:00","78.9333333","28.9","20.0","KONGSOYA, NO","FM-12","4","","","-4","","","-0.06","2","","","30.21","30.16","","","360","","11","","","","","","","","","","","","","","","","","","","","","","","","","","","","","","","","","","","","","","","","","","","","","","","","","","","","","","","","","","","","","","","","","","","","","","","","","","","","","","","","","","","","","","","","","","","SYN060AAXX  18161 01016 46/// /3605 11202 2//// 30212 40230 52019;","","","","","","","","","",""
"01016099999","2010-11-18T18:00:00","78.9333333","28.9","20.0","KONGSOYA, NO","FM-12","4","","","-5","","","-0.07","2","","","30.23","30.18","","","360","","11","","","","","","","","","","","","","","","","","","","","","","","","","","","","","","","","","","","","","","","","","","","","","","","","","","","","","","","","","","","","","","","","","","","","","","","","","","","","","","","","","","","","","","","","","","","SYN060AAXX  18171 01016 46/// /3605 11207 2//// 30220 40237 52024;","","","","","","","","","",""
"01016099999","2010-11-18T19:00:00","78.9333333","28.9","20.0","KONGSOYA, NO","FM-12","4","","","-6","","","-0.07","2","","","30.25","30.20","","","340","","4","","","","","","","","","","","","","","","","","","","","","","","","","","","","","","","","","","","","","","","","","","","","","","","","","","","","","","","","","","","","","","","","","","","","","","","","","","","","","","","","","","","","","","","","","","","SYN076AAXX  18181 01016 46/// /3402 11210 2//// 30227 40245 52025 333 11175 91108;","","","","","","","","","",""
"01016099999","2010-11-18T20:00:00","78.9333333","28.9","20.0","KONGSOYA, NO","FM-12","4","","","-4","","","-0.07","3","","","30.26","30.21","","","010","","7","","","","","","","","","","","","","","","","","","","","","","","","","","","","","","","","","","","","","","","","","","","","","","","","","","","","","","","","","","","","","","","","","","","","","","","","","","","","","","","","","","","","","","","","","","","SYN060AAXX  18191 01016 46/// /0103 11198 2//// 30231 40248 53023;","","","","","","","","","",""
"01016099999","2010-11-18T21:00:00","78.9333333","28.9","20.0","KONGSOYA, NO","FM-12","4","","","-6","","","-0.06","2","","","30.28","30.23","","","010","","4","","","","","","","","","","","","","","","","","","","","","","","","","","","","","","","","","","","","","","","","","","","","","","","","","","","","","","","","","","","","","","","","","","","","","","","","","","","","","","","","","","","","","","","","","","","SYN060AAXX  18201 01016 46/// /0102 11209 2//// 30236 40253 52021;","","","","","","","","","",""
"01016099999","2010-11-18T22:00:00","78.9333333","28.9","20.0","KONGSOYA, NO","FM-12","4","","","-8","","","-0.05","2","","","30.29","30.24","","","350","","7","","","","","","","","","","","","","","","","","","","","","","","","","","","","","","","","","","","","","","","","","","","","","","","","","","","","","","","","","","","","","","","","","","","","","","","","","","","","","","","","","","","","","","","","","","","SYN060AAXX  18211 01016 46/// /3503 11221 2//// 30239 40256 52016;","","","","","","","","","",""
"01016099999","2010-11-18T23:00:00","78.9333333","28.9","20.0","KONGSOYA, NO","FM-12","4","","","-9","","","-0.05","2","","","30.30","30.24","","","350","","7","","","","","","","","","","","","","","","","","","","","","","","","","","","","","","","","","","","","","","","","","","","","","","","","","","","","","","","","","","","","","","","","","","","","","","","","","","","","","","","","","","","","","","","","","","","SYN060AAXX  18221 01016 46/// /3503 11229 2//// 30242 40260 52017;","","","","","","","","","",""
"01016099999","2010-11-19T00:00:00","78.9333333","28.9","20.0","KONGSOYA, NO","FM-12","4","","","-7","","","-0.04","2","","","30.31","30.25","","","","","","","","","","","","","","","","","","","","","","","","","","","","","","","","","","","","","","","","","","","","","","","","","","","","","","","","","","","","","","","","","","","","","","","","","","","","","","","","","","","","","","","","","","","","","","","","SYN060AAXX  18231 01016 46/// ///// 11219 2//// 30245 40263 52014;","","","","","","","","","",""
"01016099999","2010-11-19T01:00:00","78.9333333","28.9","20.0","KONGSOYA, NO","FM-12","4","","","-4","","","-0.04","2","","","30.31","30.26","","","010","","7","","","","","","","","","","","","","","","","","","","","","","","","","","","","","","","","","","","","","","","","","","","","","","","","","","","","","","","","","","","","","","","","","","","","","","","","","","","","","","","","","","","","","","","","","","","SYN070AAXX  19001 01016 46/// /0103 11201 2//// 30247 40264 52013 333 91104;","","","","","","","","","",""
"01016099999","2010-11-19T02:00:00","78.9333333","28.9","20.0","KONGSOYA, NO","FM-12","4","","","-5","","","-0.03","2","","","30.31","30.26","","","330","","4","","","","","","","","","","","","","","","","","","","","","","","","","","","","","","","","","","","","","","","","","","","","","","","","","","","","","","","","","","","","","","","","","","","","","","","","","","","","","","","","","","","","","","","","","","","SYN060AAXX  19011 01016 46/// /3302 11204 2//// 30248 40265 52010;","","","","","","","","","",""
"01016099999","2010-11-19T03:00:00","78.9333333","28.9","20.0","KONGSOYA, NO","FM-12","4","","","-6","","","-0.03","2","","","30.32","30.27","","","010","","7","","","","","","","","","","","","","","","","","","","","","","","","","","","","","","","","","","","","","","","","","","","","","","","","","","","","","","","","","","","","","","","","","","","","","","","","","","","","","","","","","","","","","","","","","","","SYN060AAXX  19021 01016 46/// /0103 11211 2//// 30249 40266 52009;","","","","","","","","","",""
"01016099999","2010-11-19T04:00:00","78.9333333","28.9","20.0","KONGSOYA, NO","FM-12","4","","","-6","","","-0.03","2","","","30.32","30.27","","","040","","7","","","","","","","","","","","","","","","","","","","","","","","","","","","","","","","","","","","","","","","","","","","","","","","","","","","","","","","","","","","","","","","","","","","","","","","","","","","","","","","","","","","","","","","","","","","SYN060AAXX  19031 01016 46/// /0403 11212 2//// 30252 40269 52009;","","","","","","","","","",""
"01016099999","2010-11-19T05:00:00","78.9333333","28.9","20.0","KONGSOYA, NO","FM-12","4","","","-7","","","-0.03","2","","","30.33","30.28","","","040","","4","","","","","","","","","","","","","","","","","","","","","","","","","","","","","","","","","","","","","","","","","","","","","","","","","","","","","","","","","","","","","","","","","","","","","","","","","","","","","","","","","","","","","","","","","","","SYN060AAXX  19041 01016 46/// /0402 11219 2//// 30253 40271 52011;","","","","","","","","","",""
"01016099999","2010-11-19T06:00:00","78.9333333","28.9","20.0","KONGSOYA, NO","FM-12","4","","","-9","","","-0.04","2","","","30.34","30.29","","","020","","4","","","","","","","","","","","","","","","","","","","","","","","","","","","","","","","","","","","","","","","","","","","","","","","","","","","","","","","","","","","","","","","","","","","","","","","","","","","","","","","","","","","","","","","","","","","SYN060AAXX  19051 01016 46/// /0202 11226 2//// 30258 40275 52014;","","","","","","","","","",""
"01016099999","2010-11-19T07:00:00","78.9333333","28.9","20.0","KONGSOYA, NO","FM-12","4","","","-6","","","-0.04","2","","","30.35","30.30","","","010","","4","","","","","","","","","","","","","","","","","","","","","","","","","","","","","","","","","","","","","","","","","","","","","","","","","","","","","","","","","","","","","","","","","","","","","","","","","","","","","","","","","","","","","","","","","","","SYN076AAXX  19061 01016 46/// /0102 11211 2//// 30260 40277 52014 333 21231 91104;","","","","","","","","","",""
"01016099999","2010-11-19T08:00:00","78.9333333","28.9","20.0","KONGSOYA, NO","FM-12","4","","","-8","","","-0.05","2","","","30.36","30.31","","","","","","","","","","","","","","","","","","","","","","","","","","","","","","","","","","","","","","","","","","","","","","","","","","","","","","","","","","","","","","","","","","","","","","","","","","","","","","","","","","","","","","","","","","","","","","","","SYN060AAXX  19071 01016 46/// ///// 11222 2//// 30264 40281 52016;","","","","","","","","","",""
"01016099999","2010-11-19T09:00:00","78.9333333","28.9","20.0","KONGSOYA, NO","FM-12","4","","","-7","","","-0.04","2","","","30.37","30.32","","","000","","0","","","","","","","","","","","","","","","","","","","","","","","","","","","","","","","","","","","","","","","","","","","","","","","","","","","","","","","","","","","","","","","","","","","","","","","","","","","","","","","","","","","","","","","","","","","SYN060AAXX  19081 01016 46/// /0000 11214 2//// 30268 40285 52015;","","","","","","","","","",""
"01016099999","2010-11-19T10:00:00","78.9333333","28.9","20.0","KONGSOYA, NO","FM-12","4","","","-9","","","-0.04","2","","","30.38","30.33","","","020","","2","","","","","","","","","","","","","","","","","","","","","","","","","","","","","","","","","","","","","","","","","","","","","","","","","","","","","","","","","","","","","","","","","","","","","","","","","","","","","","","","","","","","","","","","","","","SYN060AAXX  19091 01016 46/// /0201 11230 2//// 30270 40288 52015;","","","","","","","","","",""
"01016099999","2010-11-19T11:00:00","78.9333333","28.9","20.0","KONGSOYA, NO","FM-12","4","","","-6","","","-0.04","2","","","30.38","30.33","","","000","","0","","","","","","","","","","","","","","","","","","","","","","","","","","","","","","","","","","","","","","","","","","","","","","","","","","","","","","","","","","","","","","","","","","","","","","","","","","","","","","","","","","","","","","","","","","","SYN060AAXX  19101 01016 46/// /0000 11209 2//// 30272 40289 52013;","","","","","","","","","",""
"01016099999","2010-11-19T12:00:00","78.9333333","28.9","20.0","KONGSOYA, NO","FM-12","4","","","-4","","","+0.02","5","","","30.37","30.32","","","000","","0","","","","","","","","","","","","","","","","","","","","","","","","","","","","","","","","","","","","","","","","","","","","","","","","","","","","","","","","","","","","","","","","","","","","","","","","","","","","","","","","","","","","","","","","","","","SYN060AAXX  19111 01016 46/// /0000 11201 2//// 30268 40285 55006;","","","","","","","","","",""
"01016099999","2010-11-19T13:00:00","78.9333333","28.9","20.0","KONGSOYA, NO","FM-12","4","","","3","","","+0.00","6","","","30.36","30.31","","","200","","9","","","","","","","","","","","","","","","","","","","","","","","","","","","","","","","","","","","","","","","","","","","","","","","","","","","","","","","","","","","","","","","","","","","","","","","","","","","","","","","","","","","","","","","","","","","SYN070AAXX  19121 01016 46/// /2004 11160 2//// 30264 40281 56001 333 91105;","","","","","","","","","",""
"01016099999","2010-11-19T14:00:00","78.9333333","28.9","20.0","KONGSOYA, NO","FM-12","4","","","4","","","+0.01","7","","","30.37","30.32","","","210","","7","","","","","","","","","","","","","","","","","","","","","","","","","","","","","","","","","","","","","","","","","","","","","","","","","","","","","","","","","","","","","","","","","","","","","","","","","","","","","","","","","","","","","","","","","","","SYN060AAXX  19131 01016 46/// /2103 11157 2//// 30267 40284 58000;","","","","","","","","","",""
"01016099999","2010-11-19T15:00:00","78.9333333","28.9","20.0","KONGSOYA, NO","FM-12","4","","","6","","","+0.00","7","","","30.36","30.31","","","210","","13","","","","","","","","","","","","","","","","","","","","","","","","","","","","","","","","","","","","","","","","","","","","","","","","","","","","","","","","","","","","","","","","","","","","","","","","","","","","","","","","","","","","","","","","","","","SYN060AAXX  19141 01016 46/// /2106 11147 2//// 30264 40281 57001;","","","","","","","","","",""
"01016099999","2010-11-19T16:00:00","78.9333333","28.9","20.0","KONGSOYA, NO","FM-12","4","","","7","","","+0.01","6","","","30.35","30.30","","","210","","13","","","","","","","","","","","","","","","","","","","","","","","","","","","","","","","","","","","","","","","","","","","","","","","","","","","","","","","","","","","","","","","","","","","","","","","","","","","","","","","","","","","","","","","","","","","SYN060AAXX  19151 01016 46/// /2106 11140 2//// 30261 40278 56002;","","","","","","","","","",""
"01016099999","2010-11-19T17:00:00","78.9333333","28.9","20.0","KONGSOYA, NO","FM-12","4","","","8","","","+0.01","7","","","30.35","30.30","","","210","","11","","","","","","","","","","","","","","","","","","","","","","","","","","","","","","","","","","","","","","","","","","","","","","","","","","","","","","","","","","","","","","","","","","","","","","","","","","","","","","","","","","","","","","","","","","","SYN060AAXX  19161 01016 46/// /2105 11132 2//// 30260 40277 57002;","","","","","","","","","",""
"01016099999","2010-11-19T18:00:00","78.9333333","28.9","20.0","KONGSOYA, NO","FM-12","4","","","9","","","+0.01","7","","","30.35","30.29","","","210","","13","","","","","","","","","","","","","","","","","","","","","","","","","","","","","","","","","","","","","","","","","","","","","","","","","","","","","","","","","","","","","","","","","","","","","","","","","","","","","","","","","","","","","","","","","","","SYN060AAXX  19171 01016 46/// /2106 11126 2//// 30259 40276 57000;","","","","","","","","","",""
"01016099999","2010-11-19T19:00:00","78.9333333","28.9","20.0","KONGSOYA, NO","FM-12","4","","","10","","","+0.01","6","","","30.33","30.28","","","210","","13","","","","","","","","","","","","","","","","","","","","","","","","","","","","","","","","","","","","","","","","","","","","","","","","","","","","","","","","","","","","","","","","","","","","","","","","","","","","","","","","","","","","","","","","","","","SYN076AAXX  19181 01016 46/// /2106 11121 2//// 30253 40270 56002 333 11121 91107;","","","","","","","","","",""
"01016099999","2010-11-19T20:00:00","78.9333333","28.9","20.0","KONGSOYA, NO","FM-12","4","","","11","","","+0.02","6","","","30.31","30.26","","","200","","13","","","","","","","","","","","","","","","","","","","","","","","","","","","","","","","","","","","","","","","","","","","","","","","","","","","","","","","","","","","","","","","","","","","","","","","","","","","","","","","","","","","","","","","","","","","SYN060AAXX  19191 01016 46/// /2006 11116 2//// 30248 40264 56007;","","","","","","","","","",""
"01016099999","2010-11-19T21:00:00","78.9333333","28.9","20.0","KONGSOYA, NO","FM-12","4","","","12","","","+0.04","7","","","30.29","30.24","","","180","","13","","","","","","","","","","","","","","","","","","","","","","","","","","","","","","","","","","","","","","","","","","","","","","","","","","","","","","","","","","","","","","","","","","","","","","","","","","","","","","","","","","","","","","","","","","","SYN060AAXX  19201 01016 46/// /1806 11112 2//// 30241 40258 57013;","","","","","","","","","",""
"01016099999","2010-11-19T22:00:00","78.9333333","28.9","20.0","KONGSOYA, NO","FM-12","4","","","12","","","+0.04","7","","","30.28","30.23","","","160","","16","","","","","","","","","","","","","","","","","","","","","","","","","","","","","","","","","","","","","","","","","","","","","","","","","","","","","","","","","","","","","","","","","","","","","","","","","","","","","","","","","","","","","","","","","","","SYN060AAXX  19211 01016 46/// /1607 11110 2//// 30237 40253 57012;","","","","","","","","","",""
"01016099999","2010-11-19T23:00:00","78.9333333","28.9","20.0","KONGSOYA, NO","FM-12","4","","","13","","","+0.04","7","","","30.25","30.21","","","170","","13","","","","","","","","","","","","","","","","","","","","","","","","","","","","","","","","","","","","","","","","","","","","","","","","","","","","","","","","","","","","","","","","","","","","","","","","","","","","","","","","","","","","","","","","","","","SYN060AAXX  19221 01016 46/// /1706 11104 2//// 30229 40245 57014;","","","","","","","","","",""
"01016099999","2010-11-20T00:00:00","78.9333333","28.9","20.0","KONGSOYA, NO","FM-12","4","","","14","","","+0.04","6","","","30.23","30.18","","","210","","11","","","","","","","","","","","","","","","","","","","","","","","","","","","","","","","","","","","","","","","","","","","","","","","","","","","","","","","","","","","","","","","","","","","","","","","","","","","","","","","","","","","","","","","","","","","SYN060AAXX  19231 01016 46/// /2105 11100 2//// 30221 40237 56015;","","","","","","","","","",""
"01016099999","2010-11-20T01:00:00","78.9333333","28.9","20.0","KONGSOYA, NO","FM-12","4","","","9","","","+0.05","7","","","30.21","30.16","","","230","","2","","","","","","","","","","","","","","","","","","","","","","","","","","","","","","","","","","","","","","","","","","","","","","","","","","","","","","","","","","","","","","","","","","","","","","","","","","","","","","","","","","","","","","","","","","","SYN070AAXX  20001 01016 46/// /2301 11126 2//// 30214 40231 57018 333 91108;","","","","","","","","","",""
"01016099999","2010-11-20T02:00:00","78.9333333","28.9","20.0","KONGSOYA, NO","FM-12","4","","","8","","","+0.06","7","","","30.18","30.14","","","180","","2","","","","","","","","","","","","","","","","","","","","","","","","","","","","","","","","","","","","","","","","","","","","","","","","","","","","","","","","","","","","","","","","","","","","","","","","","","","","","","","","","","","","","","","","","","","SYN060AAXX  20011 01016 46/// /1801 11132 2//// 30205 40221 57019;","","","","","","","","","",""
"01016099999","2010-11-20T03:00:00","78.9333333","28.9","20.0","KONGSOYA, NO","FM-12","4","","","14","","","+0.04","7","","","30.17","30.12","","","190","","7","","","","","","","","","","","","","","","","","","","","","","","","","","","","","","","","","","","","","","","","","","","","","","","","","","","","","","","","","","","","","","","","","","","","","","","","","","","","","","","","","","","","","","","","","","","SYN060AAXX  20021 01016 46/// /1903 11098 2//// 30201 40217 57015;","","","","","","","","","",""
"01016099999","2010-11-20T04:00:00","78.9333333","28.9","20.0","KONGSOYA, NO","FM-12","4","","","13","","","+0.05","7","","","30.15","30.10","","","150","","7","","","","","","","","","","","","","","","","","","","","","","","","","","","","","","","","","","","","","","","","","","","","","","","","","","","","","","","","","","","","","","","","","","","","","","","","","","","","","","","","","","","","","","","","","","","SYN060AAXX  20031 01016 46/// /1503 11105 2//// 30192 40209 57017;","","","","","","","","","",""
"01016099999","2010-11-20T05:00:00","78.9333333","28.9","20.0","KONGSOYA, NO","FM-12","4","","","13","","","+0.04","6","","","30.12","30.07","","","130","","9","","","","","","","","","","","","","","","","","","","","","","","","","","","","","","","","","","","","","","","","","","","","","","","","","","","","","","","","","","","","","","","","","","","","","","","","","","","","","","","","","","","","","","","","","","","SYN060AAXX  20041 01016 46/// /1304 11105 2//// 30184 40201 56015;","","","","","","","","","",""
"01016099999","2010-11-20T06:00:00","78.9333333","28.9","20.0","KONGSOYA, NO","FM-12","4","","","13","","","+0.04","8","","","30.11","30.06","","","130","","7","","","","","","","","","","","","","","","","","","","","","","","","","","","","","","","","","","","","","","","","","","","","","","","","","","","","","","","","","","","","","","","","","","","","","","","","","","","","","","","","","","","","","","","","","","","SYN060AAXX  20051 01016 46/// /1303 11104 2//// 30181 40198 58014;","","","","","","","","","",""
"01016099999","2010-11-20T07:00:00","78.9333333","28.9","20.0","KONGSOYA, NO","FM-12","4","","","16","","","+0.03","8","","","30.10","30.05","","","120","","7","","","","","","","","","","","","","","","","","","","","","","","","","","","","","","","","","","","","","","","","","","","","","","","","","","","","","","","","","","","","","","","","","","","","","","","","","","","","","","","","","","","","","","","","","","","SYN076AAXX  20061 01016 46/// /1203 11087 2//// 30177 40193 58011 333 21140 91104;","","","","","","","","","",""
"01016099999","2010-11-20T08:00:00","78.9333333","28.9","20.0","KONGSOYA, NO","FM-12","4","","","8","","","+0.01","7","","","30.10","30.05","","","110","","2","","","","","","","","","","","","","","","","","","","","","","","","","","","","","","","","","","","","","","","","","","","","","","","","","","","","","","","","","","","","","","","","","","","","","","","","","","","","","","","","","","","","","","","","","","","SYN060AAXX  20071 01016 46/// /1101 11133 2//// 30176 40193 57003;","","","","","","","","","",""
"01016099999","2010-11-20T09:00:00","78.9333333","28.9","20.0","KONGSOYA, NO","FM-12","4","","","9","","","+0.00","8","","","30.10","30.05","","","040","","7","","","","","","","","","","","","","","","","","","","","","","","","","","","","","","","","","","","","","","","","","","","","","","","","","","","","","","","","","","","","","","","","","","","","","","","","","","","","","","","","","","","","","","","","","","","SYN060AAXX  20081 01016 46/// /0403 11130 2//// 30177 40194 58001;","","","","","","","","","",""
"01016099999","2010-11-20T10:00:00","78.9333333","28.9","20.0","KONGSOYA, NO","FM-12","4","","","6","","","0.00","4","","","30.10","30.05","","","040","","9","","","","","","","","","","","","","","","","","","","","","","","","","","","","","","","","","","","","","","","","","","","","","","","","","","","","","","","","","","","","","","","","","","","","","","","","","","","","","","","","","","","","","","","","","","","SYN060AAXX  20091 01016 46/// /0404 11142 2//// 30177 40194 54006;","","","","","","","","","",""
"01016099999","2010-11-20T11:00:00","78.9333333","28.9","20.0","KONGSOYA, NO","FM-12","4","","","6","","","0.00","4","","","30.11","30.06","","","040","","9","","","","","","","","","","","","","","","","","","","","","","","","","","","","","","","","","","","","","","","","","","","","","","","","","","","","","","","","","","","","","","","","","","","","","","","","","","","","","","","","","","","","","","","","","","","SYN060AAXX  20101 01016 46/// /0404 11144 2//// 30179 40196 54008;","","","","","","","","","",""
"01016099999","2010-11-20T12:00:00","78.9333333","28.9","20.0","KONGSOYA, NO","FM-12","4","","","10","","","-0.04","1","","","30.12","30.07","","","030","","4","","","","","","","","","","","","","","","","","","","","","","","","","","","","","","","","","","","","","","","","","","","","","","","","","","","","","","","","","","","","","","","","","","","","","","","","","","","","","","","","","","","","","","","","","","","SYN060AAXX  20111 01016 46/// /0302 11124 2//// 30184 40200 51012;","","","","","","","","","",""
"01016099999","2010-11-20T13:00:00","78.9333333","28.9","20.0","KONGSOYA, NO","FM-12","4","","","8","","","-0.04","2","","","30.12","30.08","","","030","","4","","","","","","","","","","","","","","","","","","","","","","","","","","","","","","","","","","","","","","","","","","","","","","","","","","","","","","","","","","","","","","","","","","","","","","","","","","","","","","","","","","","","","","","","","","","SYN070AAXX  20121 01016 46/// /0302 11136 2//// 30185 40201 52012 333 91105;","","","","","","","","","",""
"01016099999","2010-11-20T14:00:00","78.9333333","28.9","20.0","KONGSOYA, NO","FM-12","4","","","13","","","-0.02","3","","","30.12","30.07","","","100","","4","","","","","","","","","","","","","","","","","","","","","","","","","","","","","","","","","","","","","","","","","","","","","","","","","","","","","","","","","","","","","","","","","","","","","","","","","","","","","","","","","","","","","","","","","","","SYN060AAXX  20131 01016 46/// /1002 11103 2//// 30183 40199 53008;","","","","","","","","","",""
"01016099999","2010-11-20T15:00:00","78.9333333","28.9","20.0","KONGSOYA, NO","FM-12","4","","","10","","","-0.04","1","","","30.14","30.09","","","330","","7","","","","","","","","","","","","","","","","","","","","","","","","","","","","","","","","","","","","","","","","","","","","","","","","","","","","","","","","","","","","","","","","","","","","","","","","","","","","","","","","","","","","","","","","","","","SYN060AAXX  20141 01016 46/// /3303 11122 2//// 30190 40207 51012;","","","","","","","","","",""
"01016099999","2010-11-20T16:00:00","78.9333333","28.9","20.0","KONGSOYA, NO","FM-12","4","","","12","","","-0.04","1","","","30.15","30.10","","","340","","9","","","","","","","","","","","","","","","","","","","","","","","","","","","","","","","","","","","","","","","","","","","","","","","","","","","","","","","","","","","","","","","","","","","","","","","","","","","","","","","","","","","","","","","","","","","SYN060AAXX  20151 01016 46/// /3404 11112 2//// 30193 40210 51013;","","","","","","","","","",""
"01016099999","2010-11-20T17:00:00","78.9333333","28.9","20.0","KONGSOYA, NO","FM-12","4","","","13","","","-0.06","3","","","30.16","30.11","","","010","","16","","","","","","","","","","","","","","","","","","","","","","","","","","","","","","","","","","","","","","","","","","","","","","","","","","","","","","","","","","","","","","","","","","","","","","","","","","","","","","","","","","","","","","","","","","","SYN060AAXX  20161 01016 46/// /0107 11108 2//// 30197 40214 53019;","","","","","","","","","",""
"01016099999","2010-11-20T18:00:00","78.9333333","28.9","20.0","KONGSOYA, NO","FM-12","4","","","8","","","-0.07","1","","","30.19","30.14","","","010","","18","","","","","","","","","","","","","","","","","","","","","","","","","","","","","","","","","","","","","","","","","","","","","","","","","","","","","","","","","","","","","","","","","","","","","","","","","","","","","","","","","","","","","","","","","","","SYN060AAXX  20171 01016 46/// /0108 11134 2//// 30208 40225 51023;","","","","","","","","","",""
"01016099999","2010-11-20T19:00:00","78.9333333","28.9","20.0","KONGSOYA, NO","FM-12","4","","","3","","","-0.09","1","","","30.22","30.17","","","360","","22","","","","","","","","","","","","","","","","","","","","","","","","","","","","","","","","","","","","","","","","","","","","","","","","","","","","","","","","","","","","","","","","","","","","","","","","","","","","","","","","","","","","","","","","","","","SYN076AAXX  20181 01016 46/// /3610 11162 2//// 30217 40234 51029 333 11087 91113;","","","","","","","","","",""
"01016099999","2010-11-20T20:00:00","78.9333333","28.9","20.0","KONGSOYA, NO","FM-12","4","","","0","","","-0.10","2","","","30.25","30.20","","","360","","27","","","","","","","","","","","","","","","","","","","","","","","","","","","","","","","","","","","","","","","","","","","","","","","","","","","","","","","","","","","","","","","","","","","","","","","","","","","","","","","","","","","","","","","","","","","SYN060AAXX  20191 01016 46/// /3612 11175 2//// 30226 40243 52034;","","","","","","","","","",""
"01016099999","2010-11-20T21:00:00","78.9333333","28.9","20.0","KONGSOYA, NO","FM-12","4","","","-3","","","-0.09","2","","","30.27","30.22","","","010","","25","","","","","","","","","","","","","","","","","","","","","","","","","","","","","","","","","","","","","","","","","","","","","","","","","","","","","","","","","","","","","","","","","","","","","","","","","","","","","","","","","","","","","","","","","","","SYN060AAXX  20201 01016 46/// /0111 11195 2//// 30232 40250 52029;","","","","","","","","","",""
"01016099999","2010-11-20T22:00:00","78.9333333","28.9","20.0","KONGSOYA, NO","FM-12","4","","","-4","","","-0.08","2","","","30.28","30.23","","","360","","25","","","","","","","","","","","","","","","","","","","","","","","","","","","","","","","","","","","","","","","","","","","","","","","","","","","","","","","","","","","","","","","","","","","","","","","","","","","","","","","","","","","","","","","","","","","SYN060AAXX  20211 01016 46/// /3611 11202 2//// 30238 40255 52026;","","","","","","","","","",""
"01016099999","2010-11-20T23:00:00","78.9333333","28.9","20.0","KONGSOYA, NO","FM-12","4","","","-5","","","-0.06","2","","","30.29","30.24","","","010","","22","","","","","","","","","","","","","","","","","","","","","","","","","","","","","","","","","","","","","","","","","","","","","","","","","","","","","","","","","","","","","","","","","","","","","","","","","","","","","","","","","","","","","","","","","","","SYN060AAXX  20221 01016 46/// /0110 11207 2//// 30242 40259 52021;","","","","","","","","","",""
"01016099999","2010-11-21T00:00:00","78.9333333","28.9","20.0","KONGSOYA, NO","FM-12","4","","","-7","","","-0.06","2","","","30.31","30.26","","","010","","20","","","","","","","","","","","","","","","","","","","","","","","","","","","","","","","","","","","","","","","","","","","","","","","","","","","","","","","","","","","","","","","","","","","","","","","","","","","","","","","","","","","","","","","","","","","SYN060AAXX  20231 01016 46/// /0109 11214 2//// 30248 40265 52021;","","","","","","","","","",""
"01016099999","2010-11-21T01:00:00","78.9333333","28.9","20.0","KONGSOYA, NO","FM-12","4","","","-6","","","-0.06","2","","","30.33","30.28","","","010","","22","","","","","","","","","","","","","","","","","","","","","","","","","","","","","","","","","","","","","","","","","","","","","","","","","","","","","","","","","","","","","","","","","","","","","","","","","","","","","","","","","","","","","","","","","","","SYN070AAXX  21001 01016 46/// /0110 11213 2//// 30254 40271 52021 333 91115;","","","","","","","","","",""
"01016099999","2010-11-21T04:00:00","78.9333333","28.9","20.0","KONGSOYA, NO","FM-12","4","","","-8","","","+0.01","7","","","30.31","30.26","","","350","","20","","","","","","","","","","","","","","","","","","","","","","","","","","","","","","","","","","","","","","","","","","","","","","","","","","","","","","","","","","","","","","","","","","","","","","","","","","","","","","","","","","","","","","","","","","","SYN060AAXX  21031 01016 46/// /3509 11220 2//// 30247 40264 57002;","","","","","","","","","",""
"01016099999","2010-11-21T05:00:00","78.9333333","28.9","20.0","KONGSOYA, NO","FM-12","4","","","-8","","","+0.03","6","","","30.29","30.23","","","360","","20","","","","","","","","","","","","","","","","","","","","","","","","","","","","","","","","","","","","","","","","","","","","","","","","","","","","","","","","","","","","","","","","","","","","","","","","","","","","","","","","","","","","","","","","","","","SYN060AAXX  21041 01016 46/// /3609 11221 2//// 30238 40256 56009;","","","","","","","","","",""
"01016099999","2010-11-21T06:00:00","78.9333333","28.9","20.0","KONGSOYA, NO","FM-12","4","","","-6","","","+0.04","6","","","30.27","30.22","","","010","","16","","","","","","","","","","","","","","","","","","","","","","","","","","","","","","","","","","","","","","","","","","","","","","","","","","","","","","","","","","","","","","","","","","","","","","","","","","","","","","","","","","","","","","","","","","","SYN060AAXX  21051 01016 46/// /0107 11212 2//// 30232 40249 56013;","","","","","","","","","",""
"01016099999","2010-11-21T07:00:00","78.9333333","28.9","20.0","KONGSOYA, NO","FM-12","4","","","-7","","","+0.05","7","","","30.24","30.19","","","030","","13","","","","","","","","","","","","","","","","","","","","","","","","","","","","","","","","","","","","","","","","","","","","","","","","","","","","","","","","","","","","","","","","","","","","","","","","","","","","","","","","","","","","","","","","","","","SYN060AAXX  21061 01016 46/// /0306 11217 2//// 30225 40242 57017;","","","","","","","","","",""
"01016099999","2010-11-21T08:00:00","78.9333333","28.9","20.0","KONGSOYA, NO","FM-12","4","","","-6","","","+0.03","8","","","30.24","30.19","","","020","","11","","","","","","","","","","","","","","","","","","","","","","","","","","","","","","","","","","","","","","","","","","","","","","","","","","","","","","","","","","","","","","","","","","","","","","","","","","","","","","","","","","","","","","","","","","","SYN060AAXX  21071 01016 46/// /0205 11212 2//// 30225 40242 58009;","","","","","","","","","",""
"01016099999","2010-11-21T09:00:00","78.9333333","28.9","20.0","KONGSOYA, NO","FM-12","4","","","-6","","","+0.02","8","","","30.23","30.18","","","020","","16","","","","","","","","","","","","","","","","","","","","","","","","","","","","","","","","","","","","","","","","","","","","","","","","","","","","","","","","","","","","","","","","","","","","","","","","","","","","","","","","","","","","","","","","","","","SYN060AAXX  21081 01016 46/// /0207 11210 2//// 30221 40238 58006;","","","","","","","","","",""
"01016099999","2010-11-21T10:00:00","78.9333333","28.9","20.0","KONGSOYA, NO","FM-12","4","","","-5","","","+0.01","6","","","30.22","30.17","","","030","","16","","","","","","","","","","","","","","","","","","","","","","","","","","","","","","","","","","","","","","","","","","","","","","","","","","","","","","","","","","","","","","","","","","","","","","","","","","","","","","","","","","","","","","","","","","","SYN060AAXX  21091 01016 46/// /0307 11207 2//// 30217 40234 56003;","","","","","","","","","",""
"01016099999","2010-11-21T11:00:00","78.9333333","28.9","20.0","KONGSOYA, NO","FM-12","4","","","-5","","","+0.02","7","","","30.21","30.16","","","050","","13","","","","","","","","","","","","","","","","","","","","","","","","","","","","","","","","","","","","","","","","","","","","","","","","","","","","","","","","","","","","","","","","","","","","","","","","","","","","","","","","","","","","","","","","","","","SYN060AAXX  21101 01016 46/// /0506 11205 2//// 30212 40229 57007;","","","","","","","","","",""
"01016099999","2010-11-21T12:00:00","78.9333333","28.9","20.0","KONGSOYA, NO","FM-12","4","","","-6","","","-0.01","0","","","30.23","30.17","","","040","","18","","","","","","","","","","","","","","","","","","","","","","","","","","","","","","","","","","","","","","","","","","","","","","","","","","","","","","","","","","","","","","","","","","","","","","","","","","","","","","","","","","","","","","","","","","","SYN060AAXX  21111 01016 46/// /0408 11213 2//// 30218 40236 50003;","","","","","","","","","",""
"01016099999","2010-11-21T13:00:00","78.9333333","28.9","20.0","KONGSOYA, NO","FM-12","4","","","-9","","","-0.03","0","","","30.23","30.18","","","040","","16","","","","","","","","","","","","","","","","","","","","","","","","","","","","","","","","","","","","","","","","","","","","","","","","","","","","","","","","","","","","","","","","","","","","","","","","","","","","","","","","","","","","","","","","","","","SYN070AAXX  21121 01016 46/// /0407 11225 2//// 30221 40238 50009 333 91109;","","","","","","","","","",""
"01016099999","2010-11-21T15:00:00","78.9333333","28.9","20.0","KONGSOYA, NO","FM-12","4","","","-10","","","-0.03","2","","","30.24","30.19","","","030","","16","","","","","","","","","","","","","","","","","","","","","","","","","","","","","","","","","","","","","","","","","","","","","","","","","","","","","","","","","","","","","","","","","","","","","","","","","","","","","","","","","","","","","","","","","","","SYN060AAXX  21141 01016 46/// /0307 11233 2//// 30224 40241 52010;","","","","","","","","","",""
"01016099999","2010-11-21T16:00:00","78.9333333","28.9","20.0","KONGSOYA, NO","FM-12","4","","","-9","","","-0.04","1","","","30.26","30.21","","","010","","20","","","","","","","","","","","","","","","","","","","","","","","","","","","","","","","","","","","","","","","","","","","","","","","","","","","","","","","","","","","","","","","","","","","","","","","","","","","","","","","","","","","","","","","","","","","SYN060AAXX  21151 01016 46/// /0109 11225 2//// 30231 40248 51015;","","","","","","","","","",""
"01016099999","2010-11-21T17:00:00","78.9333333","28.9","20.0","KONGSOYA, NO","FM-12","4","","","-9","","","-0.06","1","","","30.29","30.24","","","","","","","","","","","","","","","","","","","","","","","","","","","","","","","","","","","","","","","","","","","","","","","","","","","","","","","","","","","","","","","","","","","","","","","","","","","","","","","","","","","","","","","","","","","","","","","","SYN060AAXX  21161 01016 46/// ///// 11229 2//// 30240 40257 51021;","","","","","","","","","",""
"01016099999","2010-11-21T18:00:00","78.9333333","28.9","20.0","KONGSOYA, NO","FM-12","4","","","-10","","","-0.09","1","","","30.32","30.27","","","350","","27","","","","","","","","","","","","","","","","","","","","","","","","","","","","","","","","","","","","","","","","","","","","","","","","","","","","","","","","","","","","","","","","","","","","","","","","","","","","","","","","","","","","","","","","","","","SYN060AAXX  21171 01016 46/// /3512 11233 2//// 30250 40268 51031;","","","","","","","","","",""
"01016099999","2010-11-21T19:00:00","78.9333333","28.9","20.0","KONGSOYA, NO","FM-12","4","","","-12","","","-0.09","2","","","30.35","30.29","","","350","","29","","","","","","","","","","","","","","","","","","","","","","","","","","","","","","","","","","","","","","","","","","","","","","","","","","","","","","","","","","","","","","","","","","","","","","","","","","","","","","","","","","","","","","","","","","","SYN076AAXX  21181 01016 46/// /3513 11245 2//// 30258 40276 52032 333 11204 91115;","","","","","","","","","",""
"01016099999","2010-11-21T20:00:00","78.9333333","28.9","20.0","KONGSOYA, NO","FM-12","4","","","-13","","","-0.09","2","","","30.37","30.32","","","350","","34","","","","","","","","","","","","","","","","","","","","","","","","","","","","","","","","","","","","","","","","","","","","","","","","","","","","","","","","","","","","","","","","","","","","","","","","","","","","","","","","","","","","","","","","","","","SYN060AAXX  21191 01016 46/// /3515 11250 2//// 30267 40285 52032;","","","","","","","","","",""
"01016099999","2010-11-21T21:00:00","78.9333333","28.9","20.0","KONGSOYA, NO","FM-12","4","","","-14","","","-0.08","3","","","30.38","30.33","","","350","","34","","","","","","","","","","","","","","","","","","","","","","","","","","","","","","","","","","","","","","","","","","","","","","","","","","","","","","","","","","","","","","","","","","","","","","","","","","","","","","","","","","","","","","","","","","","SYN060AAXX  21201 01016 46/// /3515 11255 2//// 30271 40289 53026;","","","","","","","","","",""
"01016099999","2010-11-21T22:00:00","78.9333333","28.9","20.0","KONGSOYA, NO","FM-12","4","","","-15","","","-0.07","2","","","30.40","30.35","","","350","","36","","","","","","","","","","","","","","","","","","","","","","","","","","","","","","","","","","","","","","","","","","","","","","","","","","","","","","","","","","","","","","","","","","","","","","","","","","","","","","","","","","","","","","","","","","","SYN060AAXX  21211 01016 46/// /3516 11260 2//// 30278 40296 52025;","","","","","","","","","",""
"01016099999","2010-11-21T23:00:00","78.9333333","28.9","20.0","KONGSOYA, NO","FM-12","4","","","-15","","","-0.06","2","","","30.42","30.37","","","350","","29","","","","","","","","","","","","","","","","","","","","","","","","","","","","","","","","","","","","","","","","","","","","","","","","","","","","","","","","","","","","","","","","","","","","","","","","","","","","","","","","","","","","","","","","","","","SYN060AAXX  21221 01016 46/// /3513 11261 2//// 30284 40302 52022;","","","","","","","","","",""
"01016099999","2010-11-22T00:00:00","78.9333333","28.9","20.0","KONGSOYA, NO","FM-12","4","","","-15","","","-0.06","3","","","30.42","30.37","","","360","","31","","","","","","","","","","","","","","","","","","","","","","","","","","","","","","","","","","","","","","","","","","","","","","","","","","","","","","","","","","","","","","","","","","","","","","","","","","","","","","","","","","","","","","","","","","","SYN060AAXX  21231 01016 46/// /3614 11260 2//// 30285 40303 53019;","","","","","","","","","",""
"01016099999","2010-11-22T01:00:00","78.9333333","28.9","20.0","KONGSOYA, NO","FM-12","4","","","-14","","","-0.05","2","","","30.44","30.39","","","360","","34","","","","","","","","","","","","","","","","","","","","","","","","","","","","","","","","","","","","","","","","","","","","","","","","","","","","","","","","","","","","","","","","","","","","","","","","","","","","","","","","","","","","","","","","","","","SYN070AAXX  22001 01016 46/// /3615 11257 2//// 30290 40308 52017 333 91118;","","","","","","","","","",""
"01016099999","2010-11-22T02:00:00","78.9333333","28.9","20.0","KONGSOYA, NO","FM-12","4","","","-14","","","-0.04","2","","","30.44","30.39","","","360","","31","","","","","","","","","","","","","","","","","","","","","","","","","","","","","","","","","","","","","","","","","","","","","","","","","","","","","","","","","","","","","","","","","","","","","","","","","","","","","","","","","","","","","","","","","","","SYN060AAXX  22011 01016 46/// /3614 11255 2//// 30291 40309 52012;","","","","","","","","","",""
"01016099999","2010-11-22T03:00:00","78.9333333","28.9","20.0","KONGSOYA, NO","FM-12","4","","","-14","","","-0.05","2","","","30.46","30.41","","","360","","34","","","","","","","","","","","","","","","","","","","","","","","","","","","","","","","","","","","","","","","","","","","","","","","","","","","","","","","","","","","","","","","","","","","","","","","","","","","","","","","","","","","","","","","","","","","SYN060AAXX  22021 01016 46/// /3615 11256 2//// 30298 40316 52018;","","","","","","","","","",""
"01016099999","2010-11-22T04:00:00","78.9333333","28.9","20.0","KONGSOYA, NO","FM-12","4","","","-14","","","-0.04","2","","","30.46","30.41","","","","","","","","","","","","","","","","","","","","","","","","","","","","","","","","","","","","","","","","","","","","","","","","","","","","","","","","","","","","","","","","","","","","","","","","","","","","","","","","","","","","","","","","","","","","","","","","SYN060AAXX  22031 01016 46/// ///// 11253 2//// 30297 40315 52012;","","","","","","","","","",""
"01016099999","2010-11-22T05:00:00","78.9333333","28.9","20.0","KONGSOYA, NO","FM-12","4","","","-13","","","-0.05","2","","","30.47","30.42","","","360","","31","","","","","","","","","","","","","","","","","","","","","","","","","","","","","","","","","","","","","","","","","","","","","","","","","","","","","","","","","","","","","","","","","","","","","","","","","","","","","","","","","","","","","","","","","","","SYN060AAXX  22041 01016 46/// /3614 11249 2//// 30303 40320 52016;","","","","","","","","","",""
"01016099999","2010-11-22T06:00:00","78.9333333","28.9","20.0","KONGSOYA, NO","FM-12","4","","","-12","","","-0.03","2","","","30.47","30.42","","","360","","29","","","","","","","","","","","","","","","","","","","","","","","","","","","","","","","","","","","","","","","","","","","","","","","","","","","","","","","","","","","","","","","","","","","","","","","","","","","","","","","","","","","","","","","","","","","SYN060AAXX  22051 01016 46/// /3613 11247 2//// 30302 40320 52009;","","","","","","","","","",""
"01016099999","2010-11-22T07:00:00","78.9333333","28.9","20.0","KONGSOYA, NO","FM-12","4","","","-11","","","-0.04","2","","","30.48","30.43","","","360","","27","","","","","","","","","","","","","","","","","","","","","","","","","","","","","","","","","","","","","","","","","","","","","","","","","","","","","","","","","","","","","","","","","","","","","","","","","","","","","","","","","","","","","","","","","","","SYN076AAXX  22061 01016 46/// /3612 11241 2//// 30306 40323 52014 333 21262 91118;","","","","","","","","","",""
"01016099999","2010-11-22T08:00:00","78.9333333","28.9","20.0","KONGSOYA, NO","FM-12","4","","","-9","","","-0.03","2","","","30.49","30.44","","","360","","25","","","","","","","","","","","","","","","","","","","","","","","","","","","","","","","","","","","","","","","","","","","","","","","","","","","","","","","","","","","","","","","","","","","","","","","","","","","","","","","","","","","","","","","","","","","SYN060AAXX  22071 01016 46/// /3611 11229 2//// 30307 40325 52010;","","","","","","","","","",""
"01016099999","2010-11-22T09:00:00","78.9333333","28.9","20.0","KONGSOYA, NO","FM-12","4","","","-8","","","-0.05","1","","","30.51","30.46","","","360","","31","","","","","","","","","","","","","","","","","","","","","","","","","","","","","","","","","","","","","","","","","","","","","","","","","","","","","","","","","","","","","","","","","","","","","","","","","","","","","","","","","","","","","","","","","","","SYN060AAXX  22081 01016 46/// /3614 11223 2//// 30315 40332 51017;","","","","","","","","","",""
"01016099999","2010-11-22T10:00:00","78.9333333","28.9","20.0","KONGSOYA, NO","FM-12","4","","","-8","","","-0.04","2","","","30.51","30.46","","","350","","27","","","","","","","","","","","","","","","","","","","","","","","","","","","","","","","","","","","","","","","","","","","","","","","","","","","","","","","","","","","","","","","","","","","","","","","","","","","","","","","","","","","","","","","","","","","SYN060AAXX  22091 01016 46/// /3512 11224 2//// 30315 40333 52014;","","","","","","","","","",""
"01016099999","2010-11-22T11:00:00","78.9333333","28.9","20.0","KONGSOYA, NO","FM-12","4","","","-9","","","-0.05","3","","","30.52","30.47","","","350","","25","","","","","","","","","","","","","","","","","","","","","","","","","","","","","","","","","","","","","","","","","","","","","","","","","","","","","","","","","","","","","","","","","","","","","","","","","","","","","","","","","","","","","","","","","","","SYN060AAXX  22101 01016 46/// /3511 11226 2//// 30318 40336 53016;","","","","","","","","","",""
"01016099999","2010-11-22T12:00:00","78.9333333","28.9","20.0","KONGSOYA, NO","FM-12","4","","","-9","","","-0.02","2","","","30.52","30.47","","","350","","22","","","","","","","","","","","","","","","","","","","","","","","","","","","","","","","","","","","","","","","","","","","","","","","","","","","","","","","","","","","","","","","","","","","","","","","","","","","","","","","","","","","","","","","","","","","SYN060AAXX  22111 01016 46/// /3510 11225 2//// 30318 40336 52008;","","","","","","","","","",""
"01016099999","2010-11-22T13:00:00","78.9333333","28.9","20.0","KONGSOYA, NO","FM-12","4","","","-9","","","-0.04","2","","","30.53","30.48","","","350","","25","","","","","","","","","","","","","","","","","","","","","","","","","","","","","","","","","","","","","","","","","","","","","","","","","","","","","","","","","","","","","","","","","","","","","","","","","","","","","","","","","","","","","","","","","","","SYN070AAXX  22121 01016 46/// /3511 11227 2//// 30322 40339 52012 333 91116;","","","","","","","","","",""
"01016099999","2010-11-22T14:00:00","78.9333333","28.9","20.0","KONGSOYA, NO","FM-12","4","","","-9","","","0.00","4","","","30.52","30.47","","","360","","25","","","","","","","","","","","","","","","","","","","","","","","","","","","","","","","","","","","","","","","","","","","","","","","","","","","","","","","","","","","","","","","","","","","","","","","","","","","","","","","","","","","","","","","","","","","SYN060AAXX  22131 01016 46/// /3611 11225 2//// 30319 40336 54006;","","","","","","","","","",""
"01016099999","2010-11-22T15:00:00","78.9333333","28.9","20.0","KONGSOYA, NO","FM-12","4","","","-8","","","+0.02","5","","","30.53","30.47","","","010","","22","","","","","","","","","","","","","","","","","","","","","","","","","","","","","","","","","","","","","","","","","","","","","","","","","","","","","","","","","","","","","","","","","","","","","","","","","","","","","","","","","","","","","","","","","","","SYN060AAXX  22141 01016 46/// /0110 11224 2//// 30319 40337 55006;","","","","","","","","","",""
"01016099999","2010-11-22T16:00:00","78.9333333","28.9","20.0","KONGSOYA, NO","FM-12","4","","","-7","","","+0.01","7","","","30.52","30.47","","","360","","25","","","","","","","","","","","","","","","","","","","","","","","","","","","","","","","","","","","","","","","","","","","","","","","","","","","","","","","","","","","","","","","","","","","","","","","","","","","","","","","","","","","","","","","","","","","SYN060AAXX  22151 01016 46/// /3611 11218 2//// 30319 40336 57002;","","","","","","","","","",""
"01016099999","2010-11-22T17:00:00","78.9333333","28.9","20.0","KONGSOYA, NO","FM-12","4","","","-7","","","0.00","4","","","30.52","30.47","","","350","","29","","","","","","","","","","","","","","","","","","","","","","","","","","","","","","","","","","","","","","","","","","","","","","","","","","","","","","","","","","","","","","","","","","","","","","","","","","","","","","","","","","","","","","","","","","","SYN060AAXX  22161 01016 46/// /3513 11216 2//// 30318 40335 54004;","","","","","","","","","",""
"01016099999","2010-11-22T18:00:00","78.9333333","28.9","20.0","KONGSOYA, NO","FM-12","4","","","-6","","","+0.00","7","","","30.51","30.46","","","350","","22","","","","","","","","","","","","","","","","","","","","","","","","","","","","","","","","","","","","","","","","","","","","","","","","","","","","","","","","","","","","","","","","","","","","","","","","","","","","","","","","","","","","","","","","","","","SYN060AAXX  22171 01016 46/// /3510 11210 2//// 30315 40332 57001;","","","","","","","","","",""
"01016099999","2010-11-22T19:00:00","78.9333333","28.9","20.0","KONGSOYA, NO","FM-12","4","","","-5","","","0.00","4","","","30.51","30.46","","","350","","22","","","","","","","","","","","","","","","","","","","","","","","","","","","","","","","","","","","","","","","","","","","","","","","","","","","","","","","","","","","","","","","","","","","","","","","","","","","","","","","","","","","","","","","","","","","SYN076AAXX  22181 01016 46/// /3510 11205 2//// 30316 40333 54002 333 11205 91114;","","","","","","","","","",""
"01016099999","2010-11-22T20:00:00","78.9333333","28.9","20.0","KONGSOYA, NO","FM-12","4","","","-5","","","-0.01","0","","","30.52","30.47","","","350","","22","","","","","","","","","","","","","","","","","","","","","","","","","","","","","","","","","","","","","","","","","","","","","","","","","","","","","","","","","","","","","","","","","","","","","","","","","","","","","","","","","","","","","","","","","","","SYN060AAXX  22191 01016 46/// /3510 11204 2//// 30317 40335 50004;","","","","","","","","","",""
"01016099999","2010-11-22T21:00:00","78.9333333","28.9","20.0","KONGSOYA, NO","FM-12","4","","","-5","","","-0.03","2","","","30.52","30.47","","","350","","18","","","","","","","","","","","","","","","","","","","","","","","","","","","","","","","","","","","","","","","","","","","","","","","","","","","","","","","","","","","","","","","","","","","","","","","","","","","","","","","","","","","","","","","","","","","SYN060AAXX  22201 01016 46/// /3508 11205 2//// 30319 40336 52009;","","","","","","","","","",""
"01016099999","2010-11-22T22:00:00","78.9333333","28.9","20.0","KONGSOYA, NO","FM-12","4","","","-5","","","-0.03","2","","","30.53","30.47","","","360","","18","","","","","","","","","","","","","","","","","","","","","","","","","","","","","","","","","","","","","","","","","","","","","","","","","","","","","","","","","","","","","","","","","","","","","","","","","","","","","","","","","","","","","","","","","","","SYN060AAXX  22211 01016 46/// /3608 11206 2//// 30320 40338 52009;","","","","","","","","","",""
"01016099999","2010-11-22T23:00:00","78.9333333","28.9","20.0","KONGSOYA, NO","FM-12","4","","","-4","","","+0.01","5","","","30.52","30.47","","","360","","16","","","","","","","","","","","","","","","","","","","","","","","","","","","","","","","","","","","","","","","","","","","","","","","","","","","","","","","","","","","","","","","","","","","","","","","","","","","","","","","","","","","","","","","","","","","SYN060AAXX  22221 01016 46/// /3607 11202 2//// 30317 40334 55005;","","","","","","","","","",""
"01016099999","2010-11-23T00:00:00","78.9333333","28.9","20.0","KONGSOYA, NO","FM-12","4","","","-4","","","0.00","4","","","30.52","30.47","","","360","","16","","","","","","","","","","","","","","","","","","","","","","","","","","","","","","","","","","","","","","","","","","","","","","","","","","","","","","","","","","","","","","","","","","","","","","","","","","","","","","","","","","","","","","","","","","","SYN060AAXX  22231 01016 46/// /3607 11200 2//// 30318 40335 54004;","","","","","","","","","",""
"01016099999","2010-11-23T01:00:00","78.9333333","28.9","20.0","KONGSOYA, NO","FM-12","4","","","-3","","","+0.01","7","","","30.52","30.47","","","350","","13","","","","","","","","","","","","","","","","","","","","","","","","","","","","","","","","","","","","","","","","","","","","","","","","","","","","","","","","","","","","","","","","","","","","","","","","","","","","","","","","","","","","","","","","","","","SYN070AAXX  23001 01016 46/// /3506 11195 2//// 30317 40334 57002 333 91112;","","","","","","","","","",""
"01016099999","2010-11-23T02:00:00","78.9333333","28.9","20.0","KONGSOYA, NO","FM-12","4","","","-4","","","0.00","4","","","30.52","30.46","","","350","","16","","","","","","","","","","","","","","","","","","","","","","","","","","","","","","","","","","","","","","","","","","","","","","","","","","","","","","","","","","","","","","","","","","","","","","","","","","","","","","","","","","","","","","","","","","","SYN060AAXX  23011 01016 46/// /3507 11200 2//// 30316 40334 54004;","","","","","","","","","",""
"01016099999","2010-11-23T03:00:00","78.9333333","28.9","20.0","KONGSOYA, NO","FM-12","4","","","-5","","","0.00","4","","","30.52","30.47","","","350","","18","","","","","","","","","","","","","","","","","","","","","","","","","","","","","","","","","","","","","","","","","","","","","","","","","","","","","","","","","","","","","","","","","","","","","","","","","","","","","","","","","","","","","","","","","","","SYN060AAXX  23021 01016 46/// /3508 11206 2//// 30317 40335 54005;","","","","","","","","","",""
"01016099999","2010-11-23T04:00:00","78.9333333","28.9","20.0","KONGSOYA, NO","FM-12","4","","","-8","","","0.00","4","","","30.51","30.46","","","350","","18","","","","","","","","","","","","","","","","","","","","","","","","","","","","","","","","","","","","","","","","","","","","","","","","","","","","","","","","","","","","","","","","","","","","","","","","","","","","","","","","","","","","","","","","","","","SYN060AAXX  23031 01016 46/// /3508 11220 2//// 30316 40333 54004;","","","","","","","","","",""
"01016099999","2010-11-23T05:00:00","78.9333333","28.9","20.0","KONGSOYA, NO","FM-12","4","","","-7","","","0.00","4","","","30.51","30.46","","","350","","9","","","","","","","","","","","","","","","","","","","","","","","","","","","","","","","","","","","","","","","","","","","","","","","","","","","","","","","","","","","","","","","","","","","","","","","","","","","","","","","","","","","","","","","","","","","SYN060AAXX  23041 01016 46/// /3504 11218 2//// 30314 40332 54003;","","","","","","","","","",""
"01016099999","2010-11-23T06:00:00","78.9333333","28.9","20.0","KONGSOYA, NO","FM-12","4","","","-7","","","+0.01","7","","","30.51","30.46","","","340","","11","","","","","","","","","","","","","","","","","","","","","","","","","","","","","","","","","","","","","","","","","","","","","","","","","","","","","","","","","","","","","","","","","","","","","","","","","","","","","","","","","","","","","","","","","","","SYN060AAXX  23051 01016 46/// /3405 11219 2//// 30314 40332 57002;","","","","","","","","","",""
"01016099999","2010-11-23T07:00:00","78.9333333","28.9","20.0","KONGSOYA, NO","FM-12","4","","","-9","","","0.00","4","","","30.51","30.45","","","350","","11","","","","","","","","","","","","","","","","","","","","","","","","","","","","","","","","","","","","","","","","","","","","","","","","","","","","","","","","","","","","","","","","","","","","","","","","","","","","","","","","","","","","","","","","","","","SYN076AAXX  23061 01016 46/// /3505 11229 2//// 30313 40331 54002 333 21229 91109;","","","","","","","","","",""
"01016099999","2010-11-23T08:00:00","78.9333333","28.9","20.0","KONGSOYA, NO","FM-12","4","","","-10","","","+0.01","7","","","30.50","30.44","","","310","","7","","","","","","","","","","","","","","","","","","","","","","","","","","","","","","","","","","","","","","","","","","","","","","","","","","","","","","","","","","","","","","","","","","","","","","","","","","","","","","","","","","","","","","","","","","","SYN060AAXX  23071 01016 46/// /3103 11232 2//// 30309 40327 56000;","","","","","","","","","",""
"01016099999","2010-11-23T09:00:00","78.9333333","28.9","20.0","KONGSOYA, NO","FM-12","4","","","-7","","","+0.01","7","","","30.49","30.44","","","260","","9","","","","","","","","","","","","","","","","","","","","","","","","","","","","","","","","","","","","","","","","","","","","","","","","","","","","","","","","","","","","","","","","","","","","","","","","","","","","","","","","","","","","","","","","","","","SYN060AAXX  23081 01016 46/// /2604 11219 2//// 30307 40325 57002;","","","","","","","","","",""
"01016099999","2010-11-23T10:00:00","78.9333333","28.9","20.0","KONGSOYA, NO","FM-12","4","","","-7","","","+0.01","7","","","30.48","30.43","","","280","","9","","","","","","","","","","","","","","","","","","","","","","","","","","","","","","","","","","","","","","","","","","","","","","","","","","","","","","","","","","","","","","","","","","","","","","","","","","","","","","","","","","","","","","","","","","","SYN060AAXX  23091 01016 46/// /2804 11215 2//// 30304 40321 57004;","","","","","","","","","",""
"01016099999","2010-11-23T11:00:00","78.9333333","28.9","20.0","KONGSOYA, NO","FM-12","4","","","-3","","","+0.01","7","","","30.47","30.42","","","330","","16","","","","","","","","","","","","","","","","","","","","","","","","","","","","","","","","","","","","","","","","","","","","","","","","","","","","","","","","","","","","","","","","","","","","","","","","","","","","","","","","","","","","","","","","","","","SYN060AAXX  23101 01016 46/// /3307 11192 2//// 30302 40319 57002;","","","","","","","","","",""
"01016099999","2010-11-23T12:00:00","78.9333333","28.9","20.0","KONGSOYA, NO","FM-12","4","","","-2","","","+0.01","7","","","30.47","30.41","","","340","","16","","","","","","","","","","","","","","","","","","","","","","","","","","","","","","","","","","","","","","","","","","","","","","","","","","","","","","","","","","","","","","","","","","","","","","","","","","","","","","","","","","","","","","","","","","","SYN060AAXX  23111 01016 46/// /3407 11190 2//// 30299 40317 57003;","","","","","","","","","",""
"01016099999","2010-11-23T13:00:00","78.9333333","28.9","20.0","KONGSOYA, NO","FM-12","4","","","-4","","","+0.01","7","","","30.47","30.42","","","350","","9","","","","","","","","","","","","","","","","","","","","","","","","","","","","","","","","","","","","","","","","","","","","","","","","","","","","","","","","","","","","","","","","","","","","","","","","","","","","","","","","","","","","","","","","","","","SYN070AAXX  23121 01016 46/// /3504 11200 2//// 30301 40318 57002 333 91108;","","","","","","","","","",""
"01016099999","2010-11-23T14:00:00","78.9333333","28.9","20.0","KONGSOYA, NO","FM-12","4","","","-4","","","+0.00","7","","","30.46","30.41","","","340","","7","","","","","","","","","","","","","","","","","","","","","","","","","","","","","","","","","","","","","","","","","","","","","","","","","","","","","","","","","","","","","","","","","","","","","","","","","","","","","","","","","","","","","","","","","","","SYN060AAXX  23131 01016 46/// /3403 11198 2//// 30298 40315 57001;","","","","","","","","","",""
"01016099999","2010-11-23T15:00:00","78.9333333","28.9","20.0","KONGSOYA, NO","FM-12","4","","","-4","","","+0.01","7","","","30.45","30.40","","","360","","7","","","","","","","","","","","","","","","","","","","","","","","","","","","","","","","","","","","","","","","","","","","","","","","","","","","","","","","","","","","","","","","","","","","","","","","","","","","","","","","","","","","","","","","","","","","SYN060AAXX  23141 01016 46/// /3603 11199 2//// 30295 40312 56000;","","","","","","","","","",""
"01016099999","2010-11-23T16:00:00","78.9333333","28.9","20.0","KONGSOYA, NO","FM-12","4","","","-2","","","+0.01","7","","","30.45","30.40","","","340","","13","","","","","","","","","","","","","","","","","","","","","","","","","","","","","","","","","","","","","","","","","","","","","","","","","","","","","","","","","","","","","","","","","","","","","","","","","","","","","","","","","","","","","","","","","","","SYN060AAXX  23151 01016 46/// /3406 11189 2//// 30296 40313 58000;","","","","","","","","","",""
"01016099999","2010-11-23T17:00:00","78.9333333","28.9","20.0","KONGSOYA, NO","FM-12","4","","","-3","","","+0.01","7","","","30.45","30.40","","","310","","9","","","","","","","","","","","","","","","","","","","","","","","","","","","","","","","","","","","","","","","","","","","","","","","","","","","","","","","","","","","","","","","","","","","","","","","","","","","","","","","","","","","","","","","","","","","SYN060AAXX  23161 01016 46/// /3104 11197 2//// 30293 40310 57000;","","","","","","","","","",""
"01016099999","2010-11-23T18:00:00","78.9333333","28.9","20.0","KONGSOYA, NO","FM-12","4","","","-3","","","0.00","4","","","30.45","30.40","","","010","","9","","","","","","","","","","","","","","","","","","","","","","","","","","","","","","","","","","","","","","","","","","","","","","","","","","","","","","","","","","","","","","","","","","","","","","","","","","","","","","","","","","","","","","","","","","","SYN060AAXX  23171 01016 46/// /0104 11194 2//// 30295 40312 54005;","","","","","","","","","",""
"01016099999","2010-11-23T19:00:00","78.9333333","28.9","20.0","KONGSOYA, NO","FM-12","4","","","-5","","","+0.01","7","","","30.45","30.40","","","010","","9","","","","","","","","","","","","","","","","","","","","","","","","","","","","","","","","","","","","","","","","","","","","","","","","","","","","","","","","","","","","","","","","","","","","","","","","","","","","","","","","","","","","","","","","","","","SYN076AAXX  23181 01016 46/// /0104 11204 2//// 30293 40310 57002 333 11188 91107;","","","","","","","","","",""
"01016099999","2010-11-23T20:00:00","78.9333333","28.9","20.0","KONGSOYA, NO","FM-12","4","","","-6","","","0.00","4","","","30.45","30.39","","","010","","7","","","","","","","","","","","","","","","","","","","","","","","","","","","","","","","","","","","","","","","","","","","","","","","","","","","","","","","","","","","","","","","","","","","","","","","","","","","","","","","","","","","","","","","","","","","SYN060AAXX  23191 01016 46/// /0103 11211 2//// 30292 40310 54004;","","","","","","","","","",""
"01016099999","2010-11-23T21:00:00","78.9333333","28.9","20.0","KONGSOYA, NO","FM-12","4","","","-6","","","-0.01","0","","","30.45","30.40","","","010","","7","","","","","","","","","","","","","","","","","","","","","","","","","","","","","","","","","","","","","","","","","","","","","","","","","","","","","","","","","","","","","","","","","","","","","","","","","","","","","","","","","","","","","","","","","","","SYN060AAXX  23201 01016 46/// /0103 11212 2//// 30293 40310 50003;","","","","","","","","","",""
"01016099999","2010-11-23T22:00:00","78.9333333","28.9","20.0","KONGSOYA, NO","FM-12","4","","","-7","","","0.00","4","","","30.45","30.40","","","010","","7","","","","","","","","","","","","","","","","","","","","","","","","","","","","","","","","","","","","","","","","","","","","","","","","","","","","","","","","","","","","","","","","","","","","","","","","","","","","","","","","","","","","","","","","","","","SYN060AAXX  23211 01016 46/// /0103 11218 2//// 30295 40313 54007;","","","","","","","","","",""
"01016099999","2010-11-23T23:00:00","78.9333333","28.9","20.0","KONGSOYA, NO","FM-12","4","","","-7","","","-0.03","2","","","30.45","30.40","","","360","","7","","","","","","","","","","","","","","","","","","","","","","","","","","","","","","","","","","","","","","","","","","","","","","","","","","","","","","","","","","","","","","","","","","","","","","","","","","","","","","","","","","","","","","","","","","","SYN060AAXX  23221 01016 46/// /3603 11216 2//// 30296 40313 52009;","","","","","","","","","",""
"01016099999","2010-11-24T00:00:00","78.9333333","28.9","20.0","KONGSOYA, NO","FM-12","4","","","-8","","","+0.02","5","","","30.45","30.40","","","360","","11","","","","","","","","","","","","","","","","","","","","","","","","","","","","","","","","","","","","","","","","","","","","","","","","","","","","","","","","","","","","","","","","","","","","","","","","","","","","","","","","","","","","","","","","","","","SYN060AAXX  23231 01016 46/// /3605 11223 2//// 30295 40313 55007;","","","","","","","","","",""
"01016099999","2010-11-24T01:00:00","78.9333333","28.9","20.0","KONGSOYA, NO","FM-12","4","","","-9","","","0.00","4","","","30.45","30.40","","","360","","11","","","","","","","","","","","","","","","","","","","","","","","","","","","","","","","","","","","","","","","","","","","","","","","","","","","","","","","","","","","","","","","","","","","","","","","","","","","","","","","","","","","","","","","","","","","SYN070AAXX  24001 01016 46/// /3605 11227 2//// 30296 40313 54006 333 91105;","","","","","","","","","",""
"01016099999","2010-11-24T02:00:00","78.9333333","28.9","20.0","KONGSOYA, NO","FM-12","4","","","-7","","","-0.02","0","","","30.46","30.41","","","360","","13","","","","","","","","","","","","","","","","","","","","","","","","","","","","","","","","","","","","","","","","","","","","","","","","","","","","","","","","","","","","","","","","","","","","","","","","","","","","","","","","","","","","","","","","","","","SYN060AAXX  24011 01016 46/// /3606 11217 2//// 30299 40316 50008;","","","","","","","","","",""
"01016099999","2010-11-24T04:00:00","78.9333333","28.9","20.0","KONGSOYA, NO","FM-12","4","","","-5","","","-0.03","2","","","30.47","30.42","","","360","","7","","","","","","","","","","","","","","","","","","","","","","","","","","","","","","","","","","","","","","","","","","","","","","","","","","","","","","","","","","","","","","","","","","","","","","","","","","","","","","","","","","","","","","","","","","","SYN060AAXX  24031 01016 46/// /3603 11205 2//// 30301 40319 52011;","","","","","","","","","",""
"01016099999","2010-11-24T05:00:00","78.9333333","28.9","20.0","KONGSOYA, NO","FM-12","4","","","-3","","","-0.03","2","","","30.47","30.42","","","020","","11","","","","","","","","","","","","","","","","","","","","","","","","","","","","","","","","","","","","","","","","","","","","","","","","","","","","","","","","","","","","","","","","","","","","","","","","","","","","","","","","","","","","","","","","","","","SYN060AAXX  24041 01016 46/// /0205 11194 2//// 30303 40320 52009;","","","","","","","","","",""
"01016099999","2010-11-24T06:00:00","78.9333333","28.9","20.0","KONGSOYA, NO","FM-12","4","","","-3","","","-0.04","1","","","30.49","30.44","","","020","","13","","","","","","","","","","","","","","","","","","","","","","","","","","","","","","","","","","","","","","","","","","","","","","","","","","","","","","","","","","","","","","","","","","","","","","","","","","","","","","","","","","","","","","","","","","","SYN060AAXX  24051 01016 46/// /0206 11193 2//// 30309 40326 51014;","","","","","","","","","",""
"01016099999","2010-11-24T07:00:00","78.9333333","28.9","20.0","KONGSOYA, NO","FM-12","4","","","-3","","","-0.05","1","","","30.51","30.46","","","","","","","","","","","","","","","","","","","","","","","","","","","","","","","","","","","","","","","","","","","","","","","","","","","","","","","","","","","","","","","","","","","","","","","","","","","","","","","","","","","","","","","","","","","","","","","","SYN060AAXX  24061 01016 46/// ///// 11197 2//// 30314 40331 51018;","","","","","","","","","",""
"01016099999","2010-11-24T08:00:00","78.9333333","28.9","20.0","KONGSOYA, NO","FM-12","4","","","-2","","","-0.07","2","","","30.53","30.48","","","020","","16","","","","","","","","","","","","","","","","","","","","","","","","","","","","","","","","","","","","","","","","","","","","","","","","","","","","","","","","","","","","","","","","","","","","","","","","","","","","","","","","","","","","","","","","","","","SYN060AAXX  24071 01016 46/// /0207 11189 2//// 30322 40339 52024;","","","","","","","","","",""
"01016099999","2010-11-24T09:00:00","78.9333333","28.9","20.0","KONGSOYA, NO","FM-12","4","","","-1","","","-0.06","2","","","30.54","30.49","","","020","","13","","","","","","","","","","","","","","","","","","","","","","","","","","","","","","","","","","","","","","","","","","","","","","","","","","","","","","","","","","","","","","","","","","","","","","","","","","","","","","","","","","","","","","","","","","","SYN060AAXX  24081 01016 46/// /0206 11183 2//// 30324 40341 52020;","","","","","","","","","",""
"01016099999","2010-11-24T10:00:00","78.9333333","28.9","20.0","KONGSOYA, NO","FM-12","4","","","-1","","","-0.06","3","","","30.55","30.50","","","010","","13","","","","","","","","","","","","","","","","","","","","","","","","","","","","","","","","","","","","","","","","","","","","","","","","","","","","","","","","","","","","","","","","","","","","","","","","","","","","","","","","","","","","","","","","","","","SYN060AAXX  24091 01016 46/// /0106 11183 2//// 30329 40347 53020;","","","","","","","","","",""
"01016099999","2010-11-24T11:00:00","78.9333333","28.9","20.0","KONGSOYA, NO","FM-12","4","","","0","","","-0.04","2","","","30.56","30.51","","","040","","13","","","","","","","","","","","","","","","","","","","","","","","","","","","","","","","","","","","","","","","","","","","","","","","","","","","","","","","","","","","","","","","","","","","","","","","","","","","","","","","","","","","","","","","","","","","SYN060AAXX  24101 01016 46/// /0406 11180 2//// 30331 40348 52014;","","","","","","","","","",""
"01016099999","2010-11-24T12:00:00","78.9333333","28.9","20.0","KONGSOYA, NO","FM-12","4","","","1","","","-0.04","3","","","30.56","30.51","","","030","","11","","","","","","","","","","","","","","","","","","","","","","","","","","","","","","","","","","","","","","","","","","","","","","","","","","","","","","","","","","","","","","","","","","","","","","","","","","","","","","","","","","","","","","","","","","","SYN060AAXX  24111 01016 46/// /0305 11174 2//// 30333 40350 53014;","","","","","","","","","",""
"01016099999","2010-11-24T13:00:00","78.9333333","28.9","20.0","KONGSOYA, NO","FM-12","4","","","2","","","-0.04","2","","","30.58","30.53","","","030","","11","","","","","","","","","","","","","","","","","","","","","","","","","","","","","","","","","","","","","","","","","","","","","","","","","","","","","","","","","","","","","","","","","","","","","","","","","","","","","","","","","","","","","","","","","","","SYN070AAXX  24121 01016 46/// /0305 11169 2//// 30337 40354 52013 333 91108;","","","","","","","","","",""
"01016099999","2010-11-24T14:00:00","78.9333333","28.9","20.0","KONGSOYA, NO","FM-12","4","","","2","","","-0.04","2","","","30.59","30.54","","","020","","13","","","","","","","","","","","","","","","","","","","","","","","","","","","","","","","","","","","","","","","","","","","","","","","","","","","","","","","","","","","","","","","","","","","","","","","","","","","","","","","","","","","","","","","","","","","SYN060AAXX  24131 01016 46/// /0206 11167 2//// 30341 40358 52015;","","","","","","","","","",""
"01016099999","2010-11-24T15:00:00","78.9333333","28.9","20.0","KONGSOYA, NO","FM-12","4","","","2","","","-0.05","2","","","30.60","30.54","","","010","","16","","","","","","","","","","","","","","","","","","","","","","","","","","","","","","","","","","","","","","","","","","","","","","","","","","","","","","","","","","","","","","","","","","","","","","","","","","","","","","","","","","","","","","","","","","","SYN060AAXX  24141 01016 46/// /0107 11169 2//// 30343 40361 52016;","","","","","","","","","",""
"01016099999","2010-11-24T16:00:00","78.9333333","28.9","20.0","KONGSOYA, NO","FM-12","4","","","1","","","-0.05","2","","","30.61","30.56","","","360","","16","","","","","","","","","","","","","","","","","","","","","","","","","","","","","","","","","","","","","","","","","","","","","","","","","","","","","","","","","","","","","","","","","","","","","","","","","","","","","","","","","","","","","","","","","","","SYN060AAXX  24151 01016 46/// /3607 11172 2//// 30348 40365 52016;","","","","","","","","","",""
"01016099999","2010-11-24T17:00:00","78.9333333","28.9","20.0","KONGSOYA, NO","FM-12","4","","","0","","","-0.05","2","","","30.62","30.57","","","","","","","","","","","","","","","","","","","","","","","","","","","","","","","","","","","","","","","","","","","","","","","","","","","","","","","","","","","","","","","","","","","","","","","","","","","","","","","","","","","","","","","","","","","","","","","","SYN060AAXX  24161 01016 46/// ///// 11176 2//// 30353 40370 52017;","","","","","","","","","",""
"01016099999","2010-11-24T18:00:00","78.9333333","28.9","20.0","KONGSOYA, NO","FM-12","4","","","0","","","-0.05","2","","","30.63","30.58","","","010","","13","","","","","","","","","","","","","","","","","","","","","","","","","","","","","","","","","","","","","","","","","","","","","","","","","","","","","","","","","","","","","","","","","","","","","","","","","","","","","","","","","","","","","","","","","","","SYN060AAXX  24171 01016 46/// /0106 11180 2//// 30354 40371 52016;","","","","","","","","","",""
"01016099999","2010-11-24T19:00:00","78.9333333","28.9","20.0","KONGSOYA, NO","FM-12","4","","","-1","","","-0.05","2","","","30.65","30.60","","","010","","13","","","","","","","","","","","","","","","","","","","","","","","","","","","","","","","","","","","","","","","","","","","","","","","","","","","","","","","","","","","","","","","","","","","","","","","","","","","","","","","","","","","","","","","","","","","SYN076AAXX  24181 01016 46/// /0106 11185 2//// 30361 40378 52018 333 11166 91108;","","","","","","","","","",""
"01016099999","2010-11-24T20:00:00","78.9333333","28.9","20.0","KONGSOYA, NO","FM-12","4","","","-2","","","-0.06","1","","","30.66","30.61","","","010","","13","","","","","","","","","","","","","","","","","","","","","","","","","","","","","","","","","","","","","","","","","","","","","","","","","","","","","","","","","","","","","","","","","","","","","","","","","","","","","","","","","","","","","","","","","","","SYN060AAXX  24191 01016 46/// /0106 11190 2//// 30366 40384 51019;","","","","","","","","","",""
"01016099999","2010-11-24T21:00:00","78.9333333","28.9","20.0","KONGSOYA, NO","FM-12","4","","","-3","","","-0.06","3","","","30.67","30.62","","","010","","16","","","","","","","","","","","","","","","","","","","","","","","","","","","","","","","","","","","","","","","","","","","","","","","","","","","","","","","","","","","","","","","","","","","","","","","","","","","","","","","","","","","","","","","","","","","SYN060AAXX  24201 01016 46/// /0107 11194 2//// 30369 40386 53020;","","","","","","","","","",""
"01016099999","2010-11-24T22:00:00","78.9333333","28.9","20.0","KONGSOYA, NO","FM-12","4","","","-5","","","-0.04","3","","","30.67","30.62","","","360","","13","","","","","","","","","","","","","","","","","","","","","","","","","","","","","","","","","","","","","","","","","","","","","","","","","","","","","","","","","","","","","","","","","","","","","","","","","","","","","","","","","","","","","","","","","","","SYN060AAXX  24211 01016 46/// /3606 11204 2//// 30368 40385 53012;","","","","","","","","","",""
"01016099999","2010-11-24T23:00:00","78.9333333","28.9","20.0","KONGSOYA, NO","FM-12","4","","","-7","","","-0.03","2","","","30.68","30.63","","","360","","11","","","","","","","","","","","","","","","","","","","","","","","","","","","","","","","","","","","","","","","","","","","","","","","","","","","","","","","","","","","","","","","","","","","","","","","","","","","","","","","","","","","","","","","","","","","SYN060AAXX  24221 01016 46/// /3605 11215 2//// 30371 40389 52010;","","","","","","","","","",""
"01016099999","2010-11-25T00:00:00","78.9333333","28.9","20.0","KONGSOYA, NO","FM-12","4","","","-8","","","-0.03","1","","","30.69","30.63","","","","","","","","","","","","","","","","","","","","","","","","","","","","","","","","","","","","","","","","","","","","","","","","","","","","","","","","","","","","","","","","","","","","","","","","","","","","","","","","","","","","","","","","","","","","","","","","SYN060AAXX  24231 01016 46/// ///// 11220 2//// 30374 40392 51010;","","","","","","","","","",""
"01016099999","2010-11-25T01:00:00","78.9333333","28.9","20.0","KONGSOYA, NO","FM-12","4","","","-9","","","-0.04","2","","","30.69","30.64","","","360","","13","","","","","","","","","","","","","","","","","","","","","","","","","","","","","","","","","","","","","","","","","","","","","","","","","","","","","","","","","","","","","","","","","","","","","","","","","","","","","","","","","","","","","","","","","","","SYN070AAXX  25001 01016 46/// /3606 11226 2//// 30376 40394 52014 333 91108;","","","","","","","","","",""
"01016099999","2010-11-25T02:00:00","78.9333333","28.9","20.0","KONGSOYA, NO","FM-12","4","","","-7","","","-0.04","2","","","30.70","30.65","","","350","","16","","","","","","","","","","","","","","","","","","","","","","","","","","","","","","","","","","","","","","","","","","","","","","","","","","","","","","","","","","","","","","","","","","","","","","","","","","","","","","","","","","","","","","","","","","","SYN060AAXX  25011 01016 46/// /3507 11216 2//// 30378 40396 52012;","","","","","","","","","",""
"01016099999","2010-11-25T03:00:00","78.9333333","28.9","20.0","KONGSOYA, NO","FM-12","4","","","-6","","","-0.04","2","","","30.71","30.66","","","020","","16","","","","","","","","","","","","","","","","","","","","","","","","","","","","","","","","","","","","","","","","","","","","","","","","","","","","","","","","","","","","","","","","","","","","","","","","","","","","","","","","","","","","","","","","","","","SYN060AAXX  25021 01016 46/// /0207 11210 2//// 30382 40399 52013;","","","","","","","","","",""
"01016099999","2010-11-25T04:00:00","78.9333333","28.9","20.0","KONGSOYA, NO","FM-12","4","","","-6","","","-0.04","2","","","30.72","30.66","","","010","","16","","","","","","","","","","","","","","","","","","","","","","","","","","","","","","","","","","","","","","","","","","","","","","","","","","","","","","","","","","","","","","","","","","","","","","","","","","","","","","","","","","","","","","","","","","","SYN060AAXX  25031 01016 46/// /0107 11210 2//// 30384 40402 52013;","","","","","","","","","",""
"01016099999","2010-11-25T05:00:00","78.9333333","28.9","20.0","KONGSOYA, NO","FM-12","4","","","-5","","","-0.04","2","","","30.72","30.67","","","010","","16","","","","","","","","","","","","","","","","","","","","","","","","","","","","","","","","","","","","","","","","","","","","","","","","","","","","","","","","","","","","","","","","","","","","","","","","","","","","","","","","","","","","","","","","","","","SYN060AAXX  25041 01016 46/// /0107 11204 2//// 30385 40402 52012;","","","","","","","","","",""
"01016099999","2010-11-25T06:00:00","78.9333333","28.9","20.0","KONGSOYA, NO","FM-12","4","","","-4","","","-0.03","2","","","30.72","30.67","","","010","","16","","","","","","","","","","","","","","","","","","","","","","","","","","","","","","","","","","","","","","","","","","","","","","","","","","","","","","","","","","","","","","","","","","","","","","","","","","","","","","","","","","","","","","","","","","","SYN060AAXX  25051 01016 46/// /0107 11202 2//// 30386 40403 52009;","","","","","","","","","",""
"01016099999","2010-11-25T07:00:00","78.9333333","28.9","20.0","KONGSOYA, NO","FM-12","4","","","-7","","","-0.03","2","","","30.73","30.68","","","010","","13","","","","","","","","","","","","","","","","","","","","","","","","","","","","","","","","","","","","","","","","","","","","","","","","","","","","","","","","","","","","","","","","","","","","","","","","","","","","","","","","","","","","","","","","","","","SYN076AAXX  25061 01016 46/// /0106 11214 2//// 30389 40406 52010 333 21228 91108;","","","","","","","","","",""
"01016099999","2010-11-25T08:00:00","78.9333333","28.9","20.0","KONGSOYA, NO","FM-12","4","","","-6","","","-0.04","1","","","30.74","30.69","","","010","","16","","","","","","","","","","","","","","","","","","","","","","","","","","","","","","","","","","","","","","","","","","","","","","","","","","","","","","","","","","","","","","","","","","","","","","","","","","","","","","","","","","","","","","","","","","","SYN060AAXX  25071 01016 46/// /0107 11213 2//// 30393 40411 51013;","","","","","","","","","",""
"01016099999","2010-11-25T09:00:00","78.9333333","28.9","20.0","KONGSOYA, NO","FM-12","4","","","-7","","","-0.04","2","","","30.75","30.70","","","010","","16","","","","","","","","","","","","","","","","","","","","","","","","","","","","","","","","","","","","","","","","","","","","","","","","","","","","","","","","","","","","","","","","","","","","","","","","","","","","","","","","","","","","","","","","","","","SYN060AAXX  25081 01016 46/// /0107 11216 2//// 30396 40413 52015;","","","","","","","","","",""
"01016099999","2010-11-25T10:00:00","78.9333333","28.9","20.0","KONGSOYA, NO","FM-12","4","","","-6","","","-0.05","2","","","30.77","30.71","","","010","","16","","","","","","","","","","","","","","","","","","","","","","","","","","","","","","","","","","","","","","","","","","","","","","","","","","","","","","","","","","","","","","","","","","","","","","","","","","","","","","","","","","","","","","","","","","","SYN060AAXX  25091 01016 46/// /0107 11213 2//// 30401 40419 52017;","","","","","","","","","",""
"01016099999","2010-11-25T11:00:00","78.9333333","28.9","20.0","KONGSOYA, NO","FM-12","4","","","-6","","","-0.04","2","","","30.77","30.72","","","010","","16","","","","","","","","","","","","","","","","","","","","","","","","","","","","","","","","","","","","","","","","","","","","","","","","","","","","","","","","","","","","","","","","","","","","","","","","","","","","","","","","","","","","","","","","","","","SYN060AAXX  25101 01016 46/// /0107 11213 2//// 30403 40421 52015;","","","","","","","","","",""
"01016099999","2010-11-25T12:00:00","78.9333333","28.9","20.0","KONGSOYA, NO","FM-12","4","","","-7","","","-0.04","3","","","30.77","30.72","","","010","","13","","","","","","","","","","","","","","","","","","","","","","","","","","","","","","","","","","","","","","","","","","","","","","","","","","","","","","","","","","","","","","","","","","","","","","","","","","","","","","","","","","","","","","","","","","","SYN060AAXX  25111 01016 46/// /0106 11215 2//// 30403 40421 53013;","","","","","","","","","",""
"01016099999","2010-11-25T13:00:00","78.9333333","28.9","20.0","KONGSOYA, NO","FM-12","4","","","-7","","","-0.03","2","","","30.78","30.73","","","360","","16","","","","","","","","","","","","","","","","","","","","","","","","","","","","","","","","","","","","","","","","","","","","","","","","","","","","","","","","","","","","","","","","","","","","","","","","","","","","","","","","","","","","","","","","","","","SYN070AAXX  25121 01016 46/// /3607 11217 2//// 30406 40424 52010 333 91108;","","","","","","","","","",""
"01016099999","2010-11-25T15:00:00","78.9333333","28.9","20.0","KONGSOYA, NO","FM-12","4","","","-8","","","-0.03","2","","","30.79","30.74","","","360","","13","","","","","","","","","","","","","","","","","","","","","","","","","","","","","","","","","","","","","","","","","","","","","","","","","","","","","","","","","","","","","","","","","","","","","","","","","","","","","","","","","","","","","","","","","","","SYN060AAXX  25141 01016 46/// /3606 11224 2//// 30409 40427 52011;","","","","","","","","","",""
"01016099999","2010-11-25T16:00:00","78.9333333","28.9","20.0","KONGSOYA, NO","FM-12","4","","","-7","","","-0.03","2","","","30.80","30.74","","","350","","13","","","","","","","","","","","","","","","","","","","","","","","","","","","","","","","","","","","","","","","","","","","","","","","","","","","","","","","","","","","","","","","","","","","","","","","","","","","","","","","","","","","","","","","","","","","SYN060AAXX  25151 01016 46/// /3506 11215 2//// 30411 40429 52010;","","","","","","","","","",""
"01016099999","2010-11-25T17:00:00","78.9333333","28.9","20.0","KONGSOYA, NO","FM-12","4","","","-9","","","-0.03","2","","","30.80","30.75","","","","","","","","","","","","","","","","","","","","","","","","","","","","","","","","","","","","","","","","","","","","","","","","","","","","","","","","","","","","","","","","","","","","","","","","","","","","","","","","","","","","","","","","","","","","","","","","SYN060AAXX  25161 01016 46/// ///// 11227 2//// 30412 40429 52009;","","","","","","","","","",""
"01016099999","2010-11-25T18:00:00","78.9333333","28.9","20.0","KONGSOYA, NO","FM-12","4","","","-9","","","-0.03","2","","","30.80","30.75","","","360","","13","","","","","","","","","","","","","","","","","","","","","","","","","","","","","","","","","","","","","","","","","","","","","","","","","","","","","","","","","","","","","","","","","","","","","","","","","","","","","","","","","","","","","","","","","","","SYN060AAXX  25171 01016 46/// /3606 11226 2//// 30413 40431 52009;","","","","","","","","","",""
"01016099999","2010-11-25T19:00:00","78.9333333","28.9","20.0","KONGSOYA, NO","FM-12","4","","","-7","","","-0.03","2","","","30.81","30.76","","","350","","13","","","","","","","","","","","","","","","","","","","","","","","","","","","","","","","","","","","","","","","","","","","","","","","","","","","","","","","","","","","","","","","","","","","","","","","","","","","","","","","","","","","","","","","","","","","SYN076AAXX  25181 01016 46/// /3506 11218 2//// 30416 40434 52010 333 11209 91108;","","","","","","","","","",""
"01016099999","2010-11-25T20:00:00","78.9333333","28.9","20.0","KONGSOYA, NO","FM-12","4","","","-8","","","-0.03","2","","","30.81","30.76","","","350","","11","","","","","","","","","","","","","","","","","","","","","","","","","","","","","","","","","","","","","","","","","","","","","","","","","","","","","","","","","","","","","","","","","","","","","","","","","","","","","","","","","","","","","","","","","","","SYN060AAXX  25191 01016 46/// /3505 11221 2//// 30417 40435 52011;","","","","","","","","","",""
"01016099999","2010-11-25T22:00:00","78.9333333","28.9","20.0","KONGSOYA, NO","FM-12","4","","","-5","","","-0.03","2","","","30.83","30.78","","","360","","16","","","","","","","","","","","","","","","","","","","","","","","","","","","","","","","","","","","","","","","","","","","","","","","","","","","","","","","","","","","","","","","","","","","","","","","","","","","","","","","","","","","","","","","","","","","SYN060AAXX  25211 01016 46/// /3607 11208 2//// 30422 40439 52011;","","","","","","","","","",""
"01016099999","2010-11-25T23:00:00","78.9333333","28.9","20.0","KONGSOYA, NO","FM-12","4","","","-6","","","-0.03","3","","","30.82","30.77","","","","","","","","","","","","","","","","","","","","","","","","","","","","","","","","","","","","","","","","","","","","","","","","","","","","","","","","","","","","","","","","","","","","","","","","","","","","","","","","","","","","","","","","","","","","","","","","SYN060AAXX  25221 01016 46/// ///// 11209 2//// 30421 40438 53009;","","","","","","","","","",""
"01016099999","2010-11-26T00:00:00","78.9333333","28.9","20.0","KONGSOYA, NO","FM-12","4","","","-5","","","0.00","4","","","30.83","30.78","","","350","","13","","","","","","","","","","","","","","","","","","","","","","","","","","","","","","","","","","","","","","","","","","","","","","","","","","","","","","","","","","","","","","","","","","","","","","","","","","","","","","","","","","","","","","","","","","","SYN060AAXX  25231 01016 46/// /3506 11207 2//// 30422 40440 54006;","","","","","","","","","",""
"01016099999","2010-11-26T01:00:00","78.9333333","28.9","20.0","KONGSOYA, NO","FM-12","4","","","-5","","","0.00","4","","","30.83","30.77","","","350","","16","","","","","","","","","","","","","","","","","","","","","","","","","","","","","","","","","","","","","","","","","","","","","","","","","","","","","","","","","","","","","","","","","","","","","","","","","","","","","","","","","","","","","","","","","","","SYN060AAXX  26001 01016 46/// /3507 11204 2//// 30421 40439 54004;","","","","","","","","","",""
"01016099999","2010-11-26T02:00:00","78.9333333","28.9","20.0","KONGSOYA, NO","FM-12","4","","","-5","","","0.00","4","","","30.82","30.77","","","350","","18","","","","","","","","","","","","","","","","","","","","","","","","","","","","","","","","","","","","","","","","","","","","","","","","","","","","","","","","","","","","","","","","","","","","","","","","","","","","","","","","","","","","","","","","","","","SYN060AAXX  26011 01016 46/// /3508 11205 2//// 30420 40438 54004;","","","","","","","","","",""
"01016099999","2010-11-26T03:00:00","78.9333333","28.9","20.0","KONGSOYA, NO","FM-12","4","","","-5","","","0.00","4","","","30.83","30.77","","","360","","20","","","","","","","","","","","","","","","","","","","","","","","","","","","","","","","","","","","","","","","","","","","","","","","","","","","","","","","","","","","","","","","","","","","","","","","","","","","","","","","","","","","","","","","","","","","SYN060AAXX  26021 01016 46/// /3609 11205 2//// 30421 40439 54004;","","","","","","","","","",""
"01016099999","2010-11-26T04:00:00","78.9333333","28.9","20.0","KONGSOYA, NO","FM-12","4","","","-5","","","0.00","4","","","30.83","30.78","","","","","","","","","","","","","","","","","","","","","","","","","","","","","","","","","","","","","","","","","","","","","","","","","","","","","","","","","","","","","","","","","","","","","","","","","","","","","","","","","","","","","","","","","","","","","","","","SYN060AAXX  26031 01016 46/// ///// 11206 2//// 30423 40440 54007;","","","","","","","","","",""
"01016099999","2010-11-26T05:00:00","78.9333333","28.9","20.0","KONGSOYA, NO","FM-12","4","","","-4","","","-0.04","1","","","30.84","30.79","","","350","","18","","","","","","","","","","","","","","","","","","","","","","","","","","","","","","","","","","","","","","","","","","","","","","","","","","","","","","","","","","","","","","","","","","","","","","","","","","","","","","","","","","","","","","","","","","","SYN060AAXX  26041 01016 46/// /3508 11200 2//// 30428 40445 51013;","","","","","","","","","",""
"01016099999","2010-11-26T06:00:00","78.9333333","28.9","20.0","KONGSOYA, NO","FM-12","4","","","-4","","","-0.04","2","","","30.85","30.80","","","360","","18","","","","","","","","","","","","","","","","","","","","","","","","","","","","","","","","","","","","","","","","","","","","","","","","","","","","","","","","","","","","","","","","","","","","","","","","","","","","","","","","","","","","","","","","","","","SYN060AAXX  26051 01016 46/// /3608 11200 2//// 30429 40447 52013;","","","","","","","","","",""
"01016099999","2010-11-26T07:00:00","78.9333333","28.9","20.0","KONGSOYA, NO","FM-12","4","","","-4","","","-0.04","2","","","30.86","30.80","","","010","","20","","","","","","","","","","","","","","","","","","","","","","","","","","","","","","","","","","","","","","","","","","","","","","","","","","","","","","","","","","","","","","","","","","","","","","","","","","","","","","","","","","","","","","","","","","","SYN070AAXX  26061 01016 46/// /0109 11198 2//// 30431 40449 52014 333 91110;","","","","","","","","","",""
"01016099999","2010-11-26T08:00:00","78.9333333","28.9","20.0","KONGSOYA, NO","FM-12","4","","","-4","","","-0.03","2","","","30.86","30.81","","","360","","20","","","","","","","","","","","","","","","","","","","","","","","","","","","","","","","","","","","","","","","","","","","","","","","","","","","","","","","","","","","","","","","","","","","","","","","","","","","","","","","","","","","","","","","","","","","SYN060AAXX  26071 01016 46/// /3609 11201 2//// 30432 40450 52009;","","","","","","","","","",""
"01016099999","2010-11-26T09:00:00","78.9333333","28.9","20.0","KONGSOYA, NO","FM-12","4","","","-4","","","-0.03","2","","","30.86","30.81","","","","","","","","","","","","","","","","","","","","","","","","","","","","","","","","","","","","","","","","","","","","","","","","","","","","","","","","","","","","","","","","","","","","","","","","","","","","","","","","","","","","","","","","","","","","","","","","SYN060AAXX  26081 01016 46/// ///// 11199 2//// 30434 40451 52010;","","","","","","","","","",""
"01016099999","2010-11-26T10:00:00","78.9333333","28.9","20.0","KONGSOYA, NO","FM-12","4","","","-4","","","-0.03","2","","","30.87","30.82","","","","","","","","","","","","","","","","","","","","","","","","","","","","","","","","","","","","","","","","","","","","","","","","","","","","","","","","","","","","","","","","","","","","","","","","","","","","","","","","","","","","","","","","","","","","","","","","SYN060AAXX  26091 01016 46/// ///// 11198 2//// 30437 40455 52011;","","","","","","","","","",""
"01016099999","2010-11-26T11:00:00","78.9333333","28.9","20.0","KONGSOYA, NO","FM-12","4","","","-2","","","-0.04","2","","","30.89","30.83","","","010","","20","","","","","","","","","","","","","","","","","","","","","","","","","","","","","","","","","","","","","","","","","","","","","","","","","","","","","","","","","","","","","","","","","","","","","","","","","","","","","","","","","","","","","","","","","","","SYN060AAXX  26101 01016 46/// /0109 11190 2//// 30441 40459 52014;","","","","","","","","","",""
"01016099999","2010-11-26T12:00:00","78.9333333","28.9","20.0","KONGSOYA, NO","FM-12","4","","","-1","","","-0.04","2","","","30.89","30.84","","","010","","20","","","","","","","","","","","","","","","","","","","","","","","","","","","","","","","","","","","","","","","","","","","","","","","","","","","","","","","","","","","","","","","","","","","","","","","","","","","","","","","","","","","","","","","","","","","SYN060AAXX  26111 01016 46/// /0109 11182 2//// 30444 40462 52015;","","","","","","","","","",""
"01016099999","2010-11-26T13:00:00","78.9333333","28.9","20.0","KONGSOYA, NO","FM-12","4","","","-1","","","-0.04","2","","","30.90","30.85","","","010","","20","","","","","","","","","","","","","","","","","","","","","","","","","","","","","","","","","","","","","","","","","","","","","","","","","","","","","","","","","","","","","","","","","","","","","","","","","","","","","","","","","","","","","","","","","","","SYN070AAXX  26121 01016 46/// /0109 11181 2//// 30447 40464 52014 333 91110;","","","","","","","","","",""
"01016099999","2010-11-26T14:00:00","78.9333333","28.9","20.0","KONGSOYA, NO","FM-12","4","","","-1","","","-0.04","2","","","30.91","30.85","","","010","","18","","","","","","","","","","","","","","","","","","","","","","","","","","","","","","","","","","","","","","","","","","","","","","","","","","","","","","","","","","","","","","","","","","","","","","","","","","","","","","","","","","","","","","","","","","","SYN060AAXX  26131 01016 46/// /0108 11186 2//// 30448 40466 52012;","","","","","","","","","",""
"01016099999","2010-11-26T15:00:00","78.9333333","28.9","20.0","KONGSOYA, NO","FM-12","4","","","-2","","","-0.03","2","","","30.91","30.86","","","010","","18","","","","","","","","","","","","","","","","","","","","","","","","","","","","","","","","","","","","","","","","","","","","","","","","","","","","","","","","","","","","","","","","","","","","","","","","","","","","","","","","","","","","","","","","","","","SYN060AAXX  26141 01016 46/// /0108 11191 2//// 30450 40468 52011;","","","","","","","","","",""
"01016099999","2010-11-26T16:00:00","78.9333333","28.9","20.0","KONGSOYA, NO","FM-12","4","","","-3","","","-0.04","2","","","30.92","30.87","","","020","","9","","","","","","","","","","","","","","","","","","","","","","","","","","","","","","","","","","","","","","","","","","","","","","","","","","","","","","","","","","","","","","","","","","","","","","","","","","","","","","","","","","","","","","","","","","","SYN060AAXX  26151 01016 46/// /0204 11196 2//// 30453 40471 52012;","","","","","","","","","",""
"01016099999","2010-11-26T17:00:00","78.9333333","28.9","20.0","KONGSOYA, NO","FM-12","4","","","-3","","","-0.04","2","","","30.93","30.88","","","000","","0","","","","","","","","","","","","","","","","","","","","","","","","","","","","","","","","","","","","","","","","","","","","","","","","","","","","","","","","","","","","","","","","","","","","","","","","","","","","","","","","","","","","","","","","","","","SYN060AAXX  26161 01016 46/// /0000 11194 2//// 30456 40474 52013;","","","","","","","","","",""
"01016099999","2010-11-26T18:00:00","78.9333333","28.9","20.0","KONGSOYA, NO","FM-12","4","","","-5","","","-0.04","2","","","30.94","30.88","","","330","","4","","","","","","","","","","","","","","","","","","","","","","","","","","","","","","","","","","","","","","","","","","","","","","","","","","","","","","","","","","","","","","","","","","","","","","","","","","","","","","","","","","","","","","","","","","","SYN060AAXX  26171 01016 46/// /3302 11208 2//// 30458 40476 52013;","","","","","","","","","",""
"01016099999","2010-11-26T19:00:00","78.9333333","28.9","20.0","KONGSOYA, NO","FM-12","4","","","-5","","","-0.02","3","","","30.93","30.88","","","330","","7","","","","","","","","","","","","","","","","","","","","","","","","","","","","","","","","","","","","","","","","","","","","","","","","","","","","","","","","","","","","","","","","","","","","","","","","","","","","","","","","","","","","","","","","","","","SYN076AAXX  26181 01016 46/// /3303 11208 2//// 30457 40474 53008 333 11180 91109;","","","","","","","","","",""
"01016099999","2010-11-26T20:00:00","78.9333333","28.9","20.0","KONGSOYA, NO","FM-12","4","","","-4","","","-0.03","2","","","30.94","30.89","","","340","","9","","","","","","","","","","","","","","","","","","","","","","","","","","","","","","","","","","","","","","","","","","","","","","","","","","","","","","","","","","","","","","","","","","","","","","","","","","","","","","","","","","","","","","","","","","","SYN060AAXX  26191 01016 46/// /3404 11199 2//// 30460 40478 52009;","","","","","","","","","",""
"01016099999","2010-11-26T21:00:00","78.9333333","28.9","20.0","KONGSOYA, NO","FM-12","4","","","-4","","","-0.03","1","","","30.95","30.89","","","360","","11","","","","","","","","","","","","","","","","","","","","","","","","","","","","","","","","","","","","","","","","","","","","","","","","","","","","","","","","","","","","","","","","","","","","","","","","","","","","","","","","","","","","","","","","","","","SYN060AAXX  26201 01016 46/// /3605 11198 2//// 30462 40480 51009;","","","","","","","","","",""
"01016099999","2010-11-26T22:00:00","78.9333333","28.9","20.0","KONGSOYA, NO","FM-12","4","","","-4","","","-0.04","2","","","30.95","30.90","","","360","","11","","","","","","","","","","","","","","","","","","","","","","","","","","","","","","","","","","","","","","","","","","","","","","","","","","","","","","","","","","","","","","","","","","","","","","","","","","","","","","","","","","","","","","","","","","","SYN060AAXX  26211 01016 46/// /3605 11199 2//// 30463 40481 52012;","","","","","","","","","",""
"01016099999","2010-11-26T23:00:00","78.9333333","28.9","20.0","KONGSOYA, NO","FM-12","4","","","-5","","","0.00","4","","","30.95","30.90","","","360","","18","","","","","","","","","","","","","","","","","","","","","","","","","","","","","","","","","","","","","","","","","","","","","","","","","","","","","","","","","","","","","","","","","","","","","","","","","","","","","","","","","","","","","","","","","","","SYN060AAXX  26221 01016 46/// /3608 11204 2//// 30463 40480 54008;","","","","","","","","","",""
"01016099999","2010-11-27T00:00:00","78.9333333","28.9","20.0","KONGSOYA, NO","FM-12","4","","","-7","","","0.00","4","","","30.95","30.90","","","010","","11","","","","","","","","","","","","","","","","","","","","","","","","","","","","","","","","","","","","","","","","","","","","","","","","","","","","","","","","","","","","","","","","","","","","","","","","","","","","","","","","","","","","","","","","","","","SYN060AAXX  26231 01016 46/// /0105 11218 2//// 30463 40480 54006;","","","","","","","","","",""
"01016099999","2010-11-27T01:00:00","78.9333333","28.9","20.0","KONGSOYA, NO","FM-12","4","","","-5","","","0.00","4","","","30.95","30.89","","","020","","9","","","","","","","","","","","","","","","","","","","","","","","","","","","","","","","","","","","","","","","","","","","","","","","","","","","","","","","","","","","","","","","","","","","","","","","","","","","","","","","","","","","","","","","","","","","SYN070AAXX  27001 01016 46/// /0204 11208 2//// 30462 40480 54004 333 91108;","","","","","","","","","",""
"01016099999","2010-11-27T02:00:00","78.9333333","28.9","20.0","KONGSOYA, NO","FM-12","4","","","-5","","","0.00","4","","","30.94","30.89","","","020","","11","","","","","","","","","","","","","","","","","","","","","","","","","","","","","","","","","","","","","","","","","","","","","","","","","","","","","","","","","","","","","","","","","","","","","","","","","","","","","","","","","","","","","","","","","","","SYN060AAXX  27011 01016 46/// /0205 11207 2//// 30460 40478 54003;","","","","","","","","","",""
"01016099999","2010-11-27T04:00:00","78.9333333","28.9","20.0","KONGSOYA, NO","FM-12","4","","","-7","","","+0.01","7","","","30.92","30.87","","","340","","7","","","","","","","","","","","","","","","","","","","","","","","","","","","","","","","","","","","","","","","","","","","","","","","","","","","","","","","","","","","","","","","","","","","","","","","","","","","","","","","","","","","","","","","","","","","SYN060AAXX  27031 01016 46/// /3403 11217 2//// 30454 40472 57003;","","","","","","","","","",""
"01016099999","2010-11-27T05:00:00","78.9333333","28.9","20.0","KONGSOYA, NO","FM-12","4","","","-2","","","+0.01","7","","","30.91","30.86","","","010","","7","","","","","","","","","","","","","","","","","","","","","","","","","","","","","","","","","","","","","","","","","","","","","","","","","","","","","","","","","","","","","","","","","","","","","","","","","","","","","","","","","","","","","","","","","","","SYN060AAXX  27041 01016 46/// /0103 11187 2//// 30452 40469 57003;","","","","","","","","","",""
"01016099999","2010-11-27T06:00:00","78.9333333","28.9","20.0","KONGSOYA, NO","FM-12","4","","","-3","","","+0.01","7","","","30.90","30.85","","","030","","4","","","","","","","","","","","","","","","","","","","","","","","","","","","","","","","","","","","","","","","","","","","","","","","","","","","","","","","","","","","","","","","","","","","","","","","","","","","","","","","","","","","","","","","","","","","SYN060AAXX  27051 01016 46/// /0302 11192 2//// 30448 40465 57004;","","","","","","","","","",""
"01016099999","2010-11-27T07:00:00","78.9333333","28.9","20.0","KONGSOYA, NO","FM-12","4","","","-4","","","+0.02","6","","","30.89","30.84","","","000","","0","","","","","","","","","","","","","","","","","","","","","","","","","","","","","","","","","","","","","","","","","","","","","","","","","","","","","","","","","","","","","","","","","","","","","","","","","","","","","","","","","","","","","","","","","","","SYN060AAXX  27061 01016 46/// /0000 11199 2//// 30443 40460 56006;","","","","","","","","","",""
"01016099999","2010-11-27T08:00:00","78.9333333","28.9","20.0","KONGSOYA, NO","FM-12","4","","","-4","","","+0.02","7","","","30.88","30.83","","","260","","2","","","","","","","","","","","","","","","","","","","","","","","","","","","","","","","","","","","","","","","","","","","","","","","","","","","","","","","","","","","","","","","","","","","","","","","","","","","","","","","","","","","","","","","","","","","SYN060AAXX  27071 01016 46/// /2601 11202 2//// 30441 40458 57006;","","","","","","","","","",""
"01016099999","2010-11-27T09:00:00","78.9333333","28.9","20.0","KONGSOYA, NO","FM-12","4","","","-4","","","+0.02","7","","","30.87","30.82","","","260","","2","","","","","","","","","","","","","","","","","","","","","","","","","","","","","","","","","","","","","","","","","","","","","","","","","","","","","","","","","","","","","","","","","","","","","","","","","","","","","","","","","","","","","","","","","","","SYN060AAXX  27081 01016 46/// /2601 11202 2//// 30436 40454 57007;","","","","","","","","","",""
"01016099999","2010-11-27T10:00:00","78.9333333","28.9","20.0","KONGSOYA, NO","FM-12","4","","","-6","","","+0.01","7","","","30.86","30.81","","","280","","4","","","","","","","","","","","","","","","","","","","","","","","","","","","","","","","","","","","","","","","","","","","","","","","","","","","","","","","","","","","","","","","","","","","","","","","","","","","","","","","","","","","","","","","","","","","SYN060AAXX  27091 01016 46/// /2802 11211 2//// 30434 40451 57004;","","","","","","","","","",""
"01016099999","2010-11-27T11:00:00","78.9333333","28.9","20.0","KONGSOYA, NO","FM-12","4","","","3","","","+0.01","7","","","30.86","30.80","","","260","","7","","","","","","","","","","","","","","","","","","","","","","","","","","","","","","","","","","","","","","","","","","","","","","","","","","","","","","","","","","","","","","","","","","","","","","","","","","","","","","","","","","","","","","","","","","","SYN060AAXX  27101 01016 46/// /2603 11161 2//// 30431 40449 57004;","","","","","","","","","",""
"01016099999","2010-11-27T12:00:00","78.9333333","28.9","20.0","KONGSOYA, NO","FM-12","4","","","-1","","","+0.01","7","","","30.84","30.79","","","320","","2","","","","","","","","","","","","","","","","","","","","","","","","","","","","","","","","","","","","","","","","","","","","","","","","","","","","","","","","","","","","","","","","","","","","","","","","","","","","","","","","","","","","","","","","","","","SYN060AAXX  27111 01016 46/// /3201 11181 2//// 30427 40444 57005;","","","","","","","","","",""
"01016099999","2010-11-27T13:00:00","78.9333333","28.9","20.0","KONGSOYA, NO","FM-12","4","","","-3","","","+0.02","7","","","30.83","30.78","","","020","","4","","","","","","","","","","","","","","","","","","","","","","","","","","","","","","","","","","","","","","","","","","","","","","","","","","","","","","","","","","","","","","","","","","","","","","","","","","","","","","","","","","","","","","","","","","","SYN070AAXX  27121 01016 46/// /0202 11192 2//// 30422 40439 57007 333 91106;","","","","","","","","","",""
"01016099999","2010-11-27T14:00:00","78.9333333","28.9","20.0","KONGSOYA, NO","FM-12","4","","","0","","","+0.03","7","","","30.81","30.76","","","040","","7","","","","","","","","","","","","","","","","","","","","","","","","","","","","","","","","","","","","","","","","","","","","","","","","","","","","","","","","","","","","","","","","","","","","","","","","","","","","","","","","","","","","","","","","","","","SYN060AAXX  27131 01016 46/// /0403 11177 2//// 30416 40434 57010;","","","","","","","","","",""
"01016099999","2010-11-27T15:00:00","78.9333333","28.9","20.0","KONGSOYA, NO","FM-12","4","","","2","","","+0.03","7","","","30.79","30.74","","","280","","4","","","","","","","","","","","","","","","","","","","","","","","","","","","","","","","","","","","","","","","","","","","","","","","","","","","","","","","","","","","","","","","","","","","","","","","","","","","","","","","","","","","","","","","","","","","SYN060AAXX  27141 01016 46/// /2802 11166 2//// 30411 40428 57011;","","","","","","","","","",""
"01016099999","2010-11-27T16:00:00","78.9333333","28.9","20.0","KONGSOYA, NO","FM-12","4","","","2","","","+0.03","7","","","30.78","30.73","","","280","","2","","","","","","","","","","","","","","","","","","","","","","","","","","","","","","","","","","","","","","","","","","","","","","","","","","","","","","","","","","","","","","","","","","","","","","","","","","","","","","","","","","","","","","","","","","","SYN060AAXX  27151 01016 46/// /2801 11165 2//// 30406 40423 57011;","","","","","","","","","",""
"01016099999","2010-11-27T17:00:00","78.9333333","28.9","20.0","KONGSOYA, NO","FM-12","4","","","4","","","+0.02","7","","","30.77","30.72","","","270","","4","","","","","","","","","","","","","","","","","","","","","","","","","","","","","","","","","","","","","","","","","","","","","","","","","","","","","","","","","","","","","","","","","","","","","","","","","","","","","","","","","","","","","","","","","","","SYN060AAXX  27161 01016 46/// /2702 11154 2//// 30404 40421 57008;","","","","","","","","","",""
"01016099999","2010-11-27T18:00:00","78.9333333","28.9","20.0","KONGSOYA, NO","FM-12","4","","","7","","","+0.02","7","","","30.76","30.71","","","280","","9","","","","","","","","","","","","","","","","","","","","","","","","","","","","","","","","","","","","","","","","","","","","","","","","","","","","","","","","","","","","","","","","","","","","","","","","","","","","","","","","","","","","","","","","","","","SYN060AAXX  27171 01016 46/// /2804 11139 2//// 30401 40418 57006;","","","","","","","","","",""
"01016099999","2010-11-27T19:00:00","78.9333333","28.9","20.0","KONGSOYA, NO","FM-12","4","","","10","","","+0.04","6","","","30.73","30.68","","","200","","7","","","","","","","","","","","","","","","","","","","","","","","","","","","","","","","","","","","","","","","","","","","","","","","","","","","","","","","","","","","","","","","","","","","","","","","","","","","","","","","","","","","","","","","","","","","SYN076AAXX  27181 01016 46/// /2003 11122 2//// 30388 40405 56013 333 11121 91105;","","","","","","","","","",""
"01016099999","2010-11-27T20:00:00","78.9333333","28.9","20.0","KONGSOYA, NO","FM-12","4","","","13","","","+0.05","7","","","30.71","30.66","","","220","","7","","","","","","","","","","","","","","","","","","","","","","","","","","","","","","","","","","","","","","","","","","","","","","","","","","","","","","","","","","","","","","","","","","","","","","","","","","","","","","","","","","","","","","","","","","","SYN060AAXX  27191 01016 46/// /2203 11104 2//// 30383 40399 57016;","","","","","","","","","",""
"01016099999","2010-11-27T21:00:00","78.9333333","28.9","20.0","KONGSOYA, NO","FM-12","4","","","12","","","+0.06","8","","","30.69","30.64","","","240","","9","","","","","","","","","","","","","","","","","","","","","","","","","","","","","","","","","","","","","","","","","","","","","","","","","","","","","","","","","","","","","","","","","","","","","","","","","","","","","","","","","","","","","","","","","","","SYN060AAXX  27201 01016 46/// /2404 11110 2//// 30377 40394 58019;","","","","","","","","","",""
"01016099999","2010-11-27T22:00:00","78.9333333","28.9","20.0","KONGSOYA, NO","FM-12","4","","","11","","","+0.01","8","","","30.71","30.66","","","300","","9","","","","","","","","","","","","","","","","","","","","","","","","","","","","","","","","","","","","","","","","","","","","","","","","","","","","","","","","","","","","","","","","","","","","","","","","","","","","","","","","","","","","","","","","","","","SYN060AAXX  27211 01016 46/// /3004 11115 2//// 30381 40398 58002;","","","","","","","","","",""
"01016099999","2010-11-27T23:00:00","78.9333333","28.9","20.0","KONGSOYA, NO","FM-12","4","","","11","","","+0.01","7","","","30.69","30.64","","","280","","9","","","","","","","","","","","","","","","","","","","","","","","","","","","","","","","","","","","","","","","","","","","","","","","","","","","","","","","","","","","","","","","","","","","","","","","","","","","","","","","","","","","","","","","","","","","SYN060AAXX  27221 01016 46/// /2804 11115 2//// 30375 40392 57003;","","","","","","","","","",""
"01016099999","2010-11-28T00:00:00","78.9333333","28.9","20.0","KONGSOYA, NO","FM-12","4","","","13","","","+0.02","5","","","30.66","30.61","","","250","","9","","","","","","","","","","","","","","","","","","","","","","","","","","","","","","","","","","","","","","","","","","","","","","","","","","","","","","","","","","","","","","","","","","","","","","","","","","","","","","","","","","","","","","","","","","","SYN060AAXX  27231 01016 46/// /2504 11104 2//// 30366 40383 55006;","","","","","","","","","",""
"01016099999","2010-11-28T01:00:00","78.9333333","28.9","20.0","KONGSOYA, NO","FM-12","4","","","15","","","+0.04","7","","","30.65","30.60","","","210","","7","","","","","","","","","","","","","","","","","","","","","","","","","","","","","","","","","","","","","","","","","","","","","","","","","","","","","","","","","","","","","","","","","","","","","","","","","","","","","","","","","","","","","","","","","","","SYN070AAXX  28001 01016 46/// /2103 11095 2//// 30362 40378 57015 333 91106;","","","","","","","","","",""
"01016099999","2010-11-28T02:00:00","78.9333333","28.9","20.0","KONGSOYA, NO","FM-12","4","","","16","","","+0.04","8","","","30.63","30.58","","","230","","7","","","","","","","","","","","","","","","","","","","","","","","","","","","","","","","","","","","","","","","","","","","","","","","","","","","","","","","","","","","","","","","","","","","","","","","","","","","","","","","","","","","","","","","","","","","SYN060AAXX  28011 01016 46/// /2303 11091 2//// 30357 40374 58013;","","","","","","","","","",""
"01016099999","2010-11-28T03:00:00","78.9333333","28.9","20.0","KONGSOYA, NO","FM-12","4","","","15","","","+0.03","7","","","30.61","30.56","","","280","","13","","","","","","","","","","","","","","","","","","","","","","","","","","","","","","","","","","","","","","","","","","","","","","","","","","","","","","","","","","","","","","","","","","","","","","","","","","","","","","","","","","","","","","","","","","","SYN060AAXX  28021 01016 46/// /2806 11095 2//// 30350 40367 57011;","","","","","","","","","",""
"01016099999","2010-11-28T04:00:00","78.9333333","28.9","20.0","KONGSOYA, NO","FM-12","4","","","17","","","+0.05","6","","","30.59","30.54","","","210","","9","","","","","","","","","","","","","","","","","","","","","","","","","","","","","","","","","","","","","","","","","","","","","","","","","","","","","","","","","","","","","","","","","","","","","","","","","","","","","","","","","","","","","","","","","","","SYN060AAXX  28031 01016 46/// /2104 11081 2//// 30341 40358 56016;","","","","","","","","","",""
"01016099999","2010-11-28T05:00:00","78.9333333","28.9","20.0","KONGSOYA, NO","FM-12","4","","","17","","","+0.04","7","","","30.58","30.53","","","220","","13","","","","","","","","","","","","","","","","","","","","","","","","","","","","","","","","","","","","","","","","","","","","","","","","","","","","","","","","","","","","","","","","","","","","","","","","","","","","","","","","","","","","","","","","","","","SYN060AAXX  28041 01016 46/// /2206 11085 2//// 30337 40354 57015;","","","","","","","","","",""
"01016099999","2010-11-28T06:00:00","78.9333333","28.9","20.0","KONGSOYA, NO","FM-12","4","","","17","","","+0.04","8","","","30.55","30.51","","","220","","16","","","","","","","","","","","","","","","","","","","","","","","","","","","","","","","","","","","","","","","","","","","","","","","","","","","","","","","","","","","","","","","","","","","","","","","","","","","","","","","","","","","","","","","","","","","SYN060AAXX  28051 01016 46/// /2207 11083 2//// 30331 40347 58014;","","","","","","","","","",""
"01016099999","2010-11-28T07:00:00","78.9333333","28.9","20.0","KONGSOYA, NO","FM-12","4","","","17","","","+0.03","7","","","30.54","30.49","","","220","","13","","","","","","","","","","","","","","","","","","","","","","","","","","","","","","","","","","","","","","","","","","","","","","","","","","","","","","","","","","","","","","","","","","","","","","","","","","","","","","","","","","","","","","","","","","","SYN076AAXX  28061 01016 46/// /2206 11083 2//// 30325 40341 57011 333 21121 91108;","","","","","","","","","",""
