"STATION","DATE","LATITUDE","LONGITUDE","ELEVATION","NAME","REPORT_TYPE","SOURCE","HourlyAltimeterSetting","HourlyDewPointTemperature","HourlyDryBulbTemperature","HourlyPrecipitation","HourlyPresentWeatherType","HourlyPressureChange","HourlyPressureTendency","HourlyRelativeHumidity","HourlySkyConditions","HourlySeaLevelPressure","HourlyStationPressure","HourlyVisibility","HourlyWetBulbTemperature","HourlyWindDirection","HourlyWindGustSpeed","HourlyWindSpeed","Sunrise","Sunset","DailyAverageDewPointTemperature","DailyAverageDryBulbTemperature","DailyAverageRelativeHumidity","DailyAverageSeaLevelPressure","DailyAverageStationPressure","DailyAverageWetBulbTemperature","DailyAverageWindSpeed","DailyCoolingDegreeDays","DailyDepartureFromNormalAverageTemperature","DailyHeatingDegreeDays","DailyMaximumDryBulbTemperature","DailyMinimumDryBulbTemperature","DailyPeakWindDirection","DailyPeakWindSpeed","DailyPrecipitation","DailySnowDepth","DailySnowfall","DailySustainedWindDirection","DailySustainedWindSpeed","DailyWeather","MonthlyAverageRH","MonthlyDaysWithGT001Precip","MonthlyDaysWithGT010Precip","MonthlyDaysWithGT32Temp","MonthlyDaysWithGT90Temp","MonthlyDaysWithLT0Temp","MonthlyDaysWithLT32Temp","MonthlyDepartureFromNormalAverageTemperature","MonthlyDepartureFromNormalCoolingDegreeDays","MonthlyDepartureFromNormalHeatingDegreeDays","MonthlyDepartureFromNormalMaximumTemperature","MonthlyDepartureFromNormalMinimumTemperature","MonthlyDepartureFromNormalPrecipitation","MonthlyDewpointTemperature","MonthlyGreatestPrecip","MonthlyGreatestPrecipDate","MonthlyGreatestSnowDepth","MonthlyGreatestSnowDepthDate","MonthlyGreatestSnowfall","MonthlyGreatestSnowfallDate","MonthlyMaxSeaLevelPressureValue","MonthlyMaxSeaLevelPressureValueDate","MonthlyMaxSeaLevelPressureValueTime","MonthlyMaximumTemperature","MonthlyMeanTemperature","MonthlyMinSeaLevelPressureValue","MonthlyMinSeaLevelPressureValueDate","MonthlyMinSeaLevelPressureValueTime","MonthlyMinimumTemperature","MonthlySeaLevelPressure","MonthlyStationPressure","MonthlyTotalLiquidPrecipitation","MonthlyTotalSnowfall","MonthlyWetBulb","AWND","CDSD","CLDD","DSNW","HDSD","HTDD","DYTS","DYHF","NormalsCoolingDegreeDay","NormalsHeatingDegreeDay","ShortDurationEndDate005","ShortDurationEndDate010","ShortDurationEndDate015","ShortDurationEndDate020","ShortDurationEndDate030","ShortDurationEndDate045","ShortDurationEndDate060","ShortDurationEndDate080","ShortDurationEndDate100","ShortDurationEndDate120","ShortDurationEndDate150","ShortDurationEndDate180","ShortDurationPrecipitationValue005","ShortDurationPrecipitationValue010","ShortDurationPrecipitationValue015","ShortDurationPrecipitationValue020","ShortDurationPrecipitationValue030","ShortDurationPrecipitationValue045","ShortDurationPrecipitationValue060","ShortDurationPrecipitationValue080","ShortDurationPrecipitationValue100","ShortDurationPrecipitationValue120","ShortDurationPrecipitationValue150","ShortDurationPrecipitationValue180","REM","BackupDirection","BackupDistance","BackupDistanceUnit","BackupElements","BackupElevation","BackupEquipment","BackupLatitude","BackupLongitude","BackupName","WindEquipmentChangeDate"
"01023199999","2007-01-01T09:40:00","64.35","7.8","0.0","DRAUGEN, NO","FM-15","4","28.82","34","45","","","","","66","FEW:02 25 BKN:07 69","","","7.00","","010","","3","","","","","","","","","","","","","","","","","","","","","","","","","","","","","","","","","","","","","","","","","","","","","","","","","","","","","","","","","","","","","","","","","","","","","","","","","","","","","","","","","","","","","","","","","","","MET066METAR ENDR 010840Z 01003KT 260V090 9999 FEW025 BKN070 07/01 Q0976;","","","","","","","","","",""
"01023199999","2007-01-01T12:40:00","64.35","7.8","0.0","DRAUGEN, NO","FM-15","4","28.82","37","45","","","","","76","SCT:04 20 BKN:07 69","","","7.00","","320","","16","","","","","","","","","","","","","","","","","","","","","","","","","","","","","","","","","","","","","","","","","","","","","","","","","","","","","","","","","","","","","","","","","","","","","","","","","","","","","","","","","","","","","","","","","","","MET066METAR ENDR 011140Z 32014KT 290V360 9999 SCT020 BKN070 07/03 Q0976;","","","","","","","","","",""
"01023199999","2007-01-01T13:10:00","64.35","7.8","0.0","DRAUGEN, NO","FM-15","4","28.85","37","45","","","","","76","FEW:02 20 BKN:07 30 BKN:07 59","","","7.00","","310","","15","","","","","","","","","","","","","","","","","","","","","","","","","","","","","","","","","","","","","","","","","","","","","","","","","","","","","","","","","","","","","","","","","","","","","","","","","","","","","","","","","","","","","","","","","","","MET065METAR ENDR 011210Z 31013KT 9999 FEW020 BKN030 BKN060 07/03 Q0977;","","","","","","","","","",""
"01023199999","2007-01-01T14:10:00","64.35","7.8","0.0","DRAUGEN, NO","FM-16","4","28.85","34","45","","","","","66","BKN:07 30","","","","","290","","22","","","","","","","","","","","","","","","","","","","","","","","","","","","","","","","","","","","","","","","","","","","","","","","","","","","","","","","","","","","","","","","","","","","","","","","","","","","","","","","","","","","","","","","","","","","MET046METAR ENDR 011310Z 29019KT BKN030 07/01 Q0977;","","","","","","","","","",""
"01023199999","2007-01-02T07:10:00","64.35","7.8","0.0","DRAUGEN, NO","FM-15","4","28.97","36","43","","","","","76","FEW:02 10 SCT:04 20 BKN:07 69","","","7.00","","300","","44","","","","","","","","","","","","","","","","","","","","","","","","","","","","","","","","","","","","","","","","","","","","","","","","","","","","","","","","","","","","","","","","","","","","","","","","","","","","","","","","","","","","","","","","","","","MET065METAR ENDR 020610Z 30038KT 9999 FEW010 SCT020 BKN070 06/02 Q0981;","","","","","","","","","",""
"01023199999","2007-01-02T12:40:00","64.35","7.8","0.0","DRAUGEN, NO","FM-15","4","29.18","34","41","","","","","76","SCT:04 20 BKN:07 49 BKN:07 79","","","7.00","","300","","43","","","","","","","","","","","","","","","","","","","","","","","","","","","","","","","","","","","","","","","","","","","","","","","","","","","","","","","","","","","","","","","","","","","","","","","","","","","","","","","","","","","","","","","","","","","MET065METAR ENDR 021140Z 30037KT 9999 SCT020 BKN050 BKN080 05/01 Q0988;","","","","","","","","","",""
"01023199999","2007-01-02T15:40:00","64.35","7.8","0.0","DRAUGEN, NO","FM-15","4","29.32","32","37","","||SHRA","","","81","BKN:07 16","","","7.00","","290","","46","","","","","","","","","","","","","","","","","","","","","","","","","","","","","","","","","","","","","","","","","","","","","","","","","","","","","","","","","","","","","","","","","","","","","","","","","","","","","","","","","","","","","","","","","","","MET056METAR ENDR 021440Z 29040KT 9999 SHRA BKN016 03/00 Q0993;","","","","","","","","","",""
"01023199999","2007-01-03T09:50:00","64.35","7.8","0.0","DRAUGEN, NO","FM-15","4","29.59","30","36","","","","","81","FEW:02 18 SCT:04 23 BKN:07 44","","","7.00","","280","","19","","","","","","","","","","","","","","","","","","","","","","","","","","","","","","","","","","","","","","","","","","","","","","","","","","","","","","","","","","","","","","","","","","","","","","","","","","","","","","","","","","","","","","","","","","","MET071METAR ENDR 030850Z 28017KT 9999 VCSH FEW018 SCT023 BKN045 02/M01 Q1002;","","","","","","","","","",""
"01023199999","2007-01-03T11:50:00","64.35","7.8","0.0","DRAUGEN, NO","FM-15","4","29.56","25","37","","","","","60","BKN:07 34","","","7.00","","260","","16","","","","","","","","","","","","","","","","","","","","","","","","","","","","","","","","","","","","","","","","","","","","","","","","","","","","","","","","","","","","","","","","","","","","","","","","","","","","","","","","","","","","","","","","","","","MET060METAR ENDR 031050Z 26014KT 220V290 9999 BKN035 03/M04 Q1001;","","","","","","","","","",""
"01023199999","2007-01-03T15:50:00","64.35","7.8","0.0","DRAUGEN, NO","FM-15","4","29.38","28","37","","","","","70","FEW:02 30 BKN:07 89","","","7.00","","140","","7","","","","","","","","","","","","","","","","","","","","","","","","","","","","","","","","","","","","","","","","","","","","","","","","","","","","","","","","","","","","","","","","","","","","","","","","","","","","","","","","","","","","","","","","","","","MET059METAR ENDR 031450Z 14006KT 9999 FEW030 BKN090 03/M02 Q0995;","","","","","","","","","",""
"01023199999","2007-01-04T07:10:00","64.35","7.8","0.0","DRAUGEN, NO","FM-15","4","28.70","43","46","","","","","87","BKN:07 11 OVC:08 39","","","7.00","","260","","23","","","","","","","","","","","","","","","","","","","","","","","","","","","","","","","","","","","","","","","","","","","","","","","","","","","","","","","","","","","","","","","","","","","","","","","","","","","","","","","","","","","","","","","","","","","MET058METAR ENDR 040610Z 26020KT 9999 BKN011 OVC040 08/06 Q0972;","","","","","","","","","",""
"01023199999","2007-01-04T10:20:00","64.35","7.8","0.0","DRAUGEN, NO","FM-15","4","28.73","39","45","","","","","81","BKN:07 20","","","7.00","","270","","31","","","","","","","","","","","","","","","","","","","","","","","","","","","","","","","","","","","","","","","","","","","","","","","","","","","","","","","","","","","","","","","","","","","","","","","","","","","","","","","","","","","","","","","","","","","MET051METAR ENDR 040920Z 27027KT 9999 BKN020 07/04 Q0973;","","","","","","","","","",""
"01023199999","2007-01-04T11:00:00","64.35","7.8","0.0","DRAUGEN, NO","FM-15","4","28.76","39","45","","","","","81","BKN:07 20","","","7.00","","260","","28","","","","","","","","","","","","","","","","","","","","","","","","","","","","","","","","","","","","","","","","","","","","","","","","","","","","","","","","","","","","","","","","","","","","","","","","","","","","","","","","","","","","","","","","","","","MET051METAR ENDR 041000Z 26024KT 9999 BKN020 07/04 Q0974;","","","","","","","","","",""
"01023199999","2007-01-04T13:10:00","64.35","7.8","0.0","DRAUGEN, NO","FM-15","4","28.79","41","43","","||RA","","","93","BKN:07 15","","","7.00","","290","","28","","","","","","","","","","","","","","","","","","","","","","","","","","","","","","","","","","","","","","","","","","","","","","","","","","","","","","","","","","","","","","","","","","","","","","","","","","","","","","","","","","","","","","","","","","","MET055METAR ENDR 041210Z 29024KT 9999 -RA BKN015 06/05 Q0975;","","","","","","","","","",""
"01023199999","2007-01-04T14:40:00","64.35","7.8","0.0","DRAUGEN, NO","FM-15","4","28.85","37","43","","","","","81","BKN:07 15","","","7.00","","330","","28","","","","","","","","","","","","","","","","","","","","","","","","","","","","","","","","","","","","","","","","","","","","","","","","","","","","","","","","","","","","","","","","","","","","","","","","","","","","","","","","","","","","","","","","","","","MET059METAR ENDR 041340Z 33024KT 290V350 9999 BKN015 06/03 Q0977;","","","","","","","","","",""
"01023199999","2007-01-04T16:10:00","64.35","7.8","0.0","DRAUGEN, NO","FM-15","4","28.91","36","41","","||RA","","","81","SCT:04 15 BKN:07 25","","","7.00","","","","","","","","","","","","","","","","","","","","","","","","","","","","","","","","","","","","","","","","","","","","","","","","","","","","","","","","","","","","","","","","","","","","","","","","","","","","","","","","","","","","","","","","","","","","","","","MET054METAR ENDR 041510Z 9999 -RA SCT015 BKN025 05/02 Q0979;","","","","","","","","","",""
"01023199999","2007-01-05T07:00:00","64.35","7.8","0.0","DRAUGEN, NO","FM-15","4","29.38","30","39","","","","","70","BKN:07 39","","","7.00","","290","","17","","","","","","","","","","","","","","","","","","","","","","","","","","","","","","","","","","","","","","","","","","","","","","","","","","","","","","","","","","","","","","","","","","","","","","","","","","","","","","","","","","","","","","","","","","","MET052METAR ENDR 050600Z 29015KT 9999 BKN040 04/M01 Q0995;","","","","","","","","","",""
"01023199999","2007-01-06T10:10:00","64.35","7.8","0.0","DRAUGEN, NO","FM-15","4","29.26","37","45","","","","","76","SCT:04 30 BKN:07 39","","","7.00","","240","","25","","","","","","","","","","","","","","","","","","","","","","","","","","","","","","","","","","","","","","","","","","","","","","","","","","","","","","","","","","","","","","","","","","","","","","","","","","","","","","","","","","","","","","","","","","","MET063METAR ENDR 060910Z 24022KT 9999 VCSH SCT030 BKN040 07/03 Q0991;","","","","","","","","","",""
"01023199999","2007-01-06T12:40:00","64.35","7.8","0.0","DRAUGEN, NO","FM-15","4","29.29","39","45","","","","","81","SCT:04 24 SCT:04 39","","","7.00","","230","","26","","","","","","","","","","","","","","","","","","","","","","","","","","","","","","","","","","","","","","","","","","","","","","","","","","","","","","","","","","","","","","","","","","","","","","","","","","","","","","","","","","","","","","","","","","","MET058METAR ENDR 061140Z 23023KT 9999 SCT024 SCT040 07/04 Q0992;","","","","","","","","","",""
"01023199999","2007-01-06T16:10:00","64.35","7.8","0.0","DRAUGEN, NO","FM-15","4","29.29","39","45","","","","","81","SCT:04 22","","","7.00","","230","","28","","","","","","","","","","","","","","","","","","","","","","","","","","","","","","","","","","","","","","","","","","","","","","","","","","","","","","","","","","","","","","","","","","","","","","","","","","","","","","","","","","","","","","","","","","","MET051METAR ENDR 061510Z 23024KT 9999 SCT022 07/04 Q0992;","","","","","","","","","",""
"01023199999","2007-01-07T07:10:00","64.35","7.8","0.0","DRAUGEN, NO","FM-15","4","29.21","36","46","","","","","66","SCT:04 39","","","7.00","","190","","33","","","","","","","","","","","","","","","","","","","","","","","","","","","","","","","","","","","","","","","","","","","","","","","","","","","","","","","","","","","","","","","","","","","","","","","","","","","","","","","","","","","","","","","","","","","MET051METAR ENDR 070610Z 19029KT 9999 SCT040 08/02 Q0989;","","","","","","","","","",""
"01023199999","2007-01-07T13:10:00","64.35","7.8","0.0","DRAUGEN, NO","FM-15","4","29.06","36","46","","","","","66","BKN:07 59","","","7.00","","160","","34","","","","","","","","","","","","","","","","","","","","","","","","","","","","","","","","","","","","","","","","","","","","","","","","","","","","","","","","","","","","","","","","","","","","","","","","","","","","","","","","","","","","","","","","","","","MET051METAR ENDR 071210Z 16030KT 9999 BKN060 08/02 Q0984;","","","","","","","","","",""
"01023199999","2007-01-07T15:40:00","64.35","7.8","0.0","DRAUGEN, NO","FM-15","4","29.03","37","43","","||SHRA","","","81","BKN:07 14","","","4.35","","210","","40","","","","","","","","","","","","","","","","","","","","","","","","","","","","","","","","","","","","","","","","","","","","","","","","","","","","","","","","","","","","","","","","","","","","","","","","","","","","","","","","","","","","","","","","","","","MET056METAR ENDR 071440Z 21035KT 7000 SHRA BKN014 06/03 Q0983;","","","","","","","","","",""
"01023199999","2007-01-08T07:10:00","64.35","7.8","0.0","DRAUGEN, NO","FM-15","4","28.91","36","43","","||RA","","","76","SCT:04 39 BKN:07 79","","","7.00","","200","","34","","","","","","","","","","","","","","","","","","","","","","","","","","","","","","","","","","","","","","","","","","","","","","","","","","","","","","","","","","","","","","","","","","","","","","","","","","","","","","","","","","","","","","","","","","","MET062METAR ENDR 080610Z 20030KT 9999 -RA SCT040 BKN080 06/02 Q0979;","","","","","","","","","",""
"01023199999","2007-01-08T10:10:00","64.35","7.8","0.0","DRAUGEN, NO","FM-15","4","28.85","36","41","","","","","81","FEW:02 20 OVC:08 49","","","7.00","","170","","21","","","","","","","","","","","","","","","","","","","","","","","","","","","","","","","","","","","","","","","","","","","","","","","","","","","","","","","","","","","","","","","","","","","","","","","","","","","","","","","","","","","","","","","","","","","MET058METAR ENDR 080910Z 17018KT 9999 FEW020 OVC050 05/02 Q0977;","","","","","","","","","",""
"01023199999","2007-01-08T13:00:00","64.35","7.8","0.0","DRAUGEN, NO","FM-15","4","28.76","37","41","","","","","87","OVC:08 59","","","7.00","","290","","23","","","","","","","","","","","","","","","","","","","","","","","","","","","","","","","","","","","","","","","","","","","","","","","","","","","","","","","","","","","","","","","","","","","","","","","","","","","","","","","","","","","","","","","","","","","MET051METAR ENDR 081200Z 29020KT 9999 OVC060 05/03 Q0974;","","","","","","","","","",""
"01023199999","2007-01-08T16:10:00","64.35","7.8","0.0","DRAUGEN, NO","FM-15","4","28.79","37","39","","||RA","","","93","OVC:08 30","","","7.00","","280","","13","","","","","","","","","","","","","","","","","","","","","","","","","","","","","","","","","","","","","","","","","","","","","","","","","","","","","","","","","","","","","","","","","","","","","","","","","","","","","","","","","","","","","","","","","","","MET055METAR ENDR 081510Z 28011KT 9999 -RA OVC030 04/03 Q0975;","","","","","","","","","",""
"01023199999","2007-01-09T09:40:00","64.35","7.8","0.0","DRAUGEN, NO","FM-15","4","28.64","37","41","","","","","87","BKN:07 79","","","7.00","","170","","18","","","","","","","","","","","","","","","","","","","","","","","","","","","","","","","","","","","","","","","","","","","","","","","","","","","","","","","","","","","","","","","","","","","","","","","","","","","","","","","","","","","","","","","","","","","MET051METAR ENDR 090840Z 17016KT 9999 BKN080 05/03 Q0970;","","","","","","","","","",""
"01023199999","2007-01-09T13:10:00","64.35","7.8","0.0","DRAUGEN, NO","FM-15","4","28.47","34","43","","","","","71","OVC:08 64","","","7.00","","110","","25","","","","","","","","","","","","","","","","","","","","","","","","","","","","","","","","","","","","","","","","","","","","","","","","","","","","","","","","","","","","","","","","","","","","","","","","","","","","","","","","","","","","","","","","","","","MET051METAR ENDR 091210Z 11022KT 9999 OVC065 06/01 Q0964;","","","","","","","","","",""
"01023199999","2007-01-09T13:40:00","64.35","7.8","0.0","DRAUGEN, NO","FM-15","4","28.47","34","43","","","","","71","OVC:08 49","","","7.00","","110","","25","","","","","","","","","","","","","","","","","","","","","","","","","","","","","","","","","","","","","","","","","","","","","","","","","","","","","","","","","","","","","","","","","","","","","","","","","","","","","","","","","","","","","","","","","","","MET051METAR ENDR 091240Z 11022KT 9999 OVC050 06/01 Q0964;","","","","","","","","","",""
"01023199999","2007-01-10T07:10:00","64.35","7.8","0.0","DRAUGEN, NO","FM-15","4","29.12","27","37","","","","","65","SCT:04 34","","","7.00","","270","","37","","","","","","","","","","","","","","","","","","","","","","","","","","","","","","","","","","","","","","","","","","","","","","","","","","","","","","","","","","","","","","","","","","","","","","","","","","","","","","","","","","","","","","","","","","","MET052METAR ENDR 100610Z 27032KT 9999 SCT035 03/M03 Q0986;","","","","","","","","","",""
"01023199999","2007-01-10T10:10:00","64.35","7.8","0.0","DRAUGEN, NO","FM-15","4","29.18","27","36","","","","","70","SCT:04 34 SCT:04 49","","","7.00","","290","","28","","","","","","","","","","","","","","","","","","","","","","","","","","","","","","","","","","","","","","","","","","","","","","","","","","","","","","","","","","","","","","","","","","","","","","","","","","","","","","","","","","","","","","","","","","","MET059METAR ENDR 100910Z 29024KT 9999 SCT035 SCT050 02/M03 Q0988;","","","","","","","","","",""
"01023199999","2007-01-10T13:10:00","64.35","7.8","0.0","DRAUGEN, NO","FM-15","4","29.23","27","32","","","","","80","SCT:04 20 SCT:04 30 BKN:07 49","","","7.00","","290","","17","","","","","","","","","","","","","","","","","","","","","","","","","","","","","","","","","","","","","","","","","","","","","","","","","","","","","","","","","","","","","","","","","","","","","","","","","","","","","","","","","","","","","","","","","","","MET079METAR ENDR 101210Z 29015KT 160V320 9999 VCSH SCT020 SCT030 BKN050 00/M03 Q0990;","","","","","","","","","",""
"01023199999","2007-01-10T16:10:00","64.35","7.8","0.0","DRAUGEN, NO","FM-15","4","29.29","32","32","","||SHSN","","","100","BKN:07 10","","","0.62","","330","","30","","","","","","","","","","","","","","","","","","","","","","","","","","","","","","","","","","","","","","","","","","","","","","","","","","","","","","","","","","","","","","","","","","","","","","","","","","","","","","","","","","","","","","","","","","","MET066METAR ENDR 101510Z 33026KT 310V010 1000 +SHSN BKN010 00/M00 Q0992;","","","","","","","","","",""
"01023199999","2007-01-10T16:40:00","64.35","7.8","0.0","DRAUGEN, NO","FM-15","4","29.32","30","34","","||SHSN","","","87","BKN:07 10 BKN:07 69","","","3.11","","330","","36","","","","","","","","","","","","","","","","","","","","","","","","","","","","","","","","","","","","","","","","","","","","","","","","","","","","","","","","","","","","","","","","","","","","","","","","","","","","","","","","","","","","","","","","","","","MET069METAR ENDR 101540Z 33031KT 5000 SHSN VCSH BKN010 BKN070 01/M01 Q0993;","","","","","","","","","",""
"01023199999","2007-01-12T10:10:00","64.35","7.8","0.0","DRAUGEN, NO","FM-15","4","28.97","28","37","","","","","70","FEW:02 18 OVC:08 34","","","3.73","","260","","38","","","","","","","","","","","","","","","","","","","","","","","","","","","","","","","","","","","","","","","","","","","","","","","","","","","","","","","","","","","","","","","","","","","","","","","","","","","","","","","","","","","","","","","","","","","MET068METAR ENDR 120910Z 26033KT 6000 -SN VCSH FEW018 OVC035 03/M02 Q0981;","","","","","","","","","",""
"01023199999","2007-01-12T13:10:00","64.35","7.8","0.0","DRAUGEN, NO","FM-15","4","28.94","32","34","","||RA","","","93","OVC:08 7","","","7.00","","210","","17","","","","","","","","","","","","","","","","","","","","","","","","","","","","","","","","","","","","","","","","","","","","","","","","","","","","","","","","","","","","","","","","","","","","","","","","","","","","","","","","","","","","","","","","","","","MET061METAR ENDR 121210Z 21015KT 9999 -RA VCSH OVC007 01/M00 Q0980;","","","","","","","","","",""
"01023199999","2007-01-13T10:10:00","64.35","7.8","0.0","DRAUGEN, NO","FM-15","4","29.21","25","37","","","","","60","FEW:02 30 BKN:07 39 BKN:07 217","","","7.00","","250","","25","","","","","","","","","","","","","","","","","","","","","","","","","","","","","","","","","","","","","","","","","","","","","","","","","","","","","","","","","","","","","","","","","","","","","","","","","","","","","","","","","","","","","","","","","","","MET074METAR ENDR 130910Z 25022KT 9999 VCSH FEW030TCU BKN040 BKN220 03/M04 Q0989;","","","","","","","","","",""
"01023199999","2007-01-13T13:10:00","64.35","7.8","0.0","DRAUGEN, NO","FM-15","4","29.23","28","36","","","","","75","FEW:02 25 BKN:07 44 BKN:07 197","","","7.00","","290","","40","","","","","","","","","","","","","","","","","","","","","","","","","","","","","","","","","","","","","","","","","","","","","","","","","","","","","","","","","","","","","","","","","","","","","","","","","","","","","","","","","","","","","","","","","","","MET073METAR ENDR 131210Z 29035KT 9999 VCSH FEW025CB BKN045 BKN200 02/M02 Q0990;","","","","","","","","","",""
"01023199999","2007-01-13T16:10:00","64.35","7.8","0.0","DRAUGEN, NO","FM-15","4","29.29","27","37","","","","","65","FEW:02 25 SCT:04 197","","","7.00","","270","","18","","","","","","","","","","","","","","","","","","","","","","","","","","","","","","","","","","","","","","","","","","","","","","","","","","","","","","","","","","","","","","","","","","","","","","","","","","","","","","","","","","","","","","","","","","","MET066METAR ENDR 131510Z 27016KT 9999 VCSH FEW025CB SCT200 03/M03 Q0992;","","","","","","","","","",""
"01023199999","2007-01-14T10:10:00","64.35","7.8","0.0","DRAUGEN, NO","FM-15","4","29.23","27","41","","","","","57","BKN:07 157","","","7.00","","350","","13","","","","","","","","","","","","","","","","","","","","","","","","","","","","","","","","","","","","","","","","","","","","","","","","","","","","","","","","","","","","","","","","","","","","","","","","","","","","","","","","","","","","","","","","","","","MET060METAR ENDR 140910Z 35011KT 290V050 9999 BKN160 05/M03 Q0990;","","","","","","","","","",""
"01023199999","2007-01-14T13:20:00","64.35","7.8","0.0","DRAUGEN, NO","FM-15","4","29.35","28","39","","","","","65","FEW:02 25 SCT:04 39 BKN:07 157","","","7.00","","290","","28","","","","","","","","","","","","","","","","","","","","","","","","","","","","","","","","","","","","","","","","","","","","","","","","","","","","","","","","","","","","","","","","","","","","","","","","","","","","","","","","","","","","","","","","","","","MET069METAR ENDR 141220Z 29024KT 9999 FEW025TCU SCT040 BKN160 04/M02 Q0994;","","","","","","","","","",""
"01023199999","2007-01-14T16:10:00","64.35","7.8","0.0","DRAUGEN, NO","FM-15","4","29.44","25","39","","","","","56","FEW:02 34 SCT:04 157","","","7.00","","290","","25","","","","","","","","","","","","","","","","","","","","","","","","","","","","","","","","","","","","","","","","","","","","","","","","","","","","","","","","","","","","","","","","","","","","","","","","","","","","","","","","","","","","","","","","","","","MET059METAR ENDR 141510Z 29022KT 9999 FEW035 SCT160 04/M04 Q0997;","","","","","","","","","",""
"01023199999","2007-01-15T07:40:00","64.35","7.8","0.0","DRAUGEN, NO","FM-15","4","28.73","39","43","","||RA","","","87","BKN:07 25","","","1.86","","210","49","37","","","","","","","","","","","","","","","","","","","","","","","","","","","","","","","","","","","","","","","","","","","","","","","","","","","","","","","","","","","","","","","","","","","","","","","","","","","","","","","","","","","","","","","","","","","MET058METAR ENDR 150640Z 21032G43KT 3000 -RA BKN025 06/04 Q0973;","","","","","","","","","",""
"01023199999","2007-01-15T10:10:00","64.35","7.8","0.0","DRAUGEN, NO","FM-15","4","28.76","37","43","","","","","81","BKN:07 25","","","7.00","","260","","43","","","","","","","","","","","","","","","","","","","","","","","","","","","","","","","","","","","","","","","","","","","","","","","","","","","","","","","","","","","","","","","","","","","","","","","","","","","","","","","","","","","","","","","","","","","MET059METAR ENDR 150910Z 26037KT 9999 VCSH BKN025TCU 06/03 Q0974;","","","","","","","","","",""
"01023199999","2007-01-15T13:10:00","64.35","7.8","0.0","DRAUGEN, NO","FM-15","4","29.06","30","41","","","","","66","BKN:07 30","","","7.00","","270","","62","","","","","","","","","","","","","","","","","","","","","","","","","","","","","","","","","","","","","","","","","","","","","","","","","","","","","","","","","","","","","","","","","","","","","","","","","","","","","","","","","","","","","","","","","","","MET060METAR ENDR 151210Z 27054KT 9999 VCSH BKN030TCU 05/M01 Q0984;","","","","","","","","","",""
"01023199999","2007-01-15T16:20:00","64.35","7.8","0.0","DRAUGEN, NO","FM-15","4","29.15","30","41","","","","","66","SCT:04 32 BKN:07 108","","","7.00","","250","","29","","","","","","","","","","","","","","","","","","","","","","","","","","","","","","","","","","","","","","","","","","","","","","","","","","","","","","","","","","","","","","","","","","","","","","","","","","","","","","","","","","","","","","","","","","","MET059METAR ENDR 151520Z 25025KT 9999 SCT032 BKN110 05/M01 Q0987;","","","","","","","","","",""
"01023199999","2007-01-16T07:20:00","64.35","7.8","0.0","DRAUGEN, NO","FM-15","4","29.00","25","39","","","","","56","SCT:04 36","","","7.00","","","","","","","","","","","","","","","","","","","","","","","","","","","","","","","","","","","","","","","","","","","","","","","","","","","","","","","","","","","","","","","","","","","","","","","","","","","","","","","","","","","","","","","","","","","","","","","MET044METAR ENDR 160620Z 9999 SCT037 04/M04 Q0982;","","","","","","","","","",""
"01023199999","2007-01-16T10:10:00","64.35","7.8","0.0","DRAUGEN, NO","FM-15","4","29.06","27","39","","","","","61","BKN:07 32","","","7.00","","270","","45","","","","","","","","","","","","","","","","","","","","","","","","","","","","","","","","","","","","","","","","","","","","","","","","","","","","","","","","","","","","","","","","","","","","","","","","","","","","","","","","","","","","","","","","","","","MET055METAR ENDR 160910Z 27039KT 9999 BKN032TCU 04/M03 Q0984;","","","","","","","","","",""
"01023199999","2007-01-16T13:10:00","64.35","7.8","0.0","DRAUGEN, NO","FM-15","4","29.06","32","37","","","","","81","OVC:08 19","","","2.49","","260","","55","","","","","","","","","","","","","","","","","","","","","","","","","","","","","","","","","","","","","","","","","","","","","","","","","","","","","","","","","","","","","","","","","","","","","","","","","","","","","","","","","","","","","","","","","","","MET057METAR ENDR 161210Z 26048KT 4000E VCSH OVC019 03/00 Q0984;","","","","","","","","","",""
"01023199999","2007-01-16T16:10:00","64.35","7.8","0.0","DRAUGEN, NO","FM-15","4","29.15","32","37","","","","","81","FEW:02 23 BKN:07 62 BKN:07 157","","","7.00","","280","","41","","","","","","","","","","","","","","","","","","","","","","","","","","","","","","","","","","","","","","","","","","","","","","","","","","","","","","","","","","","","","","","","","","","","","","","","","","","","","","","","","","","","","","","","","","","MET070METAR ENDR 161510Z 28036KT 9999 VCSH FEW023 BKN063 BKN159 03/00 Q0987;","","","","","","","","","",""
"01023199999","2007-01-17T07:10:00","64.35","7.8","0.0","DRAUGEN, NO","FM-15","4","29.38","21","37","","","","","52","BKN:07 53","","","7.00","","","","","","","","","","","","","","","","","","","","","","","","","","","","","","","","","","","","","","","","","","","","","","","","","","","","","","","","","","","","","","","","","","","","","","","","","","","","","","","","","","","","","","","","","","","","","","","MET044METAR ENDR 170610Z 9999 BKN054 03/M06 Q0995;","","","","","","","","","",""
"01023199999","2007-01-17T10:20:00","64.35","7.8","0.0","DRAUGEN, NO","FM-15","4","29.35","30","37","","","","","75","BKN:07 20","","","7.00","","230","","24","","","","","","","","","","","","","","","","","","","","","","","","","","","","","","","","","","","","","","","","","","","","","","","","","","","","","","","","","","","","","","","","","","","","","","","","","","","","","","","","","","","","","","","","","","","MET068METAR ENDR 170920Z 23021KT 210V280 9999 VCSH BKN020TCU 03/M01 Q0994;","","","","","","","","","",""
"01023199999","2007-01-17T13:10:00","64.35","7.8","0.0","DRAUGEN, NO","FM-15","4","29.32","27","37","","","","","65","FEW:02 30 SCT:04 34","","","7.00","","250","","16","","","","","","","","","","","","","","","","","","","","","","","","","","","","","","","","","","","","","","","","","","","","","","","","","","","","","","","","","","","","","","","","","","","","","","","","","","","","","","","","","","","","","","","","","","","MET067METAR ENDR 171210Z 25014KT 9999 VCSH FEW030TCU SCT035 03/M03 Q0993;","","","","","","","","","",""
"01023199999","2007-01-17T16:10:00","64.35","7.8","0.0","DRAUGEN, NO","FM-15","4","29.21","27","36","","","","","70","SCT:04 30 BKN:07 187","","","7.00","","060","","1","","","","","","","","","","","","","","","","","","","","","","","","","","","","","","","","","","","","","","","","","","","","","","","","","","","","","","","","","","","","","","","","","","","","","","","","","","","","","","","","","","","","","","","","","","","MET059METAR ENDR 171510Z 06001KT 9999 SCT030 BKN190 02/M03 Q0989;","","","","","","","","","",""
"01023199999","2007-01-18T10:10:00","64.35","7.8","0.0","DRAUGEN, NO","FM-15","4","28.70","27","34","","","","","75","BKN:07 23","","","7.00","","060","","28","","","","","","","","","","","","","","","","","","","","","","","","","","","","","","","","","","","","","","","","","","","","","","","","","","","","","","","","","","","","","","","","","","","","","","","","","","","","","","","","","","","","","","","","","","","MET057METAR ENDR 180910Z 06024KT 9999 VCSH BKN023 01/M03 Q0972;","","","","","","","","","",""
"01023199999","2007-01-18T13:10:00","64.35","7.8","0.0","DRAUGEN, NO","FM-15","4","28.70","25","36","","","","","65","OVC:08 26","","","7.00","","050","","33","","","","","","","","","","","","","","","","","","","","","","","","","","","","","","","","","","","","","","","","","","","","","","","","","","","","","","","","","","","","","","","","","","","","","","","","","","","","","","","","","","","","","","","","","","","MET057METAR ENDR 181210Z 05029KT 9999 VCSH OVC026 02/M04 Q0972;","","","","","","","","","",""
"01023199999","2007-01-18T16:10:00","64.35","7.8","0.0","DRAUGEN, NO","FM-15","4","28.70","25","36","","","","","65","OVC:08 28","","","7.00","","050","","34","","","","","","","","","","","","","","","","","","","","","","","","","","","","","","","","","","","","","","","","","","","","","","","","","","","","","","","","","","","","","","","","","","","","","","","","","","","","","","","","","","","","","","","","","","","MET057METAR ENDR 181510Z 05030KT 9999 VCSH OVC028 02/M04 Q0972;","","","","","","","","","",""
"01023199999","2007-01-19T07:10:00","64.35","7.8","0.0","DRAUGEN, NO","FM-15","4","29.12","27","37","","","","","65","BKN:07 33","","","7.00","","","","","","","","","","","","","","","","","","","","","","","","","","","","","","","","","","","","","","","","","","","","","","","","","","","","","","","","","","","","","","","","","","","","","","","","","","","","","","","","","","","","","","","","","","","","","","","MET044METAR ENDR 190610Z 9999 BKN034 03/M03 Q0986;","","","","","","","","","",""
"01023199999","2007-01-19T10:10:00","64.35","7.8","0.0","DRAUGEN, NO","FM-15","4","29.23","32","36","","","","","87","BKN:07 9","","","7.00","","300","","7","","","","","","","","","","","","","","","","","","","","","","","","","","","","","","","","","","","","","","","","","","","","","","","","","","","","","","","","","","","","","","","","","","","","","","","","","","","","","","","","","","","","","","","","","","","MET067METAR ENDR 190910Z 30006KT 280V360 9999 VCSH BKN009TCU 02/00 Q0990;","","","","","","","","","",""
"01023199999","2007-01-19T13:10:00","64.35","7.8","0.0","DRAUGEN, NO","FM-15","4","29.32","34","41","","||RA","","","76","BKN:07 22","","","7.00","","340","","10","","","","","","","","","","","","","","","","","","","","","","","","","","","","","","","","","","","","","","","","","","","","","","","","","","","","","","","","","","","","","","","","","","","","","","","","","","","","","","","","","","","","","","","","","","","MET071METAR ENDR 191210Z 34009KT 280V060 9999 -RA VCSH BKN022TCU 05/01 Q0993;","","","","","","","","","",""
"01023199999","2007-01-19T16:10:00","64.35","7.8","0.0","DRAUGEN, NO","FM-15","4","29.44","25","41","","","","","53","BKN:07 39","","","7.00","","320","","21","","","","","","","","","","","","","","","","","","","","","","","","","","","","","","","","","","","","","","","","","","","","","","","","","","","","","","","","","","","","","","","","","","","","","","","","","","","","","","","","","","","","","","","","","","","MET057METAR ENDR 191510Z 32018KT 9999 VCSH BKN040 05/M04 Q0997;","","","","","","","","","",""
"01023199999","2007-01-20T07:20:00","64.35","7.8","0.0","DRAUGEN, NO","FM-15","4","29.38","30","36","","","","","81","OVC:08 13","","","1.86","","050","","1","","","","","","","","","","","","","","","","","","","","","","","","","","","","","","","","","","","","","","","","","","","","","","","","","","","","","","","","","","","","","","","","","","","","","","","","","","","","","","","","","","","","","","","","","","","MET056METAR ENDR 200620Z 05001KT 3000 +SN OVC013 02/M01 Q0995;","","","","","","","","","",""
"01023199999","2007-01-20T10:10:00","64.35","7.8","0.0","DRAUGEN, NO","FM-15","4","29.26","32","37","","","","","81","SCT:04 19 BKN:07 79","","","7.00","","100","","19","","","","","","","","","","","","","","","","","","","","","","","","","","","","","","","","","","","","","","","","","","","","","","","","","","","","","","","","","","","","","","","","","","","","","","","","","","","","","","","","","","","","","","","","","","","MET067METAR ENDR 200910Z 10017KT 9999 VCSH SCT019TCU BKN080 03/M00 Q0991;","","","","","","","","","",""
"01023199999","2007-01-20T13:10:00","64.35","7.8","0.0","DRAUGEN, NO","FM-15","4","29.15","25","36","","","","","65","BKN:07 197","","","7.00","","090","","26","","","","","","","","","","","","","","","","","","","","","","","","","","","","","","","","","","","","","","","","","","","","","","","","","","","","","","","","","","","","","","","","","","","","","","","","","","","","","","","","","","","","","","","","","","","MET052METAR ENDR 201210Z 09023KT 9999 BKN200 02/M04 Q0987;","","","","","","","","","",""
"01023199999","2007-01-20T16:20:00","64.35","7.8","0.0","DRAUGEN, NO","FM-15","4","29.06","27","37","","","","","65","BKN:07 29 OVC:08 79","","","7.00","","090","","25","","","","","","","","","","","","","","","","","","","","","","","","","","","","","","","","","","","","","","","","","","","","","","","","","","","","","","","","","","","","","","","","","","","","","","","","","","","","","","","","","","","","","","","","","","","MET059METAR ENDR 201520Z 09022KT 9999 BKN029 OVC080 03/M03 Q0984;","","","","","","","","","",""
"01023199999","2007-01-21T07:10:00","64.35","7.8","0.0","DRAUGEN, NO","FM-15","4","29.32","27","34","","","","","75","SCT:04 21 BKN:07 38 OVC:08 49","","","4.97","","060","","33","","","","","","","","","","","","","","","","","","","","","","","","","","","","","","","","","","","","","","","","","","","","","","","","","","","","","","","","","","","","","","","","","","","","","","","","","","","","","","","","","","","","","","","","","","","MET070METAR ENDR 210610Z 06029KT 8000 -SN SCT021 BKN039 OVC050 01/M03 Q0993;","","","","","","","","","",""
"01023199999","2007-01-21T10:10:00","64.35","7.8","0.0","DRAUGEN, NO","FM-15","4","29.41","21","37","","","","","52","SCT:04 43 SCT:04 98","","","7.00","","050","","46","","","","","","","","","","","","","","","","","","","","","","","","","","","","","","","","","","","","","","","","","","","","","","","","","","","","","","","","","","","","","","","","","","","","","","","","","","","","","","","","","","","","","","","","","","","MET064METAR ENDR 210910Z 05040KT 9999 VCSH SCT044 SCT100 03/M06 Q0996;","","","","","","","","","",""
"01023199999","2007-01-21T13:10:00","64.35","7.8","0.0","DRAUGEN, NO","FM-15","4","29.53","25","37","","","","","60","SCT:04 49","","","7.00","","030","","29","","","","","","","","","","","","","","","","","","","","","","","","","","","","","","","","","","","","","","","","","","","","","","","","","","","","","","","","","","","","","","","","","","","","","","","","","","","","","","","","","","","","","","","","","","","MET059METAR ENDR 211210Z 03025KT 9999 VCSH SCT050CB 03/M04 Q1000;","","","","","","","","","",""
"01023199999","2007-01-21T16:10:00","64.35","7.8","0.0","DRAUGEN, NO","FM-15","4","29.62","21","36","","","","","56","SCT:04 32","","","7.00","","030","","36","","","","","","","","","","","","","","","","","","","","","","","","","","","","","","","","","","","","","","","","","","","","","","","","","","","","","","","","","","","","","","","","","","","","","","","","","","","","","","","","","","","","","","","","","","","MET059METAR ENDR 211510Z 03031KT 9999 VCSH SCT033CB 02/M06 Q1003;","","","","","","","","","",""
"01023199999","2007-01-22T07:10:00","64.35","7.8","0.0","DRAUGEN, NO","FM-15","4","29.85","27","39","","","","","61","FEW:02 35","","","7.00","","340","","24","","","","","","","","","","","","","","","","","","","","","","","","","","","","","","","","","","","","","","","","","","","","","","","","","","","","","","","","","","","","","","","","","","","","","","","","","","","","","","","","","","","","","","","","","","","MET060METAR ENDR 220610Z 34021KT 290V030 9999 FEW036 04/M03 Q1011;","","","","","","","","","",""
"01023199999","2007-01-22T10:10:00","64.35","7.8","0.0","DRAUGEN, NO","FM-15","4","29.85","30","37","","","","","75","BKN:07 23","","","7.00","","330","","26","","","","","","","","","","","","","","","","","","","","","","","","","","","","","","","","","","","","","","","","","","","","","","","","","","","","","","","","","","","","","","","","","","","","","","","","","","","","","","","","","","","","","","","","","","","MET068METAR ENDR 220910Z 33023KT 290V010 9999 VCSH BKN023TCU 03/M01 Q1011;","","","","","","","","","",""
"01023199999","2007-01-22T13:10:00","64.35","7.8","0.0","DRAUGEN, NO","FM-15","4","29.85","28","37","","","","","70","SCT:04 20 SCT:04 98","","","7.00","","340","","16","","","","","","","","","","","","","","","","","","","","","","","","","","","","","","","","","","","","","","","","","","","","","","","","","","","","","","","","","","","","","","","","","","","","","","","","","","","","","","","","","","","","","","","","","","","MET075METAR ENDR 221210Z 34014KT 290V050 9999 VCSH SCT020TCU SCT100 03/M02 Q1011;","","","","","","","","","",""
"01023199999","2007-01-24T07:10:00","64.35","7.8","0.0","DRAUGEN, NO","FM-15","4","30.03","18","36","","","","","48","","","","7.00","","070","","26","","","","","","","","","","","","","","","","","","","","","","","","","","","","","","","","","","","","","","","","","","","","","","","","","","","","","","","","","","","","","","","","","","","","","","","","","","","","","","","","","","","","","","","","","","","MET049METAR ENDR 240610Z 07023KT 9999 SKC 02/M08 Q1017;","","","","","","","","","",""
"01023199999","2007-01-24T10:10:00","64.35","7.8","0.0","DRAUGEN, NO","FM-15","4","30.15","19","34","","","","","56","","","","6.15","","110","","17","","","","","","","","","","","","","","","","","","","","","","","","","","","","","","","","","","","","","","","","","","","","","","","","","","","","","","","","","","","","","","","","","","","","","","","","","","","","","","","","","","","","","","","","","","","MET046METAR ENDR 240910Z 11015KT CAVOK 01/M07 Q1021;","","","","","","","","","",""
"01023199999","2007-01-24T13:10:00","64.35","7.8","0.0","DRAUGEN, NO","FM-15","4","30.18","21","32","","","","","64","","","","6.15","","140","","11","","","","","","","","","","","","","","","","","","","","","","","","","","","","","","","","","","","","","","","","","","","","","","","","","","","","","","","","","","","","","","","","","","","","","","","","","","","","","","","","","","","","","","","","","","","MET046METAR ENDR 241210Z 14010KT CAVOK 00/M06 Q1022;","","","","","","","","","",""
"01023199999","2007-01-24T16:40:00","64.35","7.8","0.0","DRAUGEN, NO","FM-15","4","30.21","19","32","","","","","60","","","","6.15","","180","","10","","","","","","","","","","","","","","","","","","","","","","","","","","","","","","","","","","","","","","","","","","","","","","","","","","","","","","","","","","","","","","","","","","","","","","","","","","","","","","","","","","","","","","","","","","","MET047METAR ENDR 241540Z 18009KT CAVOK M00/M07 Q1023;","","","","","","","","","",""
"01023199999","2007-01-25T07:10:00","64.35","7.8","0.0","DRAUGEN, NO","FM-15","4","29.74","37","41","","","","","87","FEW:02 10 BKN:07 20","","","3.11","","260","","49","","","","","","","","","","","","","","","","","","","","","","","","","","","","","","","","","","","","","","","","","","","","","","","","","","","","","","","","","","","","","","","","","","","","","","","","","","","","","","","","","","","","","","","","","","","MET059METAR ENDR 250610Z 26043KT 5000S FEW010 BKN020 05/03 Q1007;","","","","","","","","","",""
"01023199999","2007-01-25T10:10:00","64.35","7.8","0.0","DRAUGEN, NO","FM-15","4","29.65","39","45","","","","","81","BKN:07 17 OVC:08 49","","","7.00","","250","","51","","","","","","","","","","","","","","","","","","","","","","","","","","","","","","","","","","","","","","","","","","","","","","","","","","","","","","","","","","","","","","","","","","","","","","","","","","","","","","","","","","","","","","","","","","","MET058METAR ENDR 250910Z 25044KT 9999 BKN017 OVC050 07/04 Q1004;","","","","","","","","","",""
"01023199999","2007-01-25T15:10:00","64.35","7.8","0.0","DRAUGEN, NO","FM-15","4","","39","41","","||RA","","","93","OVC:08 14","","","1.18","","240","","63","","","","","","","","","","","","","","","","","","","","","","","","","","","","","","","","","","","","","","","","","","","","","","","","","","","","","","","","","","","","","","","","","","","","","","","","","","","","","","","","","","","","","","","","","","","MET060METAR ENDR 251410Z 24055KT 1900 -RA VCSH OVC014 05/04 Q0994;","","","","","","","","","",""
"01023199999","2007-01-26T10:10:00","64.35","7.8","0.0","DRAUGEN, NO","FM-16","4","29.47","23","34","","","","","65","SCT:04 10 BKN:07 30","","","","","320","","43","","","","","","","","","","","","","","","","","","","","","","","","","","","","","","","","","","","","","","","","","","","","","","","","","","","","","","","","","","","","","","","","","","","","","","","","","","","","","","","","","","","","","","","","","","","MET062METAR ENDR 260910Z 32037KT 300V360 SCT010 BKN030 01/M05 Q0998;","","","","","","","","","",""
"01023199999","2007-01-26T13:10:00","64.35","7.8","0.0","DRAUGEN, NO","FM-15","4","29.47","19","34","","","","","56","FEW:02 10 SCT:04 30","","","7.00","","330","","36","","","","","","","","","","","","","","","","","","","","","","","","","","","","","","","","","","","","","","","","","","","","","","","","","","","","","","","","","","","","","","","","","","","","","","","","","","","","","","","","","","","","","","","","","","","MET066METAR ENDR 261210Z 33031KT 9999 VCSH FEW010CB SCT030 01/M07 Q0998;","","","","","","","","","",""
"01023199999","2007-01-26T13:40:00","64.35","7.8","0.0","DRAUGEN, NO","FM-16","4","29.47","21","34","","","","","60","FEW:02 10 SCT:04 30","","","","","350","49","34","","","","","","","","","","","","","","","","","","","","","","","","","","","","","","","","","","","","","","","","","","","","","","","","","","","","","","","","","","","","","","","","","","","","","","","","","","","","","","","","","","","","","","","","","","","MET064METAR ENDR 261240Z 35029G42KT VCSH FEW010CB SCT030 01/M06 Q0998;","","","","","","","","","",""
"01023199999","2007-01-27T07:10:00","64.35","7.8","0.0","DRAUGEN, NO","FM-15","4","29.83","18","30","","","","","59","FEW:02 15 SCT:04 20 BKN:07 49","","","7.00","","340","","33","","","","","","","","","","","","","","","","","","","","","","","","","","","","","","","","","","","","","","","","","","","","","","","","","","","","","","","","","","","","","","","","","","","","","","","","","","","","","","","","","","","","","","","","","","","MET075METAR ENDR 270610Z 34029KT 300V010 9999 FEW015 SCT020 BKN050 M01/M08 Q1010;","","","","","","","","","",""
"01023199999","2007-01-27T10:10:00","64.35","7.8","0.0","DRAUGEN, NO","FM-15","4","29.83","19","30","","","","","64","SCT:04 10 BKN:07 25","","","7.00","","310","","30","","","","","","","","","","","","","","","","","","","","","","","","","","","","","","","","","","","","","","","","","","","","","","","","","","","","","","","","","","","","","","","","","","","","","","","","","","","","","","","","","","","","","","","","","","","MET067METAR ENDR 270910Z 31026KT 9999 VCSH SCT010CB BKN025 M01/M07 Q1010;","","","","","","","","","",""
"01023199999","2007-01-27T13:10:00","64.35","7.8","0.0","DRAUGEN, NO","FM-15","4","29.80","21","30","","","","","69","FEW:02 9 BKN:07 23","","","7.00","","310","","29","","","","","","","","","","","","","","","","","","","","","","","","","","","","","","","","","","","","","","","","","","","","","","","","","","","","","","","","","","","","","","","","","","","","","","","","","","","","","","","","","","","","","","","","","","","MET073METAR ENDR 271210Z 31025KT 290V040 9999 VCSH FEW009 BKN023 M01/M06 Q1009;","","","","","","","","","",""
"01023199999","2007-01-27T16:10:00","64.35","7.8","0.0","DRAUGEN, NO","FM-15","4","29.77","19","32","","","","","60","FEW:02 9 BKN:07 20 BKN:07 49","","","7.00","","320","","25","","","","","","","","","","","","","","","","","","","","","","","","","","","","","","","","","","","","","","","","","","","","","","","","","","","","","","","","","","","","","","","","","","","","","","","","","","","","","","","","","","","","","","","","","","","MET079METAR ENDR 271510Z 32022KT 270V050 9999 VCSH FEW009 BKN020 BKN050 00/M07 Q1008;","","","","","","","","","",""
"01023199999","2007-01-28T07:10:00","64.35","7.8","0.0","DRAUGEN, NO","FM-15","4","29.41","27","34","","","","","75","FEW:02 20 BKN:07 49","","","7.00","","090","","5","","","","","","","","","","","","","","","","","","","","","","","","","","","","","","","","","","","","","","","","","","","","","","","","","","","","","","","","","","","","","","","","","","","","","","","","","","","","","","","","","","","","","","","","","","","MET071METAR ENDR 280610Z 09004KT 020V170 9999 -SN FEW020 BKN050 01/M03 Q0996;","","","","","","","","","",""
"01023199999","2007-01-28T13:10:00","64.35","7.8","0.0","DRAUGEN, NO","FM-15","4","29.41","28","34","","","","","81","BKN:07 20 OVC:08 30","","","7.00","","110","","10","","","","","","","","","","","","","","","","","","","","","","","","","","","","","","","","","","","","","","","","","","","","","","","","","","","","","","","","","","","","","","","","","","","","","","","","","","","","","","","","","","","","","","","","","","","MET068METAR ENDR 281210Z 11009KT 9999 -SN VCSH BKN020 OVC030 01/M02 Q0996;","","","","","","","","","",""
"01023199999","2007-01-29T07:10:00","64.35","7.8","0.0","DRAUGEN, NO","FM-15","4","29.77","27","34","","||SHSN","","","75","BKN:07 20","","","7.00","","300","","31","","","","","","","","","","","","","","","","","","","","","","","","","","","","","","","","","","","","","","","","","","","","","","","","","","","","","","","","","","","","","","","","","","","","","","","","","","","","","","","","","","","","","","","","","","","MET057METAR ENDR 290610Z 30027KT 9999 SHSN BKN020 01/M03 Q1008;","","","","","","","","","",""
"01023199999","2007-01-29T10:10:00","64.35","7.8","0.0","DRAUGEN, NO","FM-15","4","29.80","27","37","","","","","65","SCT:04 15 BKN:07 30","","","7.00","","320","","21","","","","","","","","","","","","","","","","","","","","","","","","","","","","","","","","","","","","","","","","","","","","","","","","","","","","","","","","","","","","","","","","","","","","","","","","","","","","","","","","","","","","","","","","","","","MET072METAR ENDR 290910Z 32018KT 290V360 9999 VCSH SCT015 BKN030 03/M03 Q1009;","","","","","","","","","",""
"01023199999","2007-01-29T13:10:00","64.35","7.8","0.0","DRAUGEN, NO","FM-15","4","29.74","28","37","","","","","70","SCT:04 15 BKN:07 20 BKN:07 44","","","7.00","","300","","25","","","","","","","","","","","","","","","","","","","","","","","","","","","","","","","","","","","","","","","","","","","","","","","","","","","","","","","","","","","","","","","","","","","","","","","","","","","","","","","","","","","","","","","","","","","MET071METAR ENDR 291210Z 30022KT 9999 VCSH SCT015 BKN020 BKN045 03/M02 Q1007;","","","","","","","","","",""
"01023199999","2007-01-29T16:10:00","64.35","7.8","0.0","DRAUGEN, NO","FM-15","4","29.74","30","36","","||SHSN","","","81","BKN:07 15","","","4.35","","280","","22","","","","","","","","","","","","","","","","","","","","","","","","","","","","","","","","","","","","","","","","","","","","","","","","","","","","","","","","","","","","","","","","","","","","","","","","","","","","","","","","","","","","","","","","","","","MET057METAR ENDR 291510Z 28019KT 7000 SHSN BKN015 02/M01 Q1007;","","","","","","","","","",""
"01023199999","2007-01-30T10:10:00","64.35","7.8","0.0","DRAUGEN, NO","FM-15","4","29.47","43","45","","||RA","","","93","BKN:07 8 OVC:08 15","","","3.73","","250","","28","","","","","","","","","","","","","","","","","","","","","","","","","","","","","","","","","","","","","","","","","","","","","","","","","","","","","","","","","","","","","","","","","","","","","","","","","","","","","","","","","","","","","","","","","","","MET062METAR ENDR 300910Z 25024KT 6000 -RA BKN008 OVC015 07/06 Q0998;","","","","","","","","","",""
"01023199999","2007-01-30T13:10:00","64.35","7.8","0.0","DRAUGEN, NO","FM-16","4","29.38","45","45","","","","","100","BKN:07 7 OVC:08 10","","","","","240","","35","","","","","","","","","","","","","","","","","","","","","","","","","","","","","","","","","","","","","","","","","","","","","","","","","","","","","","","","","","","","","","","","","","","","","","","","","","","","","","","","","","","","","","","","","","","MET056METAR ENDR 301210Z 24030KT RA BKN007 OVC010 07/07 Q0995;","","","","","","","","","",""
"01023199999","2007-01-31T07:10:00","64.35","7.8","0.0","DRAUGEN, NO","FM-15","4","29.23","36","43","","","","","76","SCT:04 25","","","7.00","","280","","17","","","","","","","","","","","","","","","","","","","","","","","","","","","","","","","","","","","","","","","","","","","","","","","","","","","","","","","","","","","","","","","","","","","","","","","","","","","","","","","","","","","","","","","","","","","MET051METAR ENDR 310610Z 28015KT 9999 SCT025 06/02 Q0990;","","","","","","","","","",""
"01023199999","2007-01-31T10:10:00","64.35","7.8","0.0","DRAUGEN, NO","FM-15","4","29.29","34","43","","","","","71","FEW:02 30","","","7.00","","300","","14","","","","","","","","","","","","","","","","","","","","","","","","","","","","","","","","","","","","","","","","","","","","","","","","","","","","","","","","","","","","","","","","","","","","","","","","","","","","","","","","","","","","","","","","","","","MET059METAR ENDR 310910Z 30012KT 280V350 9999 FEW030 06/01 Q0992;","","","","","","","","","",""
"01023199999","2007-01-31T13:10:00","64.35","7.8","0.0","DRAUGEN, NO","FM-15","4","29.38","34","45","","","","","66","SCT:04 25","","","7.00","","310","","23","","","","","","","","","","","","","","","","","","","","","","","","","","","","","","","","","","","","","","","","","","","","","","","","","","","","","","","","","","","","","","","","","","","","","","","","","","","","","","","","","","","","","","","","","","","MET059METAR ENDR 311210Z 31020KT 290V010 9999 SCT025 07/01 Q0995;","","","","","","","","","",""
"01023199999","2007-01-31T16:10:00","64.35","7.8","0.0","DRAUGEN, NO","FM-15","4","29.53","34","43","","","","","71","SCT:04 20","","","7.00","","320","","29","","","","","","","","","","","","","","","","","","","","","","","","","","","","","","","","","","","","","","","","","","","","","","","","","","","","","","","","","","","","","","","","","","","","","","","","","","","","","","","","","","","","","","","","","","","MET051METAR ENDR 311510Z 32025KT 9999 SCT020 06/01 Q1000;","","","","","","","","","",""
"01023199999","2007-02-01T07:10:00","64.35","7.8","0.0","DRAUGEN, NO","FM-15","4","29.83","36","45","","","","","71","BKN:07 22","","","7.00","","250","","23","","","","","","","","","","","","","","","","","","","","","","","","","","","","","","","","","","","","","","","","","","","","","","","","","","","","","","","","","","","","","","","","","","","","","","","","","","","","","","","","","","","","","","","","","","","MET051METAR ENDR 010610Z 25020KT 9999 BKN022 07/02 Q1010;","","","","","","","","","",""
"01023199999","2007-02-01T10:10:00","64.35","7.8","0.0","DRAUGEN, NO","FM-15","4","29.80","37","41","","","","","87","SCT:04 10 BKN:07 30","","","7.00","","220","","30","","","","","","","","","","","","","","","","","","","","","","","","","","","","","","","","","","","","","","","","","","","","","","","","","","","","","","","","","","","","","","","","","","","","","","","","","","","","","","","","","","","","","","","","","","","MET058METAR ENDR 010910Z 22026KT 9999 SCT010 BKN030 05/03 Q1009;","","","","","","","","","",""
"01023199999","2007-02-01T13:10:00","64.35","7.8","0.0","DRAUGEN, NO","FM-15","4","29.77","36","43","","","","","76","OVC:08 20","","","7.00","","210","","33","","","","","","","","","","","","","","","","","","","","","","","","","","","","","","","","","","","","","","","","","","","","","","","","","","","","","","","","","","","","","","","","","","","","","","","","","","","","","","","","","","","","","","","","","","","MET051METAR ENDR 011210Z 21029KT 9999 OVC020 06/02 Q1008;","","","","","","","","","",""
"01023199999","2007-02-01T16:10:00","64.35","7.8","0.0","DRAUGEN, NO","FM-15","4","29.71","45","46","","||RA","","","93","OVC:08 6","","","4.35","","240","","36","","","","","","","","","","","","","","","","","","","","","","","","","","","","","","","","","","","","","","","","","","","","","","","","","","","","","","","","","","","","","","","","","","","","","","","","","","","","","","","","","","","","","","","","","","","MET054METAR ENDR 011510Z 24031KT 7000 RA OVC006 08/07 Q1006;","","","","","","","","","",""
"01023199999","2007-02-02T07:10:00","64.35","7.8","0.0","DRAUGEN, NO","FM-15","4","29.62","36","45","","","","","71","FEW:02 10 BKN:07 24","","","7.00","","260","","40","","","","","","","","","","","","","","","","","","","","","","","","","","","","","","","","","","","","","","","","","","","","","","","","","","","","","","","","","","","","","","","","","","","","","","","","","","","","","","","","","","","","","","","","","","","MET058METAR ENDR 020610Z 26035KT 9999 FEW010 BKN024 07/02 Q1003;","","","","","","","","","",""
"01023199999","2007-02-02T10:10:00","64.35","7.8","0.0","DRAUGEN, NO","FM-15","4","29.59","36","43","","","","","76","FEW:02 20 BKN:07 44","","","7.00","","270","","36","","","","","","","","","","","","","","","","","","","","","","","","","","","","","","","","","","","","","","","","","","","","","","","","","","","","","","","","","","","","","","","","","","","","","","","","","","","","","","","","","","","","","","","","","","","MET063METAR ENDR 020910Z 27031KT 9999 VCSH FEW020 BKN045 06/02 Q1002;","","","","","","","","","",""
"01023199999","2007-02-02T16:10:00","64.35","7.8","0.0","DRAUGEN, NO","FM-15","4","29.65","30","43","","","","","61","FEW:02 30 SCT:04 34","","","7.00","","300","","36","","","","","","","","","","","","","","","","","","","","","","","","","","","","","","","","","","","","","","","","","","","","","","","","","","","","","","","","","","","","","","","","","","","","","","","","","","","","","","","","","","","","","","","","","","","MET064METAR ENDR 021510Z 30031KT 9999 VCSH FEW030 SCT035 06/M01 Q1004;","","","","","","","","","",""
"01023199999","2007-02-03T10:10:00","64.35","7.8","0.0","DRAUGEN, NO","FM-15","4","30.09","32","41","","","","","70","BKN:07 26","","","7.00","","270","","19","","","","","","","","","","","","","","","","","","","","","","","","","","","","","","","","","","","","","","","","","","","","","","","","","","","","","","","","","","","","","","","","","","","","","","","","","","","","","","","","","","","","","","","","","","","MET051METAR ENDR 030910Z 27017KT 9999 BKN026 05/00 Q1019;","","","","","","","","","",""
"01023199999","2007-02-03T13:10:00","64.35","7.8","0.0","DRAUGEN, NO","FM-15","4","30.03","39","41","","||RA","","","93","BKN:07 10 OVC:08 39","","","7.00","","240","","28","","","","","","","","","","","","","","","","","","","","","","","","","","","","","","","","","","","","","","","","","","","","","","","","","","","","","","","","","","","","","","","","","","","","","","","","","","","","","","","","","","","","","","","","","","","MET061METAR ENDR 031210Z 24024KT 9999 RA BKN010 OVC040 05/04 Q1017;","","","","","","","","","",""
"01023199999","2007-02-03T16:10:00","64.35","7.8","0.0","DRAUGEN, NO","FM-15","4","29.97","43","46","","","","","87","FEW:02 10 BKN:07 20 OVC:08 49","","","7.00","","270","","44","","","","","","","","","","","","","","","","","","","","","","","","","","","","","","","","","","","","","","","","","","","","","","","","","","","","","","","","","","","","","","","","","","","","","","","","","","","","","","","","","","","","","","","","","","","MET073METAR ENDR 031510Z 27038KT 260V060 9999 FEW010 BKN020 OVC050 08/06 Q1015;","","","","","","","","","",""
"01023199999","2007-02-04T07:10:00","64.35","7.8","0.0","DRAUGEN, NO","FM-15","4","29.83","27","41","","","","","57","SCT:04 39 OVC:08 49","","","7.00","","280","","41","","","","","","","","","","","","","","","","","","","","","","","","","","","","","","","","","","","","","","","","","","","","","","","","","","","","","","","","","","","","","","","","","","","","","","","","","","","","","","","","","","","","","","","","","","","MET059METAR ENDR 040610Z 28036KT 9999 SCT040 OVC050 05/M03 Q1010;","","","","","","","","","",""
"01023199999","2007-02-04T13:10:00","64.35","7.8","0.0","DRAUGEN, NO","FM-15","4","29.74","23","39","","","","","52","FEW:02 20 BKN:07 39","","","7.00","","270","","39","","","","","","","","","","","","","","","","","","","","","","","","","","","","","","","","","","","","","","","","","","","","","","","","","","","","","","","","","","","","","","","","","","","","","","","","","","","","","","","","","","","","","","","","","","","MET064METAR ENDR 041210Z 27034KT 9999 VCSH FEW020 BKN040 04/M05 Q1007;","","","","","","","","","",""
"01023199999","2007-02-04T16:10:00","64.35","7.8","0.0","DRAUGEN, NO","FM-15","4","29.65","23","39","","","","","52","BKN:07 39","","","7.00","","280","","31","","","","","","","","","","","","","","","","","","","","","","","","","","","","","","","","","","","","","","","","","","","","","","","","","","","","","","","","","","","","","","","","","","","","","","","","","","","","","","","","","","","","","","","","","","","MET052METAR ENDR 041510Z 28027KT 9999 BKN040 04/M05 Q1004;","","","","","","","","","",""
"01023199999","2007-02-05T07:10:00","64.35","7.8","0.0","DRAUGEN, NO","FM-15","4","29.44","32","41","","","","","70","FEW:02 20 SCT:04 39 BKN:07 49","","","7.00","","","","","","","","","","","","","","","","","","","","","","","","","","","","","","","","","","","","","","","","","","","","","","","","","","","","","","","","","","","","","","","","","","","","","","","","","","","","","","","","","","","","","","","","","","","","","","","MET057METAR ENDR 050610Z 9999 FEW020 SCT040 BKN050 05/00 Q0997;","","","","","","","","","",""
"01023199999","2007-02-05T10:40:00","64.35","7.8","0.0","DRAUGEN, NO","FM-16","4","29.50","30","39","","","","","70","FEW:02 20 SCT:04 39 BKN:07 49","","","","","070","","27","","","","","","","","","","","","","","","","","","","","","","","","","","","","","","","","","","","","","","","","","","","","","","","","","","","","","","","","","","","","","","","","","","","","","","","","","","","","","","","","","","","","","","","","","","","MET061METAR ENDR 050940Z 07023KT FEW020 SCT040 BKN050 04/M01 Q0999;","","","","","","","","","",""
"01023199999","2007-02-05T13:10:00","64.35","7.8","0.0","DRAUGEN, NO","FM-15","4","29.56","27","37","","","","","65","FEW:02 24","","","7.00","","090","","28","","","","","","","","","","","","","","","","","","","","","","","","","","","","","","","","","","","","","","","","","","","","","","","","","","","","","","","","","","","","","","","","","","","","","","","","","","","","","","","","","","","","","","","","","","","MET052METAR ENDR 051210Z 09024KT 9999 FEW024 03/M03 Q1001;","","","","","","","","","",""
"01023199999","2007-02-05T16:10:00","64.35","7.8","0.0","DRAUGEN, NO","FM-15","4","29.62","28","37","","","","","70","FEW:02 18","","","7.00","","060","","25","","","","","","","","","","","","","","","","","","","","","","","","","","","","","","","","","","","","","","","","","","","","","","","","","","","","","","","","","","","","","","","","","","","","","","","","","","","","","","","","","","","","","","","","","","","MET052METAR ENDR 051510Z 06022KT 9999 FEW018 03/M02 Q1003;","","","","","","","","","",""
"01023199999","2007-02-06T07:10:00","64.35","7.8","0.0","DRAUGEN, NO","FM-15","4","29.74","19","32","","","","","60","FEW:02 20","","","7.00","","080","","23","","","","","","","","","","","","","","","","","","","","","","","","","","","","","","","","","","","","","","","","","","","","","","","","","","","","","","","","","","","","","","","","","","","","","","","","","","","","","","","","","","","","","","","","","","","MET053METAR ENDR 060610Z 08020KT 9999 FEW020 M00/M07 Q1007;","","","","","","","","","",""
"01023199999","2007-02-06T13:10:00","64.35","7.8","0.0","DRAUGEN, NO","FM-15","4","29.77","18","32","","","","","55","FEW:02 30","","","7.00","","080","","18","","","","","","","","","","","","","","","","","","","","","","","","","","","","","","","","","","","","","","","","","","","","","","","","","","","","","","","","","","","","","","","","","","","","","","","","","","","","","","","","","","","","","","","","","","","MET052METAR ENDR 061210Z 08016KT 9999 FEW030 00/M08 Q1008;","","","","","","","","","",""
"01023199999","2007-02-06T16:10:00","64.35","7.8","0.0","DRAUGEN, NO","FM-15","4","29.74","19","32","","","","","60","SCT:04 26","","","7.00","","070","","14","","","","","","","","","","","","","","","","","","","","","","","","","","","","","","","","","","","","","","","","","","","","","","","","","","","","","","","","","","","","","","","","","","","","","","","","","","","","","","","","","","","","","","","","","","","MET053METAR ENDR 061510Z 07012KT 9999 SCT026 M00/M07 Q1007;","","","","","","","","","",""
"01023199999","2007-02-07T07:10:00","64.35","7.8","0.0","DRAUGEN, NO","FM-15","4","29.68","19","27","","","","","74","BKN:07 23","","","7.00","","120","","15","","","","","","","","","","","","","","","","","","","","","","","","","","","","","","","","","","","","","","","","","","","","","","","","","","","","","","","","","","","","","","","","","","","","","","","","","","","","","","","","","","","","","","","","","","","MET053METAR ENDR 070610Z 12013KT 9999 BKN023 M03/M07 Q1005;","","","","","","","","","",""
"01023199999","2007-02-07T10:10:00","64.35","7.8","0.0","DRAUGEN, NO","FM-15","4","29.71","14","27","","","","","59","FEW:02 30","","","7.00","","120","","18","","","","","","","","","","","","","","","","","","","","","","","","","","","","","","","","","","","","","","","","","","","","","","","","","","","","","","","","","","","","","","","","","","","","","","","","","","","","","","","","","","","","","","","","","","","MET053METAR ENDR 070910Z 12016KT 9999 FEW030 M03/M10 Q1006;","","","","","","","","","",""
"01023199999","2007-02-07T15:10:00","64.35","7.8","0.0","DRAUGEN, NO","FM-15","4","29.71","16","28","","","","","59","FEW:02 30","","","7.00","","090","","17","","","","","","","","","","","","","","","","","","","","","","","","","","","","","","","","","","","","","","","","","","","","","","","","","","","","","","","","","","","","","","","","","","","","","","","","","","","","","","","","","","","","","","","","","","","MET053METAR ENDR 071410Z 09015KT 9999 FEW030 M02/M09 Q1006;","","","","","","","","","",""
"01023199999","2007-02-07T16:10:00","64.35","7.8","0.0","DRAUGEN, NO","FM-15","4","29.68","16","28","","","","","59","FEW:02 27","","","7.00","","080","","18","","","","","","","","","","","","","","","","","","","","","","","","","","","","","","","","","","","","","","","","","","","","","","","","","","","","","","","","","","","","","","","","","","","","","","","","","","","","","","","","","","","","","","","","","","","MET053METAR ENDR 071510Z 08016KT 9999 FEW027 M02/M09 Q1005;","","","","","","","","","",""
"01023199999","2007-02-08T10:10:00","64.35","7.8","0.0","DRAUGEN, NO","FM-15","4","29.71","16","27","","","","","64","BKN:07 24","","","7.00","","070","","11","","","","","","","","","","","","","","","","","","","","","","","","","","","","","","","","","","","","","","","","","","","","","","","","","","","","","","","","","","","","","","","","","","","","","","","","","","","","","","","","","","","","","","","","","","","MET053METAR ENDR 080910Z 07010KT 9999 BKN024 M03/M09 Q1006;","","","","","","","","","",""
"01023199999","2007-02-08T13:10:00","64.35","7.8","0.0","DRAUGEN, NO","FM-15","4","29.71","18","28","","","","","64","FEW:02 6 SCT:04 23","","","7.00","","080","","10","","","","","","","","","","","","","","","","","","","","","","","","","","","","","","","","","","","","","","","","","","","","","","","","","","","","","","","","","","","","","","","","","","","","","","","","","","","","","","","","","","","","","","","","","","","MET068METAR ENDR 081210Z 08009KT 030V110 9999 FEW006 SCT023 M02/M08 Q1006;","","","","","","","","","",""
"01023199999","2007-02-08T16:10:00","64.35","7.8","0.0","DRAUGEN, NO","FM-15","4","29.74","18","27","","","","","69","BKN:07 20","","","7.00","","100","","8","","","","","","","","","","","","","","","","","","","","","","","","","","","","","","","","","","","","","","","","","","","","","","","","","","","","","","","","","","","","","","","","","","","","","","","","","","","","","","","","","","","","","","","","","","","MET061METAR ENDR 081510Z 10007KT 060V130 9999 BKN020 M03/M08 Q1007;","","","","","","","","","",""
"01023199999","2007-02-08T19:10:00","64.35","7.8","0.0","DRAUGEN, NO","FM-15","4","29.77","18","25","","","","","74","BKN:07 20","","","7.00","","090","","8","","","","","","","","","","","","","","","","","","","","","","","","","","","","","","","","","","","","","","","","","","","","","","","","","","","","","","","","","","","","","","","","","","","","","","","","","","","","","","","","","","","","","","","","","","","MET061METAR ENDR 081810Z 09007KT 060V140 9999 BKN020 M04/M08 Q1008;","","","","","","","","","",""
"01023199999","2007-02-09T07:10:00","64.35","7.8","0.0","DRAUGEN, NO","FM-15","4","29.88","19","27","","","","","74","FEW:02 20","","","7.00","","150","","9","","","","","","","","","","","","","","","","","","","","","","","","","","","","","","","","","","","","","","","","","","","","","","","","","","","","","","","","","","","","","","","","","","","","","","","","","","","","","","","","","","","","","","","","","","","MET053METAR ENDR 090610Z 15008KT 9999 FEW020 M03/M07 Q1012;","","","","","","","","","",""
"01023199999","2007-02-09T10:10:00","64.35","7.8","0.0","DRAUGEN, NO","FM-15","4","29.88","21","28","","","","","74","FEW:02 16","","","7.00","","160","","9","","","","","","","","","","","","","","","","","","","","","","","","","","","","","","","","","","","","","","","","","","","","","","","","","","","","","","","","","","","","","","","","","","","","","","","","","","","","","","","","","","","","","","","","","","","MET053METAR ENDR 090910Z 16008KT 9999 FEW016 M02/M06 Q1012;","","","","","","","","","",""
"01023199999","2007-02-09T12:40:00","64.35","7.8","0.0","DRAUGEN, NO","FM-15","4","29.91","23","30","","","","","75","FEW:02 16","","","7.00","","200","","10","","","","","","","","","","","","","","","","","","","","","","","","","","","","","","","","","","","","","","","","","","","","","","","","","","","","","","","","","","","","","","","","","","","","","","","","","","","","","","","","","","","","","","","","","","","MET053METAR ENDR 091140Z 20009KT 9999 FEW016 M01/M05 Q1013;","","","","","","","","","",""
"01023199999","2007-02-09T15:40:00","64.35","7.8","0.0","DRAUGEN, NO","FM-15","4","29.91","28","34","","","","","81","SCT:04 18","","","7.00","","230","","14","","","","","","","","","","","","","","","","","","","","","","","","","","","","","","","","","","","","","","","","","","","","","","","","","","","","","","","","","","","","","","","","","","","","","","","","","","","","","","","","","","","","","","","","","","","MET052METAR ENDR 091440Z 23012KT 9999 SCT018 01/M02 Q1013;","","","","","","","","","",""
"01023199999","2007-02-10T06:40:00","64.35","7.8","0.0","DRAUGEN, NO","FM-15","4","29.97","28","37","","","","","70","SCT:04 30","","","7.00","","340","25","13","","","","","","","","","","","","","","","","","","","","","","","","","","","","","","","","","","","","","","","","","","","","","","","","","","","","","","","","","","","","","","","","","","","","","","","","","","","","","","","","","","","","","","","","","","","MET063METAR ENDR 100540Z 34011G22KT 290V040 9999 SCT030 03/M02 Q1015;","","","","","","","","","",""
"01023199999","2007-02-10T09:40:00","64.35","7.8","0.0","DRAUGEN, NO","FM-15","4","29.97","30","36","","","","","81","FEW:02 9 BKN:07 18","","","4.97","","330","","19","","","","","","","","","","","","","","","","","","","","","","","","","","","","","","","","","","","","","","","","","","","","","","","","","","","","","","","","","","","","","","","","","","","","","","","","","","","","","","","","","","","","","","","","","","","MET067METAR ENDR 100840Z 33017KT 280V050 8000 FEW009 BKN018 02/M01 Q1015;","","","","","","","","","",""
"01023199999","2007-02-10T10:10:00","64.35","7.8","0.0","DRAUGEN, NO","FM-15","4","29.97","28","34","","||SHSN","","","81","SCT:04 9 BKN:07 18","","","1.24","","360","","17","","","","","","","","","","","","","","","","","","","","","","","","","","","","","","","","","","","","","","","","","","","","","","","","","","","","","","","","","","","","","","","","","","","","","","","","","","","","","","","","","","","","","","","","","","","MET072METAR ENDR 100910Z 36015KT 280V030 2000 SHSN SCT009 BKN018 01/M02 Q1015;","","","","","","","","","",""
"01023199999","2007-02-10T12:40:00","64.35","7.8","0.0","DRAUGEN, NO","FM-15","4","30.00","28","36","","||SHSN","","","75","SCT:04 20 BKN:07 39","","","4.35","","340","","11","","","","","","","","","","","","","","","","","","","","","","","","","","","","","","","","","","","","","","","","","","","","","","","","","","","","","","","","","","","","","","","","","","","","","","","","","","","","","","","","","","","","","","","","","","","MET073METAR ENDR 101140Z 34010KT 240V030 7000 -SHSN SCT020 BKN040 02/M02 Q1016;","","","","","","","","","",""
"01023199999","2007-02-10T17:10:00","64.35","7.8","0.0","DRAUGEN, NO","FM-15","4","30.00","25","36","","","","","65","BKN:07 30","","","7.00","","010","","13","","","","","","","","","","","","","","","","","","","","","","","","","","","","","","","","","","","","","","","","","","","","","","","","","","","","","","","","","","","","","","","","","","","","","","","","","","","","","","","","","","","","","","","","","","","MET065METAR ENDR 101610Z 01011KT 310V040 9999 VCSH BKN030 02/M04 Q1016;","","","","","","","","","",""
"01023199999","2007-02-11T06:40:00","64.35","7.8","0.0","DRAUGEN, NO","FM-15","4","29.91","28","36","","","","","75","BKN:07 30","","","1.24","","340","","8","","","","","","","","","","","","","","","","","","","","","","","","","","","","","","","","","","","","","","","","","","","","","","","","","","","","","","","","","","","","","","","","","","","","","","","","","","","","","","","","","","","","","","","","","","","MET063METAR ENDR 110540Z 34007KT 270V070 2000 SN BKN030 02/M02 Q1013;","","","","","","","","","",""
"01023199999","2007-02-11T10:10:00","64.35","7.8","0.0","DRAUGEN, NO","FM-15","4","29.88","25","36","","","","","65","FEW:02 25 SCT:04 49","","","7.00","","100","","9","","","","","","","","","","","","","","","","","","","","","","","","","","","","","","","","","","","","","","","","","","","","","","","","","","","","","","","","","","","","","","","","","","","","","","","","","","","","","","","","","","","","","","","","","","","MET064METAR ENDR 110910Z 10008KT 9999 VCSH FEW025 SCT050 02/M04 Q1012;","","","","","","","","","",""
"01023199999","2007-02-11T12:40:00","64.35","7.8","0.0","DRAUGEN, NO","FM-15","4","29.85","27","39","","","","","61","FEW:02 18 BKN:07 34","","","7.00","","060","","15","","","","","","","","","","","","","","","","","","","","","","","","","","","","","","","","","","","","","","","","","","","","","","","","","","","","","","","","","","","","","","","","","","","","","","","","","","","","","","","","","","","","","","","","","","","MET064METAR ENDR 111140Z 06013KT 9999 VCSH FEW018 BKN035 04/M03 Q1011;","","","","","","","","","",""
"01023199999","2007-02-12T07:40:00","64.35","7.8","0.0","DRAUGEN, NO","FM-15","4","29.53","21","34","","","","","60","FEW:02 28","","","7.00","","070","","26","","","","","","","","","","","","","","","","","","","","","","","","","","","","","","","","","","","","","","","","","","","","","","","","","","","","","","","","","","","","","","","","","","","","","","","","","","","","","","","","","","","","","","","","","","","MET052METAR ENDR 120640Z 07023KT 9999 FEW028 01/M06 Q1000;","","","","","","","","","",""
"01023199999","2007-02-12T09:10:00","64.35","7.8","0.0","DRAUGEN, NO","FM-15","4","29.53","21","34","","","","","60","FEW:02 28","","","7.00","","070","","25","","","","","","","","","","","","","","","","","","","","","","","","","","","","","","","","","","","","","","","","","","","","","","","","","","","","","","","","","","","","","","","","","","","","","","","","","","","","","","","","","","","","","","","","","","","MET052METAR ENDR 120810Z 07022KT 9999 FEW028 01/M06 Q1000;","","","","","","","","","",""
"01023199999","2007-02-12T10:10:00","64.35","7.8","0.0","DRAUGEN, NO","FM-15","4","29.53","21","36","","","","","56","FEW:02 28","","","7.00","","070","","24","","","","","","","","","","","","","","","","","","","","","","","","","","","","","","","","","","","","","","","","","","","","","","","","","","","","","","","","","","","","","","","","","","","","","","","","","","","","","","","","","","","","","","","","","","","MET052METAR ENDR 120910Z 07021KT 9999 FEW028 02/M06 Q1000;","","","","","","","","","",""
"01023199999","2007-02-12T11:40:00","64.35","7.8","0.0","DRAUGEN, NO","FM-15","4","29.50","19","36","","","","","52","","","","7.00","","070","","24","","","","","","","","","","","","","","","","","","","","","","","","","","","","","","","","","","","","","","","","","","","","","","","","","","","","","","","","","","","","","","","","","","","","","","","","","","","","","","","","","","","","","","","","","","","MET049METAR ENDR 121040Z 07021KT 9999 NSC 02/M07 Q0999;","","","","","","","","","",""
"01023199999","2007-02-12T13:10:00","64.35","7.8","0.0","DRAUGEN, NO","FM-15","4","29.50","16","36","","","","","44","","","","7.00","","070","","26","","","","","","","","","","","","","","","","","","","","","","","","","","","","","","","","","","","","","","","","","","","","","","","","","","","","","","","","","","","","","","","","","","","","","","","","","","","","","","","","","","","","","","","","","","","MET049METAR ENDR 121210Z 07023KT 9999 NSC 02/M09 Q0999;","","","","","","","","","",""
"01023199999","2007-02-12T15:40:00","64.35","7.8","0.0","DRAUGEN, NO","FM-15","4","29.50","16","34","","","","","48","","","","7.00","","070","","26","","","","","","","","","","","","","","","","","","","","","","","","","","","","","","","","","","","","","","","","","","","","","","","","","","","","","","","","","","","","","","","","","","","","","","","","","","","","","","","","","","","","","","","","","","","MET049METAR ENDR 121440Z 07023KT 9999 NSC 01/M09 Q0999;","","","","","","","","","",""
"01023199999","2007-02-13T07:40:00","64.35","7.8","0.0","DRAUGEN, NO","FM-15","4","29.59","21","32","","","","","64","BKN:07 25","","","7.00","","060","","29","","","","","","","","","","","","","","","","","","","","","","","","","","","","","","","","","","","","","","","","","","","","","","","","","","","","","","","","","","","","","","","","","","","","","","","","","","","","","","","","","","","","","","","","","","","MET053METAR ENDR 130640Z 06025KT 9999 BKN025 M00/M06 Q1002;","","","","","","","","","",""
"01023199999","2007-02-13T13:10:00","64.35","7.8","0.0","DRAUGEN, NO","FM-15","4","29.65","21","34","","","","","60","BKN:07 25","","","7.00","","060","","23","","","","","","","","","","","","","","","","","","","","","","","","","","","","","","","","","","","","","","","","","","","","","","","","","","","","","","","","","","","","","","","","","","","","","","","","","","","","","","","","","","","","","","","","","","","MET052METAR ENDR 131210Z 06020KT 9999 BKN025 01/M06 Q1004;","","","","","","","","","",""
"01023199999","2007-02-13T16:40:00","64.35","7.8","0.0","DRAUGEN, NO","FM-15","4","29.65","21","32","","","","","64","BKN:07 25","","","7.00","","050","","19","","","","","","","","","","","","","","","","","","","","","","","","","","","","","","","","","","","","","","","","","","","","","","","","","","","","","","","","","","","","","","","","","","","","","","","","","","","","","","","","","","","","","","","","","","","MET053METAR ENDR 131540Z 05017KT 9999 BKN025 M00/M06 Q1004;","","","","","","","","","",""
"01023199999","2007-02-14T07:40:00","64.35","7.8","0.0","DRAUGEN, NO","FM-16","4","29.65","25","34","","","","","70","SCT:04 20","","","","","130","","6","","","","","","","","","","","","","","","","","","","","","","","","","","","","","","","","","","","","","","","","","","","","","","","","","","","","","","","","","","","","","","","","","","","","","","","","","","","","","","","","","","","","","","","","","","","MET047METAR ENDR 140640Z 13005KT SCT020 01/M04 Q1004;","","","","","","","","","",""
"01023199999","2007-02-14T10:10:00","64.35","7.8","0.0","DRAUGEN, NO","FM-16","4","29.68","27","34","","","","","75","BKN:07 24","","","","","200","","4","","","","","","","","","","","","","","","","","","","","","","","","","","","","","","","","","","","","","","","","","","","","","","","","","","","","","","","","","","","","","","","","","","","","","","","","","","","","","","","","","","","","","","","","","","","MET055METAR ENDR 140910Z 20003KT 160V260 BKN024 01/M03 Q1005;","","","","","","","","","",""
"01023199999","2007-02-14T13:00:00","64.35","7.8","0.0","DRAUGEN, NO","FM-15","4","29.68","28","36","","","","","75","BKN:07 26","","","7.00","","190","","6","","","","","","","","","","","","","","","","","","","","","","","","","","","","","","","","","","","","","","","","","","","","","","","","","","","","","","","","","","","","","","","","","","","","","","","","","","","","","","","","","","","","","","","","","","","MET052METAR ENDR 141200Z 19005KT 9999 BKN026 02/M02 Q1005;","","","","","","","","","",""
"01023199999","2007-02-14T16:00:00","64.35","7.8","0.0","DRAUGEN, NO","FM-15","4","29.68","30","37","","","","","75","BKN:07 17 BKN:07 34","","","7.00","","160","","7","","","","","","","","","","","","","","","","","","","","","","","","","","","","","","","","","","","","","","","","","","","","","","","","","","","","","","","","","","","","","","","","","","","","","","","","","","","","","","","","","","","","","","","","","","","MET059METAR ENDR 141500Z 16006KT 9999 BKN017 BKN035 03/M01 Q1005;","","","","","","","","","",""
"01023199999","2007-02-15T07:00:00","64.35","7.8","0.0","DRAUGEN, NO","FM-15","4","29.85","32","37","","","","","81","FEW:02 59","","","7.00","","130","","10","","","","","","","","","","","","","","","","","","","","","","","","","","","","","","","","","","","","","","","","","","","","","","","","","","","","","","","","","","","","","","","","","","","","","","","","","","","","","","","","","","","","","","","","","","","MET052METAR ENDR 150600Z 13009KT 9999 FEW060 03/M00 Q1011;","","","","","","","","","",""
"01023199999","2007-02-15T10:10:00","64.35","7.8","0.0","DRAUGEN, NO","FM-15","4","29.91","32","37","","","","","81","BKN:07 85","","","7.00","","140","","18","","","","","","","","","","","","","","","","","","","","","","","","","","","","","","","","","","","","","","","","","","","","","","","","","","","","","","","","","","","","","","","","","","","","","","","","","","","","","","","","","","","","","","","","","","","MET052METAR ENDR 150910Z 14016KT 9999 BKN086 03/M00 Q1013;","","","","","","","","","",""
"01023199999","2007-02-15T13:10:00","64.35","7.8","0.0","DRAUGEN, NO","FM-15","4","29.94","32","37","","","","","81","","","","6.15","","140","","22","","","","","","","","","","","","","","","","","","","","","","","","","","","","","","","","","","","","","","","","","","","","","","","","","","","","","","","","","","","","","","","","","","","","","","","","","","","","","","","","","","","","","","","","","","","MET045METAR ENDR 151210Z 14019KT CAVOK 03/00 Q1014;","","","","","","","","","",""
"01023199999","2007-02-15T16:00:00","64.35","7.8","0.0","DRAUGEN, NO","FM-15","4","29.97","34","39","","","","","81","SCT:04 49 BKN:07 79","","","7.00","","140","","21","","","","","","","","","","","","","","","","","","","","","","","","","","","","","","","","","","","","","","","","","","","","","","","","","","","","","","","","","","","","","","","","","","","","","","","","","","","","","","","","","","","","","","","","","","","MET058METAR ENDR 151500Z 14018KT 9999 SCT050 BKN080 04/01 Q1015;","","","","","","","","","",""
"01023199999","2007-02-16T08:10:00","64.35","7.8","0.0","DRAUGEN, NO","FM-15","4","29.80","34","45","","","","","66","BKN:07 79","","","7.00","","150","","29","","","","","","","","","","","","","","","","","","","","","","","","","","","","","","","","","","","","","","","","","","","","","","","","","","","","","","","","","","","","","","","","","","","","","","","","","","","","","","","","","","","","","","","","","","","MET051METAR ENDR 160710Z 15025KT 9999 BKN080 07/01 Q1009;","","","","","","","","","",""
"01023199999","2007-02-16T11:10:00","64.35","7.8","0.0","DRAUGEN, NO","FM-15","4","29.80","34","46","","","","","62","SCT:04 89 BKN:07 98 OVC:08 138","","","7.00","","170","","29","","","","","","","","","","","","","","","","","","","","","","","","","","","","","","","","","","","","","","","","","","","","","","","","","","","","","","","","","","","","","","","","","","","","","","","","","","","","","","","","","","","","","","","","","","","MET065METAR ENDR 161010Z 17025KT 9999 SCT090 BKN100 OVC140 08/01 Q1009;","","","","","","","","","",""
"01023199999","2007-02-17T07:40:00","64.35","7.8","0.0","DRAUGEN, NO","FM-15","4","29.85","39","43","","","","","87","SCT:04 39 BKN:07 49","","","7.00","","180","","14","","","","","","","","","","","","","","","","","","","","","","","","","","","","","","","","","","","","","","","","","","","","","","","","","","","","","","","","","","","","","","","","","","","","","","","","","","","","","","","","","","","","","","","","","","","MET058METAR ENDR 170640Z 18012KT 9999 SCT040 BKN050 06/04 Q1011;","","","","","","","","","",""
"01023199999","2007-02-17T10:10:00","64.35","7.8","0.0","DRAUGEN, NO","FM-15","4","29.83","37","43","","","","","81","FEW:02 39 BKN:07 49 OVC:08 118","","","7.00","","180","","15","","","","","","","","","","","","","","","","","","","","","","","","","","","","","","","","","","","","","","","","","","","","","","","","","","","","","","","","","","","","","","","","","","","","","","","","","","","","","","","","","","","","","","","","","","","MET065METAR ENDR 170910Z 18013KT 9999 FEW040 BKN050 OVC120 06/03 Q1010;","","","","","","","","","",""
"01023199999","2007-02-17T13:10:00","64.35","7.8","0.0","DRAUGEN, NO","FM-15","4","29.83","37","43","","||SHRA","","","81","SCT:04 13 OVC:08 118","","","7.00","","220","","13","","","","","","","","","","","","","","","","","","","","","","","","","","","","","","","","","","","","","","","","","","","","","","","","","","","","","","","","","","","","","","","","","","","","","","","","","","","","","","","","","","","","","","","","","","","MET064METAR ENDR 171210Z 22011KT 9999 -SHRA SCT013 OVC120 06/03 Q1010;","","","","","","","","","",""
"01023199999","2007-02-18T10:10:00","64.35","7.8","0.0","DRAUGEN, NO","FM-15","4","29.80","39","43","","","","","87","FEW:02 20 SCT:04 49 BKN:07 128","","","7.00","","250","","7","","","","","","","","","","","","","","","","","","","","","","","","","","","","","","","","","","","","","","","","","","","","","","","","","","","","","","","","","","","","","","","","","","","","","","","","","","","","","","","","","","","","","","","","","","","MET065METAR ENDR 180910Z 25006KT 9999 FEW020 SCT050 BKN130 06/04 Q1009;","","","","","","","","","",""
"01023199999","2007-02-18T13:10:00","64.35","7.8","0.0","DRAUGEN, NO","FM-15","4","29.80","39","43","","","","","87","SCT:04 39","","","7.00","","300","","10","","","","","","","","","","","","","","","","","","","","","","","","","","","","","","","","","","","","","","","","","","","","","","","","","","","","","","","","","","","","","","","","","","","","","","","","","","","","","","","","","","","","","","","","","","","MET051METAR ENDR 181210Z 30009KT 9999 SCT040 06/04 Q1009;","","","","","","","","","",""
"01023199999","2007-02-18T16:10:00","64.35","7.8","0.0","DRAUGEN, NO","FM-15","4","29.80","39","45","","","","","81","FEW:02 14 BKN:07 33","","","7.00","","310","","13","","","","","","","","","","","","","","","","","","","","","","","","","","","","","","","","","","","","","","","","","","","","","","","","","","","","","","","","","","","","","","","","","","","","","","","","","","","","","","","","","","","","","","","","","","","MET058METAR ENDR 181510Z 31011KT 9999 FEW014 BKN034 07/04 Q1009;","","","","","","","","","",""
"01023199999","2007-02-19T07:10:00","64.35","7.8","0.0","DRAUGEN, NO","FM-15","4","29.77","36","45","","","","","71","BKN:07 20","","","7.00","","330","","10","","","","","","","","","","","","","","","","","","","","","","","","","","","","","","","","","","","","","","","","","","","","","","","","","","","","","","","","","","","","","","","","","","","","","","","","","","","","","","","","","","","","","","","","","","","MET059METAR ENDR 190610Z 33009KT 260V040 9999 BKN020 07/02 Q1008;","","","","","","","","","",""
"01023199999","2007-02-19T10:10:00","64.35","7.8","0.0","DRAUGEN, NO","FM-15","4","29.80","36","43","","","","","76","SCT:04 30 BKN:07 59","","","7.00","","060","","21","","","","","","","","","","","","","","","","","","","","","","","","","","","","","","","","","","","","","","","","","","","","","","","","","","","","","","","","","","","","","","","","","","","","","","","","","","","","","","","","","","","","","","","","","","","MET058METAR ENDR 190910Z 06018KT 9999 SCT030 BKN060 06/02 Q1009;","","","","","","","","","",""
"01023199999","2007-02-20T13:00:00","64.35","7.8","0.0","DRAUGEN, NO","FM-15","4","30.18","14","25","","","","","63","BKN:07 25","","","7.00","","090","","34","","","","","","","","","","","","","","","","","","","","","","","","","","","","","","","","","","","","","","","","","","","","","","","","","","","","","","","","","","","","","","","","","","","","","","","","","","","","","","","","","","","","","","","","","","","MET053METAR ENDR 201200Z 09030KT 9999 BKN025 M04/M10 Q1022;","","","","","","","","","",""
"01023199999","2007-02-21T10:00:00","64.35","7.8","0.0","DRAUGEN, NO","FM-15","4","30.00","12","18","","","","","79","BKN:07 16","","","4.97","","100","","43","","","","","","","","","","","","","","","","","","","","","","","","","","","","","","","","","","","","","","","","","","","","","","","","","","","","","","","","","","","","","","","","","","","","","","","","","","","","","","","","","","","","","","","","","","","MET057METAR ENDR 210900Z 10037KT 8000 -SN BKN016 M08/M11 Q1016;","","","","","","","","","",""
"01023199999","2007-02-21T13:00:00","64.35","7.8","0.0","DRAUGEN, NO","FM-15","4","29.97","16","21","","","","","80","BKN:07 18","","","7.00","","120","","38","","","","","","","","","","","","","","","","","","","","","","","","","","","","","","","","","","","","","","","","","","","","","","","","","","","","","","","","","","","","","","","","","","","","","","","","","","","","","","","","","","","","","","","","","","","MET053METAR ENDR 211200Z 12033KT 9999 BKN018 M06/M09 Q1015;","","","","","","","","","",""
"01023199999","2007-02-22T08:10:00","64.35","7.8","0.0","DRAUGEN, NO","FM-15","4","29.91","25","28","","","","","86","BKN:07 12 BKN:07 30","","","2.49","","140","","25","","","","","","","","","","","","","","","","","","","","","","","","","","","","","","","","","","","","","","","","","","","","","","","","","","","","","","","","","","","","","","","","","","","","","","","","","","","","","","","","","","","","","","","","","","","MET064METAR ENDR 220710Z 14022KT 4000 -SN BKN012 BKN030 M02/M04 Q1013;","","","","","","","","","",""
"01023199999","2007-02-22T10:10:00","64.35","7.8","0.0","DRAUGEN, NO","FM-15","4","29.91","28","30","","","","","93","BKN:07 10","","","7.00","","150","","28","","","","","","","","","","","","","","","","","","","","","","","","","","","","","","","","","","","","","","","","","","","","","","","","","","","","","","","","","","","","","","","","","","","","","","","","","","","","","","","","","","","","","","","","","","","MET053METAR ENDR 220910Z 15024KT 9999 BKN010 M01/M02 Q1013;","","","","","","","","","",""
"01023199999","2007-02-22T13:10:00","64.35","7.8","0.0","DRAUGEN, NO","FM-15","4","29.94","30","30","","","","","100","BKN:07 10 OVC:08 30","","","2.49","","150","","28","","","","","","","","","","","","","","","","","","","","","","","","","","","","","","","","","","","","","","","","","","","","","","","","","","","","","","","","","","","","","","","","","","","","","","","","","","","","","","","","","","","","","","","","","","","MET064METAR ENDR 221210Z 15024KT 4000 -SN BKN010 OVC030 M01/M01 Q1014;","","","","","","","","","",""
"01023199999","2007-02-22T16:10:00","64.35","7.8","0.0","DRAUGEN, NO","FM-15","4","29.94","25","34","","","","","70","BKN:07 65","","","7.00","","160","","24","","","","","","","","","","","","","","","","","","","","","","","","","","","","","","","","","","","","","","","","","","","","","","","","","","","","","","","","","","","","","","","","","","","","","","","","","","","","","","","","","","","","","","","","","","","MET052METAR ENDR 221510Z 16021KT 9999 BKN066 01/M04 Q1014;","","","","","","","","","",""
"01023199999","2007-02-23T07:10:00","64.35","7.8","0.0","DRAUGEN, NO","FM-15","4","29.85","21","32","","","","","64","OVC:08 98","","","7.00","","150","","19","","","","","","","","","","","","","","","","","","","","","","","","","","","","","","","","","","","","","","","","","","","","","","","","","","","","","","","","","","","","","","","","","","","","","","","","","","","","","","","","","","","","","","","","","","","MET052METAR ENDR 230610Z 15017KT 9999 OVC100 00/M06 Q1011;","","","","","","","","","",""
"01023199999","2007-02-23T10:10:00","64.35","7.8","0.0","DRAUGEN, NO","FM-15","4","29.83","23","34","","","","","65","OVC:08 74","","","7.00","","150","","16","","","","","","","","","","","","","","","","","","","","","","","","","","","","","","","","","","","","","","","","","","","","","","","","","","","","","","","","","","","","","","","","","","","","","","","","","","","","","","","","","","","","","","","","","","","MET052METAR ENDR 230910Z 15014KT 9999 OVC075 01/M05 Q1010;","","","","","","","","","",""
"01023199999","2007-02-23T13:10:00","64.35","7.8","0.0","DRAUGEN, NO","FM-15","4","29.80","21","36","","","","","56","OVC:08 55","","","7.00","","170","","16","","","","","","","","","","","","","","","","","","","","","","","","","","","","","","","","","","","","","","","","","","","","","","","","","","","","","","","","","","","","","","","","","","","","","","","","","","","","","","","","","","","","","","","","","","","MET052METAR ENDR 231210Z 17014KT 9999 OVC056 02/M06 Q1009;","","","","","","","","","",""
"01023199999","2007-02-23T16:10:00","64.35","7.8","0.0","DRAUGEN, NO","FM-15","4","29.80","30","34","","","","","87","OVC:08 10","","","2.49","","170","","21","","","","","","","","","","","","","","","","","","","","","","","","","","","","","","","","","","","","","","","","","","","","","","","","","","","","","","","","","","","","","","","","","","","","","","","","","","","","","","","","","","","","","","","","","","","MET056METAR ENDR 231510Z 17018KT 4000 -SN OVC010 01/M01 Q1009;","","","","","","","","","",""
"01023199999","2007-02-24T07:10:00","64.35","7.8","0.0","DRAUGEN, NO","FM-15","4","29.68","28","37","","","","","70","BKN:07 41 BKN:07 102","","","7.00","","140","","17","","","","","","","","","","","","","","","","","","","","","","","","","","","","","","","","","","","","","","","","","","","","","","","","","","","","","","","","","","","","","","","","","","","","","","","","","","","","","","","","","","","","","","","","","","","MET059METAR ENDR 240610Z 14015KT 9999 BKN042 BKN104 03/M02 Q1005;","","","","","","","","","",""
"01023199999","2007-02-24T10:10:00","64.35","7.8","0.0","DRAUGEN, NO","FM-15","4","29.62","30","37","","","","","75","OVC:08 45","","","7.00","","140","","19","","","","","","","","","","","","","","","","","","","","","","","","","","","","","","","","","","","","","","","","","","","","","","","","","","","","","","","","","","","","","","","","","","","","","","","","","","","","","","","","","","","","","","","","","","","MET052METAR ENDR 240910Z 14017KT 9999 OVC046 03/M01 Q1003;","","","","","","","","","",""
"01023199999","2007-02-24T13:20:00","64.35","7.8","0.0","DRAUGEN, NO","FM-15","4","29.62","30","39","","","","","70","BKN:07 45 BKN:07 167","","","7.00","","150","","13","","","","","","","","","","","","","","","","","","","","","","","","","","","","","","","","","","","","","","","","","","","","","","","","","","","","","","","","","","","","","","","","","","","","","","","","","","","","","","","","","","","","","","","","","","","MET059METAR ENDR 241220Z 15011KT 9999 BKN046 BKN170 04/M01 Q1003;","","","","","","","","","",""
"01023199999","2007-02-24T16:10:00","64.35","7.8","0.0","DRAUGEN, NO","FM-15","4","29.59","30","39","","","","","70","BKN:07 58","","","7.00","","170","","7","","","","","","","","","","","","","","","","","","","","","","","","","","","","","","","","","","","","","","","","","","","","","","","","","","","","","","","","","","","","","","","","","","","","","","","","","","","","","","","","","","","","","","","","","","","MET052METAR ENDR 241510Z 17006KT 9999 BKN059 04/M01 Q1002;","","","","","","","","","",""
"01023199999","2007-02-25T10:10:00","64.35","7.8","0.0","DRAUGEN, NO","FM-15","4","29.53","32","39","","","","","75","SCT:04 59 BKN:07 157","","","7.00","","130","","16","","","","","","","","","","","","","","","","","","","","","","","","","","","","","","","","","","","","","","","","","","","","","","","","","","","","","","","","","","","","","","","","","","","","","","","","","","","","","","","","","","","","","","","","","","","MET059METAR ENDR 250910Z 13014KT 9999 SCT060 BKN160 04/M00 Q1000;","","","","","","","","","",""
"01023199999","2007-02-25T13:10:00","64.35","7.8","0.0","DRAUGEN, NO","FM-15","4","29.53","32","39","","","","","75","FEW:02 59 SCT:04 157","","","7.00","","140","","14","","","","","","","","","","","","","","","","","","","","","","","","","","","","","","","","","","","","","","","","","","","","","","","","","","","","","","","","","","","","","","","","","","","","","","","","","","","","","","","","","","","","","","","","","","","MET059METAR ENDR 251210Z 14012KT 9999 FEW060 SCT160 04/M00 Q1000;","","","","","","","","","",""
"01023199999","2007-02-25T16:10:00","64.35","7.8","0.0","DRAUGEN, NO","FM-15","4","29.50","32","39","","","","","75","FEW:02 59 BKN:07 157","","","7.00","","140","","11","","","","","","","","","","","","","","","","","","","","","","","","","","","","","","","","","","","","","","","","","","","","","","","","","","","","","","","","","","","","","","","","","","","","","","","","","","","","","","","","","","","","","","","","","","","MET059METAR ENDR 251510Z 14010KT 9999 FEW060 BKN160 04/M00 Q0999;","","","","","","","","","",""
"01023199999","2007-02-26T07:10:00","64.35","7.8","0.0","DRAUGEN, NO","FM-15","4","29.50","36","43","","","","","76","SCT:04 19 BKN:07 118 BKN:07 230","","","7.00","","210","","9","","","","","","","","","","","","","","","","","","","","","","","","","","","","","","","","","","","","","","","","","","","","","","","","","","","","","","","","","","","","","","","","","","","","","","","","","","","","","","","","","","","","","","","","","","","MET065METAR ENDR 260610Z 21008KT 9999 SCT019 BKN120 BKN234 06/02 Q0999;","","","","","","","","","",""
"01023199999","2007-02-26T10:10:00","64.35","7.8","0.0","DRAUGEN, NO","FM-15","4","29.53","36","43","","","","","76","BKN:07 29 OVC:08 98","","","7.00","","230","","9","","","","","","","","","","","","","","","","","","","","","","","","","","","","","","","","","","","","","","","","","","","","","","","","","","","","","","","","","","","","","","","","","","","","","","","","","","","","","","","","","","","","","","","","","","","MET058METAR ENDR 260910Z 23008KT 9999 BKN029 OVC100 06/02 Q1000;","","","","","","","","","",""
"01023199999","2007-02-26T13:10:00","64.35","7.8","0.0","DRAUGEN, NO","FM-15","4","29.53","37","41","","","","","87","OVC:08 19","","","7.00","","240","","15","","","","","","","","","","","","","","","","","","","","","","","","","","","","","","","","","","","","","","","","","","","","","","","","","","","","","","","","","","","","","","","","","","","","","","","","","","","","","","","","","","","","","","","","","","","MET056METAR ENDR 261210Z 24013KT 9999 VCSH OVC019 05/03 Q1000;","","","","","","","","","",""
"01023199999","2007-02-26T16:10:00","64.35","7.8","0.0","DRAUGEN, NO","FM-15","4","29.53","36","41","","||RA","","","81","FEW:02 16 BKN:07 32","","","7.00","","220","","17","","","","","","","","","","","","","","","","","","","","","","","","","","","","","","","","","","","","","","","","","","","","","","","","","","","","","","","","","","","","","","","","","","","","","","","","","","","","","","","","","","","","","","","","","","","MET067METAR ENDR 261510Z 22015KT 9999 -RA VCSH FEW016 BKN032 05/02 Q1000;","","","","","","","","","",""
"01023199999","2007-02-27T07:20:00","64.35","7.8","0.0","DRAUGEN, NO","FM-15","4","29.44","36","39","","||RA","","","87","OVC:08 13","","","7.00","","180","","17","","","","","","","","","","","","","","","","","","","","","","","","","","","","","","","","","","","","","","","","","","","","","","","","","","","","","","","","","","","","","","","","","","","","","","","","","","","","","","","","","","","","","","","","","","","MET055METAR ENDR 270620Z 18015KT 9999 -RA OVC013 04/02 Q0997;","","","","","","","","","",""
"01023199999","2007-02-27T10:10:00","64.35","7.8","0.0","DRAUGEN, NO","FM-15","4","29.44","36","37","","||RA","","","93","OVC:08 11","","","7.00","","270","","43","","","","","","","","","","","","","","","","","","","","","","","","","","","","","","","","","","","","","","","","","","","","","","","","","","","","","","","","","","","","","","","","","","","","","","","","","","","","","","","","","","","","","","","","","","","MET055METAR ENDR 270910Z 27037KT 9999 -RA OVC011 03/02 Q0997;","","","","","","","","","",""
"01023199999","2007-02-27T13:20:00","64.35","7.8","0.0","DRAUGEN, NO","FM-15","4","29.50","32","39","","","","","75","SCT:04 22 SCT:04 30 BKN:07 86","","","7.00","","260","","25","","","","","","","","","","","","","","","","","","","","","","","","","","","","","","","","","","","","","","","","","","","","","","","","","","","","","","","","","","","","","","","","","","","","","","","","","","","","","","","","","","","","","","","","","","","MET072METAR ENDR 271220Z 26022KT 9999 VCSH SCT022 SCT030CB BKN087 04/00 Q0999;","","","","","","","","","",""
"01023199999","2007-02-27T16:10:00","64.35","7.8","0.0","DRAUGEN, NO","FM-15","4","29.47","30","37","","","","","75","BKN:07 39","","","7.00","","270","","19","","","","","","","","","","","","","","","","","","","","","","","","","","","","","","","","","","","","","","","","","","","","","","","","","","","","","","","","","","","","","","","","","","","","","","","","","","","","","","","","","","","","","","","","","","","MET060METAR ENDR 271510Z 27017KT 9999 VCSH BKN040TCU 03/M01 Q0998;","","","","","","","","","",""
"01023199999","2007-02-28T07:10:00","64.35","7.8","0.0","DRAUGEN, NO","FM-15","4","28.97","27","37","","","","","65","SCT:04 26 BKN:07 121","","","7.00","","120","","28","","","","","","","","","","","","","","","","","","","","","","","","","","","","","","","","","","","","","","","","","","","","","","","","","","","","","","","","","","","","","","","","","","","","","","","","","","","","","","","","","","","","","","","","","","","MET059METAR ENDR 280610Z 12024KT 9999 SCT026 BKN123 03/M03 Q0981;","","","","","","","","","",""
"01023199999","2007-02-28T10:10:00","64.35","7.8","0.0","DRAUGEN, NO","FM-15","4","28.91","27","37","","","","","65","","","","6.15","","130","","29","","","","","","","","","","","","","","","","","","","","","","","","","","","","","","","","","","","","","","","","","","","","","","","","","","","","","","","","","","","","","","","","","","","","","","","","","","","","","","","","","","","","","","","","","","","MET046METAR ENDR 280910Z 13025KT CAVOK 03/M03 Q0979;","","","","","","","","","",""
"01023199999","2007-03-01T07:20:00","64.35","7.8","0.0","DRAUGEN, NO","FM-15","4","28.76","37","39","","||RA","","","93","OVC:08 12","","","7.00","","190","","19","","","","","","","","","","","","","","","","","","","","","","","","","","","","","","","","","","","","","","","","","","","","","","","","","","","","","","","","","","","","","","","","","","","","","","","","","","","","","","","","","","","","","","","","","","","MET055METAR ENDR 010620Z 19017KT 9999 -RA OVC012 04/03 Q0974;","","","","","","","","","",""
"01023199999","2007-03-01T10:10:00","64.35","7.8","0.0","DRAUGEN, NO","FM-15","4","28.79","37","41","","||RA","","","87","OVC:08 16","","","7.00","","160","","21","","","","","","","","","","","","","","","","","","","","","","","","","","","","","","","","","","","","","","","","","","","","","","","","","","","","","","","","","","","","","","","","","","","","","","","","","","","","","","","","","","","","","","","","","","","MET055METAR ENDR 010910Z 16018KT 9999 -RA OVC016 05/03 Q0975;","","","","","","","","","",""
"01023199999","2007-03-01T13:10:00","64.35","7.8","0.0","DRAUGEN, NO","FM-15","4","28.79","39","41","","||RA","","","93","OVC:08 14","","","7.00","","200","","31","","","","","","","","","","","","","","","","","","","","","","","","","","","","","","","","","","","","","","","","","","","","","","","","","","","","","","","","","","","","","","","","","","","","","","","","","","","","","","","","","","","","","","","","","","","MET055METAR ENDR 011210Z 20027KT 9999 -RA OVC014 05/04 Q0975;","","","","","","","","","",""
"01023199999","2007-03-01T16:10:00","64.35","7.8","0.0","DRAUGEN, NO","FM-15","4","28.82","36","39","","||RA","","","87","OVC:08 11","","","7.00","","320","","29","","","","","","","","","","","","","","","","","","","","","","","","","","","","","","","","","","","","","","","","","","","","","","","","","","","","","","","","","","","","","","","","","","","","","","","","","","","","","","","","","","","","","","","","","","","MET055METAR ENDR 011510Z 32025KT 9999 -RA OVC011 04/02 Q0976;","","","","","","","","","",""
"01023199999","2007-03-02T07:20:00","64.35","7.8","0.0","DRAUGEN, NO","FM-15","4","29.35","23","37","","","","","56","BKN:07 35","","","7.00","","320","","22","","","","","","","","","","","","","","","","","","","","","","","","","","","","","","","","","","","","","","","","","","","","","","","","","","","","","","","","","","","","","","","","","","","","","","","","","","","","","","","","","","","","","","","","","","","MET052METAR ENDR 020620Z 32019KT 9999 BKN036 03/M05 Q0994;","","","","","","","","","",""
"01023199999","2007-03-02T10:10:00","64.35","7.8","0.0","DRAUGEN, NO","FM-15","4","29.41","21","36","","","","","56","BKN:07 33","","","7.00","","310","","19","","","","","","","","","","","","","","","","","","","","","","","","","","","","","","","","","","","","","","","","","","","","","","","","","","","","","","","","","","","","","","","","","","","","","","","","","","","","","","","","","","","","","","","","","","","MET060METAR ENDR 020910Z 31017KT 290V350 9999 BKN034 02/M06 Q0996;","","","","","","","","","",""
"01023199999","2007-03-02T13:10:00","64.35","7.8","0.0","DRAUGEN, NO","FM-15","4","29.47","21","34","","","","","60","OVC:08 32","","","7.00","","300","","21","","","","","","","","","","","","","","","","","","","","","","","","","","","","","","","","","","","","","","","","","","","","","","","","","","","","","","","","","","","","","","","","","","","","","","","","","","","","","","","","","","","","","","","","","","","MET060METAR ENDR 021210Z 30018KT 280V340 9999 OVC032 01/M06 Q0998;","","","","","","","","","",""
"01023199999","2007-03-02T16:10:00","64.35","7.8","0.0","DRAUGEN, NO","FM-15","4","29.53","19","34","","","","","56","OVC:08 33","","","7.00","","290","","19","","","","","","","","","","","","","","","","","","","","","","","","","","","","","","","","","","","","","","","","","","","","","","","","","","","","","","","","","","","","","","","","","","","","","","","","","","","","","","","","","","","","","","","","","","","MET052METAR ENDR 021510Z 29017KT 9999 OVC034 01/M07 Q1000;","","","","","","","","","",""
"01023199999","2007-03-03T07:10:00","64.35","7.8","0.0","DRAUGEN, NO","FM-15","4","29.62","21","37","","","","","52","OVC:08 44","","","7.00","","040","","7","","","","","","","","","","","","","","","","","","","","","","","","","","","","","","","","","","","","","","","","","","","","","","","","","","","","","","","","","","","","","","","","","","","","","","","","","","","","","","","","","","","","","","","","","","","MET060METAR ENDR 030610Z 04006KT 350V080 9999 OVC045 03/M06 Q1003;","","","","","","","","","",""
"01023199999","2007-03-03T10:20:00","64.35","7.8","0.0","DRAUGEN, NO","FM-15","4","29.62","21","39","","","","","48","OVC:08 48","","","7.00","","050","","13","","","","","","","","","","","","","","","","","","","","","","","","","","","","","","","","","","","","","","","","","","","","","","","","","","","","","","","","","","","","","","","","","","","","","","","","","","","","","","","","","","","","","","","","","","","MET052METAR ENDR 030920Z 05011KT 9999 OVC049 04/M06 Q1003;","","","","","","","","","",""
"01023199999","2007-03-03T13:10:00","64.35","7.8","0.0","DRAUGEN, NO","FM-15","4","29.65","27","39","","","","","61","OVC:08 39","","","7.00","","080","","10","","","","","","","","","","","","","","","","","","","","","","","","","","","","","","","","","","","","","","","","","","","","","","","","","","","","","","","","","","","","","","","","","","","","","","","","","","","","","","","","","","","","","","","","","","","MET060METAR ENDR 031210Z 08009KT 050V150 9999 OVC040 04/M03 Q1004;","","","","","","","","","",""
"01023199999","2007-03-03T16:10:00","64.35","7.8","0.0","DRAUGEN, NO","FM-15","4","29.68","25","41","","","","","53","BKN:07 32","","","7.00","","090","","13","","","","","","","","","","","","","","","","","","","","","","","","","","","","","","","","","","","","","","","","","","","","","","","","","","","","","","","","","","","","","","","","","","","","","","","","","","","","","","","","","","","","","","","","","","","MET063METAR ENDR 031510Z 09011KT 030V110 9999 BKN032TCU 05/M04 Q1005;","","","","","","","","","",""
"01023199999","2007-03-04T07:10:00","64.35","7.8","0.0","DRAUGEN, NO","FM-15","4","29.77","30","39","","","","","70","","","","6.15","","150","","13","","","","","","","","","","","","","","","","","","","","","","","","","","","","","","","","","","","","","","","","","","","","","","","","","","","","","","","","","","","","","","","","","","","","","","","","","","","","","","","","","","","","","","","","","","","MET046METAR ENDR 040610Z 15011KT CAVOK 04/M01 Q1008;","","","","","","","","","",""
"01023199999","2007-03-04T10:10:00","64.35","7.8","0.0","DRAUGEN, NO","FM-15","4","29.80","34","41","","","","","76","","","","6.15","","140","","18","","","","","","","","","","","","","","","","","","","","","","","","","","","","","","","","","","","","","","","","","","","","","","","","","","","","","","","","","","","","","","","","","","","","","","","","","","","","","","","","","","","","","","","","","","","MET045METAR ENDR 040910Z 14016KT CAVOK 05/01 Q1009;","","","","","","","","","",""
"01023199999","2007-03-04T13:10:00","64.35","7.8","0.0","DRAUGEN, NO","FM-15","4","29.83","32","41","","","","","70","BKN:07 59","","","7.00","","170","","18","","","","","","","","","","","","","","","","","","","","","","","","","","","","","","","","","","","","","","","","","","","","","","","","","","","","","","","","","","","","","","","","","","","","","","","","","","","","","","","","","","","","","","","","","","","MET052METAR ENDR 041210Z 17016KT 9999 BKN060 05/M00 Q1010;","","","","","","","","","",""
"01023199999","2007-03-04T16:40:00","64.35","7.8","0.0","DRAUGEN, NO","FM-15","4","29.83","37","43","","||RA","","","81","BKN:07 26","","","7.00","","180","","17","","","","","","","","","","","","","","","","","","","","","","","","","","","","","","","","","","","","","","","","","","","","","","","","","","","","","","","","","","","","","","","","","","","","","","","","","","","","","","","","","","","","","","","","","","","MET060METAR ENDR 041540Z 18015KT 9999 -RA VCSH BKN026 06/03 Q1010;","","","","","","","","","",""
"01023199999","2007-03-05T07:20:00","64.35","7.8","0.0","DRAUGEN, NO","FM-15","4","29.68","30","39","","","","","70","","","","6.15","","130","","39","","","","","","","","","","","","","","","","","","","","","","","","","","","","","","","","","","","","","","","","","","","","","","","","","","","","","","","","","","","","","","","","","","","","","","","","","","","","","","","","","","","","","","","","","","","MET046METAR ENDR 050620Z 13034KT CAVOK 04/M01 Q1005;","","","","","","","","","",""
"01023199999","2007-03-05T13:10:00","64.35","7.8","0.0","DRAUGEN, NO","FM-15","4","29.56","34","45","","","","","66","SCT:04 128 BKN:07 167","","","7.00","","150","","24","","","","","","","","","","","","","","","","","","","","","","","","","","","","","","","","","","","","","","","","","","","","","","","","","","","","","","","","","","","","","","","","","","","","","","","","","","","","","","","","","","","","","","","","","","","MET058METAR ENDR 051210Z 15021KT 9999 SCT130 BKN170 07/01 Q1001;","","","","","","","","","",""
"01023199999","2007-03-05T16:10:00","64.35","7.8","0.0","DRAUGEN, NO","FM-15","4","29.56","37","45","","","","","76","FEW:02 39 OVC:08 72","","","7.00","","150","","24","","","","","","","","","","","","","","","","","","","","","","","","","","","","","","","","","","","","","","","","","","","","","","","","","","","","","","","","","","","","","","","","","","","","","","","","","","","","","","","","","","","","","","","","","","","MET058METAR ENDR 051510Z 15021KT 9999 FEW040 OVC073 07/03 Q1001;","","","","","","","","","",""
"01023199999","2007-03-06T07:10:00","64.35","7.8","0.0","DRAUGEN, NO","FM-15","4","29.47","30","41","","","","","66","","","","6.15","","150","","17","","","","","","","","","","","","","","","","","","","","","","","","","","","","","","","","","","","","","","","","","","","","","","","","","","","","","","","","","","","","","","","","","","","","","","","","","","","","","","","","","","","","","","","","","","","MET046METAR ENDR 060610Z 15015KT CAVOK 05/M01 Q0998;","","","","","","","","","",""
"01023199999","2007-03-06T10:10:00","64.35","7.8","0.0","DRAUGEN, NO","FM-15","4","29.41","32","43","","","","","66","","","","6.15","","130","","26","","","","","","","","","","","","","","","","","","","","","","","","","","","","","","","","","","","","","","","","","","","","","","","","","","","","","","","","","","","","","","","","","","","","","","","","","","","","","","","","","","","","","","","","","","","MET045METAR ENDR 060910Z 13023KT CAVOK 06/00 Q0996;","","","","","","","","","",""
"01023199999","2007-03-06T13:10:00","64.35","7.8","0.0","DRAUGEN, NO","FM-16","4","29.32","30","43","","","","","61","SCT:04 118","","","","","140","","35","","","","","","","","","","","","","","","","","","","","","","","","","","","","","","","","","","","","","","","","","","","","","","","","","","","","","","","","","","","","","","","","","","","","","","","","","","","","","","","","","","","","","","","","","","","MET047METAR ENDR 061210Z 14030KT SCT120 06/M01 Q0993;","","","","","","","","","",""
"01023199999","2007-03-07T07:10:00","64.35","7.8","0.0","DRAUGEN, NO","FM-15","4","29.38","39","43","","||RA","","","87","OVC:08 32","","","7.00","","170","","9","","","","","","","","","","","","","","","","","","","","","","","","","","","","","","","","","","","","","","","","","","","","","","","","","","","","","","","","","","","","","","","","","","","","","","","","","","","","","","","","","","","","","","","","","","","MET060METAR ENDR 070610Z 17008KT 9999 -RA VCSH OVC033 06/04 Q0995;","","","","","","","","","",""
"01023199999","2007-03-07T10:10:00","64.35","7.8","0.0","DRAUGEN, NO","FM-15","4","29.41","37","45","","","","","76","SCT:04 69","","","7.00","","120","","21","","","","","","","","","","","","","","","","","","","","","","","","","","","","","","","","","","","","","","","","","","","","","","","","","","","","","","","","","","","","","","","","","","","","","","","","","","","","","","","","","","","","","","","","","","","MET056METAR ENDR 070910Z 12018KT 9999 VCSH SCT070 07/03 Q0996;","","","","","","","","","",""
"01023199999","2007-03-07T13:10:00","64.35","7.8","0.0","DRAUGEN, NO","FM-16","4","29.47","37","45","","","","","76","SCT:04 41 SCT:04 61 BKN:07 108","","","","","160","","16","","","","","","","","","","","","","","","","","","","","","","","","","","","","","","","","","","","","","","","","","","","","","","","","","","","","","","","","","","","","","","","","","","","","","","","","","","","","","","","","","","","","","","","","","","","MET065METAR ENDR 071210Z 16014KT VCSH SCT042 SCT062 BKN110 07/03 Q0998;","","","","","","","","","",""
"01023199999","2007-03-08T07:10:00","64.35","7.8","0.0","DRAUGEN, NO","FM-15","4","29.65","37","43","","","","","81","OVC:08 86","","","7.00","","170","","15","","","","","","","","","","","","","","","","","","","","","","","","","","","","","","","","","","","","","","","","","","","","","","","","","","","","","","","","","","","","","","","","","","","","","","","","","","","","","","","","","","","","","","","","","","","MET051METAR ENDR 080610Z 17013KT 9999 OVC087 06/03 Q1004;","","","","","","","","","",""
"01023199999","2007-03-08T10:10:00","64.35","7.8","0.0","DRAUGEN, NO","FM-15","4","29.68","39","45","","","","","81","BKN:07 65","","","7.00","","200","","15","","","","","","","","","","","","","","","","","","","","","","","","","","","","","","","","","","","","","","","","","","","","","","","","","","","","","","","","","","","","","","","","","","","","","","","","","","","","","","","","","","","","","","","","","","","MET051METAR ENDR 080910Z 20013KT 9999 BKN066 07/04 Q1005;","","","","","","","","","",""
"01023199999","2007-03-09T07:20:00","64.35","7.8","0.0","DRAUGEN, NO","FM-15","4","29.56","36","43","","","","","76","SCT:04 34","","","7.00","","150","","26","","","","","","","","","","","","","","","","","","","","","","","","","","","","","","","","","","","","","","","","","","","","","","","","","","","","","","","","","","","","","","","","","","","","","","","","","","","","","","","","","","","","","","","","","","","MET051METAR ENDR 090620Z 15023KT 9999 SCT035 06/02 Q1001;","","","","","","","","","",""
"01023199999","2007-03-09T10:10:00","64.35","7.8","0.0","DRAUGEN, NO","FM-15","4","29.53","36","41","","||RA","","","81","BKN:07 37","","","7.00","","170","","23","","","","","","","","","","","","","","","","","","","","","","","","","","","","","","","","","","","","","","","","","","","","","","","","","","","","","","","","","","","","","","","","","","","","","","","","","","","","","","","","","","","","","","","","","","","MET055METAR ENDR 090910Z 17020KT 9999 -RA BKN038 05/02 Q1000;","","","","","","","","","",""
"01023199999","2007-03-09T16:20:00","64.35","7.8","0.0","DRAUGEN, NO","FM-15","4","29.53","39","45","","","","","81","FEW:02 15 BKN:07 36","","","7.00","","250","","29","","","","","","","","","","","","","","","","","","","","","","","","","","","","","","","","","","","","","","","","","","","","","","","","","","","","","","","","","","","","","","","","","","","","","","","","","","","","","","","","","","","","","","","","","","","MET063METAR ENDR 091520Z 25025KT 9999 VCSH FEW015 BKN037 07/04 Q1000;","","","","","","","","","",""
"01023199999","2007-03-10T07:20:00","64.35","7.8","0.0","DRAUGEN, NO","FM-15","4","29.50","37","43","","","","","81","BKN:07 18","","","7.00","","200","","34","","","","","","","","","","","","","","","","","","","","","","","","","","","","","","","","","","","","","","","","","","","","","","","","","","","","","","","","","","","","","","","","","","","","","","","","","","","","","","","","","","","","","","","","","","","MET056METAR ENDR 100620Z 20030KT 9999 VCSH BKN018 06/03 Q0999;","","","","","","","","","",""
"01023199999","2007-03-10T10:20:00","64.35","7.8","0.0","DRAUGEN, NO","FM-15","4","","34","39","","||RA","","","81","OVC:08 22","","","4.97","","150","","46","","","","","","","","","","","","","","","","","","","","","","","","","","","","","","","","","","","","","","","","","","","","","","","","","","","","","","","","","","","","","","","","","","","","","","","","","","","","","","","","","","","","","","","","","","","MET055METAR ENDR 100920Z 15040KT 8000 -RA OVC022 04/01 Q0993;","","","","","","","","","",""
"01023199999","2007-03-10T13:20:00","64.35","7.8","0.0","DRAUGEN, NO","FM-15","4","29.47","39","41","","||SHRA","","","93","BKN:07 15","","","4.35","","240","","52","","","","","","","","","","","","","","","","","","","","","","","","","","","","","","","","","","","","","","","","","","","","","","","","","","","","","","","","","","","","","","","","","","","","","","","","","","","","","","","","","","","","","","","","","","","MET056METAR ENDR 101220Z 24045KT 7000 SHRA BKN015 05/04 Q0998;","","","","","","","","","",""
"01023199999","2007-03-11T07:50:00","64.35","7.8","0.0","DRAUGEN, NO","FM-15","4","29.65","41","43","","||DZ","","","93","BKN:07 6 OVC:08 30","","","3.11","","210","","16","","","","","","","","","","","","","","","","","","","","","","","","","","","","","","","","","","","","","","","","","","","","","","","","","","","","","","","","","","","","","","","","","","","","","","","","","","","","","","","","","","","","","","","","","","","MET064METAR ENDR 110650Z 21014KT 5000 DZ BR BKN006 OVC030 06/05 Q1004;","","","","","","","","","",""
"01023199999","2007-03-11T10:20:00","64.35","7.8","0.0","DRAUGEN, NO","FM-15","4","29.59","41","43","","||RA","","","93","OVC:08 5","","","1.55","","170","","33","","","","","","","","","","","","","","","","","","","","","","","","","","","","","","","","","","","","","","","","","","","","","","","","","","","","","","","","","","","","","","","","","","","","","","","","","","","","","","","","","","","","","","","","","","","MET057METAR ENDR 110920Z 17029KT 2500 RA BR OVC005 06/05 Q1002;","","","","","","","","","",""
"01023199999","2007-03-11T13:20:00","64.35","7.8","0.0","DRAUGEN, NO","FM-15","4","29.59","46","46","","||DZ RA","","","100","OVC:08 5","","","2.49","","230","","40","","","","","","","","","","","","","","","","","","","","","","","","","","","","","","","","","","","","","","","","","","","","","","","","","","","","","","","","","","","","","","","","","","","","","","","","","","","","","","","","","","","","","","","","","","","MET059METAR ENDR 111220Z 23035KT 4000 RADZ BR OVC005 08/08 Q1002;","","","","","","","","","",""
"01023199999","2007-03-11T16:20:00","64.35","7.8","0.0","DRAUGEN, NO","FM-15","4","29.62","46","46","","||DZ RA","","","100","OVC:08 5","","","1.86","","230","","33","","","","","","","","","","","","","","","","","","","","","","","","","","","","","","","","","","","","","","","","","","","","","","","","","","","","","","","","","","","","","","","","","","","","","","","","","","","","","","","","","","","","","","","","","","","MET059METAR ENDR 111520Z 23029KT 3000 RADZ BR OVC005 08/08 Q1003;","","","","","","","","","",""
"01023199999","2007-03-12T07:20:00","64.35","7.8","0.0","DRAUGEN, NO","FM-15","4","29.80","41","45","","","","","87","FEW:02 18 BKN:07 148","","","7.00","","220","","22","","","","","","","","","","","","","","","","","","","","","","","","","","","","","","","","","","","","","","","","","","","","","","","","","","","","","","","","","","","","","","","","","","","","","","","","","","","","","","","","","","","","","","","","","","","MET058METAR ENDR 120620Z 22019KT 9999 FEW018 BKN150 07/05 Q1009;","","","","","","","","","",""
"01023199999","2007-03-12T10:20:00","64.35","7.8","0.0","DRAUGEN, NO","FM-15","4","29.77","41","45","","","","","87","FEW:02 13 SCT:04 25 BKN:07 138","","","7.00","","210","","21","","","","","","","","","","","","","","","","","","","","","","","","","","","","","","","","","","","","","","","","","","","","","","","","","","","","","","","","","","","","","","","","","","","","","","","","","","","","","","","","","","","","","","","","","","","MET065METAR ENDR 120920Z 21018KT 9999 FEW013 SCT025 BKN140 07/05 Q1008;","","","","","","","","","",""
"01023199999","2007-03-12T13:10:00","64.35","7.8","0.0","DRAUGEN, NO","FM-15","4","29.71","39","45","","","","","81","","","","6.15","","150","","13","","","","","","","","","","","","","","","","","","","","","","","","","","","","","","","","","","","","","","","","","","","","","","","","","","","","","","","","","","","","","","","","","","","","","","","","","","","","","","","","","","","","","","","","","","","MET045METAR ENDR 121210Z 15011KT CAVOK 07/04 Q1006;","","","","","","","","","",""
"01023199999","2007-03-12T16:20:00","64.35","7.8","0.0","DRAUGEN, NO","FM-15","4","29.65","37","43","","||RA","","","81","SCT:04 10 OVC:08 30","","","7.00","","140","","16","","","","","","","","","","","","","","","","","","","","","","","","","","","","","","","","","","","","","","","","","","","","","","","","","","","","","","","","","","","","","","","","","","","","","","","","","","","","","","","","","","","","","","","","","","","MET062METAR ENDR 121520Z 14014KT 9999 -RA SCT010 OVC030 06/03 Q1004;","","","","","","","","","",""
"01023199999","2007-03-13T08:50:00","64.35","7.8","0.0","DRAUGEN, NO","FM-15","4","29.56","41","43","","||RA","","","93","OVC:08 18","","","3.11","","220","","46","","","","","","","","","","","","","","","","","","","","","","","","","","","","","","","","","","","","","","","","","","","","","","","","","","","","","","","","","","","","","","","","","","","","","","","","","","","","","","","","","","","","","","","","","","","MET055METAR ENDR 130750Z 22040KT 5000 -RA OVC018 06/05 Q1001;","","","","","","","","","",""
"01023199999","2007-03-13T10:20:00","64.35","7.8","0.0","DRAUGEN, NO","FM-15","4","29.56","41","43","","||SHRA","","","93","OVC:08 13","","","1.86","","230","","44","","","","","","","","","","","","","","","","","","","","","","","","","","","","","","","","","","","","","","","","","","","","","","","","","","","","","","","","","","","","","","","","","","","","","","","","","","","","","","","","","","","","","","","","","","","MET057METAR ENDR 130920Z 23038KT 3000 +SHRA OVC013 06/05 Q1001;","","","","","","","","","",""
"01023199999","2007-03-13T13:20:00","64.35","7.8","0.0","DRAUGEN, NO","FM-15","4","29.53","39","43","","||SHRA","","","87","SCT:04 14 BKN:07 30","","","4.97","","220","","47","","","","","","","","","","","","","","","","","","","","","","","","","","","","","","","","","","","","","","","","","","","","","","","","","","","","","","","","","","","","","","","","","","","","","","","","","","","","","","","","","","","","","","","","","","","MET063METAR ENDR 131220Z 22041KT 8000 SHRA SCT014 BKN030 06/04 Q1000;","","","","","","","","","",""
"01023199999","2007-03-13T16:20:00","64.35","7.8","0.0","DRAUGEN, NO","FM-15","4","29.53","37","43","","||SHRA","","","81","SCT:04 18 BKN:07 59","","","4.97","","230","","34","","","","","","","","","","","","","","","","","","","","","","","","","","","","","","","","","","","","","","","","","","","","","","","","","","","","","","","","","","","","","","","","","","","","","","","","","","","","","","","","","","","","","","","","","","","MET066METAR ENDR 131520Z 23030KT 8000 +SHRA SCT018CB BKN060 06/03 Q1000;","","","","","","","","","",""
"01023199999","2007-03-14T10:20:00","64.35","7.8","0.0","DRAUGEN, NO","FM-15","4","29.88","37","43","","||RA","","","81","OVC:08 20","","","5.59","","260","","24","","","","","","","","","","","","","","","","","","","","","","","","","","","","","","","","","","","","","","","","","","","","","","","","","","","","","","","","","","","","","","","","","","","","","","","","","","","","","","","","","","","","","","","","","","","MET055METAR ENDR 140920Z 26021KT 9000 -RA OVC020 06/03 Q1012;","","","","","","","","","",""
"01023199999","2007-03-14T13:20:00","64.35","7.8","0.0","DRAUGEN, NO","FM-15","4","29.85","41","45","","||DZ RA","","","87","OVC:08 5","","","7.00","","230","","33","","","","","","","","","","","","","","","","","","","","","","","","","","","","","","","","","","","","","","","","","","","","","","","","","","","","","","","","","","","","","","","","","","","","","","","","","","","","","","","","","","","","","","","","","","","MET057METAR ENDR 141220Z 23029KT 9999 -RADZ OVC005 07/05 Q1011;","","","","","","","","","",""
"01023199999","2007-03-14T16:20:00","64.35","7.8","0.0","DRAUGEN, NO","FM-15","4","29.77","45","45","","||DZ RA","","","100","BKN:07 6 OVC:08 15","","","1.86","","220","","38","","","","","","","","","","","","","","","","","","","","","","","","","","","","","","","","","","","","","","","","","","","","","","","","","","","","","","","","","","","","","","","","","","","","","","","","","","","","","","","","","","","","","","","","","","","MET067METAR ENDR 141520Z 22033KT 3000 -RADZ BR BKN006 OVC015 07/07 Q1008;","","","","","","","","","",""
"01023199999","2007-03-15T07:20:00","64.35","7.8","0.0","DRAUGEN, NO","FM-15","4","29.65","46","46","","||DZ RA","","","100","OVC:08 5","","","1.86","","230","","34","","","","","","","","","","","","","","","","","","","","","","","","","","","","","","","","","","","","","","","","","","","","","","","","","","","","","","","","","","","","","","","","","","","","","","","","","","","","","","","","","","","","","","","","","","","MET060METAR ENDR 150620Z 23030KT 3000 -RADZ BR OVC005 08/08 Q1004;","","","","","","","","","",""
"01023199999","2007-03-15T10:20:00","64.35","7.8","0.0","DRAUGEN, NO","FM-15","4","29.56","45","46","","||DZ RA","","","93","OVC:08 5","","","1.86","","220","","40","","","","","","","","","","","","","","","","","","","","","","","","","","","","","","","","","","","","","","","","","","","","","","","","","","","","","","","","","","","","","","","","","","","","","","","","","","","","","","","","","","","","","","","","","","","MET060METAR ENDR 150920Z 22035KT 3000 -RADZ BR OVC005 08/07 Q1001;","","","","","","","","","",""
"01023199999","2007-03-15T13:20:00","64.35","7.8","0.0","DRAUGEN, NO","FM-15","4","29.47","45","46","","||DZ RA","","","93","OVC:08 8","","","2.49","","210","","47","","","","","","","","","","","","","","","","","","","","","","","","","","","","","","","","","","","","","","","","","","","","","","","","","","","","","","","","","","","","","","","","","","","","","","","","","","","","","","","","","","","","","","","","","","","MET059METAR ENDR 151220Z 21041KT 4000 RADZ BR OVC008 08/07 Q0998;","","","","","","","","","",""
"01023199999","2007-03-15T14:20:00","64.35","7.8","0.0","DRAUGEN, NO","FM-15","4","29.44","45","45","","||DZ RA","","","100","OVC:08 6","","","1.24","","210","","49","","","","","","","","","","","","","","","","","","","","","","","","","","","","","","","","","","","","","","","","","","","","","","","","","","","","","","","","","","","","","","","","","","","","","","","","","","","","","","","","","","","","","","","","","","","MET059METAR ENDR 151320Z 21043KT 2000 RADZ BR OVC006 07/07 Q0997;","","","","","","","","","",""
"01023199999","2007-03-15T16:20:00","64.35","7.8","0.0","DRAUGEN, NO","FM-15","4","29.38","45","46","","||DZ RA","","","93","OVC:08 7","","","3.11","","220","","48","","","","","","","","","","","","","","","","","","","","","","","","","","","","","","","","","","","","","","","","","","","","","","","","","","","","","","","","","","","","","","","","","","","","","","","","","","","","","","","","","","","","","","","","","","","MET059METAR ENDR 151520Z 22042KT 5000 RADZ BR OVC007 08/07 Q0995;","","","","","","","","","",""
"01023199999","2007-03-16T07:50:00","64.35","7.8","0.0","DRAUGEN, NO","FM-15","4","29.38","34","39","","","","","81","SCT:04 20 BKN:07 197","","","7.00","","250","","31","","","","","","","","","","","","","","","","","","","","","","","","","","","","","","","","","","","","","","","","","","","","","","","","","","","","","","","","","","","","","","","","","","","","","","","","","","","","","","","","","","","","","","","","","","","MET058METAR ENDR 160650Z 25027KT 9999 SCT020 BKN200 04/01 Q0995;","","","","","","","","","",""
"01023199999","2007-03-16T10:20:00","64.35","7.8","0.0","DRAUGEN, NO","FM-15","4","29.32","34","39","","||SHRA","","","81","BKN:07 30","","","7.00","","240","","29","","","","","","","","","","","","","","","","","","","","","","","","","","","","","","","","","","","","","","","","","","","","","","","","","","","","","","","","","","","","","","","","","","","","","","","","","","","","","","","","","","","","","","","","","","","MET056METAR ENDR 160920Z 24025KT 9999 SHRA BKN030 04/01 Q0993;","","","","","","","","","",""
"01023199999","2007-03-16T13:20:00","64.35","7.8","0.0","DRAUGEN, NO","FM-15","4","29.15","39","41","","||SHRA","","","93","SCT:04 10 OVC:08 15","","","3.73","","220","","36","","","","","","","","","","","","","","","","","","","","","","","","","","","","","","","","","","","","","","","","","","","","","","","","","","","","","","","","","","","","","","","","","","","","","","","","","","","","","","","","","","","","","","","","","","","MET063METAR ENDR 161220Z 22031KT 6000 SHRA SCT010 OVC015 05/04 Q0987;","","","","","","","","","",""
"01023199999","2007-03-16T16:20:00","64.35","7.8","0.0","DRAUGEN, NO","FM-15","4","29.06","39","41","","||SHRA","","","93","SCT:04 10 BKN:07 30","","","7.00","","210","","29","","","","","","","","","","","","","","","","","","","","","","","","","","","","","","","","","","","","","","","","","","","","","","","","","","","","","","","","","","","","","","","","","","","","","","","","","","","","","","","","","","","","","","","","","","","MET064METAR ENDR 161520Z 21025KT 9999 -SHRA SCT010 BKN030 05/04 Q0984;","","","","","","","","","",""
"01023199999","2007-03-17T07:20:00","64.35","7.8","0.0","DRAUGEN, NO","FM-15","4","29.09","28","36","","||SH","","","75","SCT:04 15 BKN:07 39","","","1.86","","300","","33","","","","","","","","","","","","","","","","","","","","","","","","","","","","","","","","","","","","","","","","","","","","","","","","","","","","","","","","","","","","","","","","","","","","","","","","","","","","","","","","","","","","","","","","","","","MET068METAR ENDR 170620Z 30029KT 3000 SHGRSN SCT015CB BKN040 02/M02 Q0985;","","","","","","","","","",""
"01023199999","2007-03-17T10:20:00","64.35","7.8","0.0","DRAUGEN, NO","FM-15","4","29.15","23","36","","||SH","","","60","SCT:04 15","","","7.00","","270","","37","","","","","","","","","","","","","","","","","","","","","","","","","","","","","","","","","","","","","","","","","","","","","","","","","","","","","","","","","","","","","","","","","","","","","","","","","","","","","","","","","","","","","","","","","","","MET061METAR ENDR 170920Z 27032KT 9999 SHGRSN SCT015CB 02/M05 Q0987;","","","","","","","","","",""
"01023199999","2007-03-17T13:20:00","64.35","7.8","0.0","DRAUGEN, NO","FM-15","4","29.12","28","32","","||SH","","","87","SCT:04 13","","","0.93","","280","","41","","","","","","","","","","","","","","","","","","","","","","","","","","","","","","","","","","","","","","","","","","","","","","","","","","","","","","","","","","","","","","","","","","","","","","","","","","","","","","","","","","","","","","","","","","","MET061METAR ENDR 171220Z 28036KT 1500 SHGRSN SCT013CB 00/M02 Q0986;","","","","","","","","","",""
"01023199999","2007-03-17T14:20:00","64.35","7.8","0.0","DRAUGEN, NO","FM-15","4","29.09","28","37","","||SH","","","70","SCT:04 17","","","7.00","","270","","43","","","","","","","","","","","","","","","","","","","","","","","","","","","","","","","","","","","","","","","","","","","","","","","","","","","","","","","","","","","","","","","","","","","","","","","","","","","","","","","","","","","","","","","","","","","MET061METAR ENDR 171320Z 27037KT 9999 SHGRSN SCT017CB 03/M02 Q0985;","","","","","","","","","",""
"01023199999","2007-03-17T16:20:00","64.35","7.8","0.0","DRAUGEN, NO","FM-15","4","29.09","32","37","","||SH","","","81","SCT:04 18","","","3.11","","270","","39","","","","","","","","","","","","","","","","","","","","","","","","","","","","","","","","","","","","","","","","","","","","","","","","","","","","","","","","","","","","","","","","","","","","","","","","","","","","","","","","","","","","","","","","","","","MET061METAR ENDR 171520Z 27034KT 5000 SHGRSN SCT018CB 03/M00 Q0985;","","","","","","","","","",""
"01023199999","2007-03-18T08:10:00","64.35","7.8","0.0","DRAUGEN, NO","FM-15","4","28.44","28","32","","||SHSN","","","87","BKN:07 9","","","1.24","","100","","36","","","","","","","","","","","","","","","","","","","","","","","","","","","","","","","","","","","","","","","","","","","","","","","","","","","","","","","","","","","","","","","","","","","","","","","","","","","","","","","","","","","","","","","","","","","MET058METAR ENDR 180710Z 10031KT 2000 SHSN BKN009 M00/M02 Q0963;","","","","","","","","","",""
"01023199999","2007-03-18T10:20:00","64.35","7.8","0.0","DRAUGEN, NO","FM-15","4","28.38","30","34","","","","","87","OVC:08 10","","","0.93","","080","","39","","","","","","","","","","","","","","","","","","","","","","","","","","","","","","","","","","","","","","","","","","","","","","","","","","","","","","","","","","","","","","","","","","","","","","","","","","","","","","","","","","","","","","","","","","","MET055METAR ENDR 180920Z 08034KT 1500 SN OVC010 01/M01 Q0961;","","","","","","","","","",""
"01023199999","2007-03-18T16:10:00","64.35","7.8","0.0","DRAUGEN, NO","FM-15","4","28.41","32","34","","","","","93","OVC:08 10","","","3.11","","060","","49","","","","","","","","","","","","","","","","","","","","","","","","","","","","","","","","","","","","","","","","","","","","","","","","","","","","","","","","","","","","","","","","","","","","","","","","","","","","","","","","","","","","","","","","","","","MET056METAR ENDR 181510Z 06043KT 5000 +SN OVC010 01/M00 Q0962;","","","","","","","","","",""
"01023199999","2007-03-19T13:10:00","64.35","7.8","0.0","DRAUGEN, NO","FM-15","4","28.91","30","41","","||SHRA","","","66","BKN:07 30","","","7.00","","020","","37","","","","","","","","","","","","","","","","","","","","","","","","","","","","","","","","","","","","","","","","","","","","","","","","","","","","","","","","","","","","","","","","","","","","","","","","","","","","","","","","","","","","","","","","","","","MET064METAR ENDR 191210Z 02032KT 9999 SHSNRA VCSH BKN030 05/M01 Q0979;","","","","","","","","","",""
"01023199999","2007-03-19T16:10:00","64.35","7.8","0.0","DRAUGEN, NO","FM-15","4","29.00","30","41","","||SH","","","66","FEW:02 15 SCT:04 34","","","7.00","","020","","18","","","","","","","","","","","","","","","","","","","","","","","","","","","","","","","","","","","","","","","","","","","","","","","","","","","","","","","","","","","","","","","","","","","","","","","","","","","","","","","","","","","","","","","","","","","MET073METAR ENDR 191510Z 02016KT 9999 SHGRSN VCSH FEW015CB SCT035 05/M01 Q0982;","","","","","","","","","",""
"01023199999","2007-03-20T07:20:00","64.35","7.8","0.0","DRAUGEN, NO","FM-15","4","29.44","30","41","","","","","66","SCT:04 21","","","7.00","","350","","40","","","","","","","","","","","","","","","","","","","","","","","","","","","","","","","","","","","","","","","","","","","","","","","","","","","","","","","","","","","","","","","","","","","","","","","","","","","","","","","","","","","","","","","","","","","MET060METAR ENDR 200620Z 35035KT 310V020 9999 SCT021 05/M01 Q0997;","","","","","","","","","",""
"01023199999","2007-03-20T10:20:00","64.35","7.8","0.0","DRAUGEN, NO","FM-15","4","29.56","28","43","","","","","57","SCT:04 25","","","7.00","","","","","","","","","","","","","","","","","","","","","","","","","","","","","","","","","","","","","","","","","","","","","","","","","","","","","","","","","","","","","","","","","","","","","","","","","","","","","","","","","","","","","","","","","","","","","","","MET049METAR ENDR 200920Z 9999 VCSH SCT025 06/M02 Q1001;","","","","","","","","","",""
"01023199999","2007-03-20T16:20:00","64.35","7.8","0.0","DRAUGEN, NO","FM-15","4","29.74","32","39","","","","","75","BKN:07 16","","","5.59","","350","","34","","","","","","","","","","","","","","","","","","","","","","","","","","","","","","","","","","","","","","","","","","","","","","","","","","","","","","","","","","","","","","","","","","","","","","","","","","","","","","","","","","","","","","","","","","","MET056METAR ENDR 201520Z 35030KT 9000 VSHS BKN016 04/00 Q1007;","","","","","","","","","",""
"01023199999","2007-03-21T07:20:00","64.35","7.8","0.0","DRAUGEN, NO","FM-15","4","29.91","23","37","","","","","56","SCT:04 34","","","7.00","","230","","14","","","","","","","","","","","","","","","","","","","","","","","","","","","","","","","","","","","","","","","","","","","","","","","","","","","","","","","","","","","","","","","","","","","","","","","","","","","","","","","","","","","","","","","","","","","MET052METAR ENDR 210620Z 23012KT 9999 SCT035 03/M05 Q1013;","","","","","","","","","",""
"01023199999","2007-03-21T10:20:00","64.35","7.8","0.0","DRAUGEN, NO","FM-15","4","29.88","23","37","","","","","56","SCT:04 39","","","7.00","","210","","22","","","","","","","","","","","","","","","","","","","","","","","","","","","","","","","","","","","","","","","","","","","","","","","","","","","","","","","","","","","","","","","","","","","","","","","","","","","","","","","","","","","","","","","","","","","MET052METAR ENDR 210920Z 21019KT 9999 SCT040 03/M05 Q1012;","","","","","","","","","",""
"01023199999","2007-03-21T13:10:00","64.35","7.8","0.0","DRAUGEN, NO","FM-15","4","29.85","30","39","","","","","70","SCT:04 30 BKN:07 108","","","7.00","","190","","24","","","","","","","","","","","","","","","","","","","","","","","","","","","","","","","","","","","","","","","","","","","","","","","","","","","","","","","","","","","","","","","","","","","","","","","","","","","","","","","","","","","","","","","","","","","MET064METAR ENDR 211210Z 19021KT 9999 VCSH SCT030 BKN110 04/M01 Q1011;","","","","","","","","","",""
"01023199999","2007-03-21T16:20:00","64.35","7.8","0.0","DRAUGEN, NO","FM-15","4","29.80","32","39","","","","","75","SCT:04 15 BKN:07 39","","","7.00","","210","","26","","","","","","","","","","","","","","","","","","","","","","","","","","","","","","","","","","","","","","","","","","","","","","","","","","","","","","","","","","","","","","","","","","","","","","","","","","","","","","","","","","","","","","","","","","","MET063METAR ENDR 211520Z 21023KT 9999 VCSH SCT015 BKN040 04/00 Q1009;","","","","","","","","","",""
"01023199999","2007-03-22T08:50:00","64.35","7.8","0.0","DRAUGEN, NO","FM-15","4","29.83","41","43","","||RA","","","93","OVC:08 11","","","5.59","","240","","31","","","","","","","","","","","","","","","","","","","","","","","","","","","","","","","","","","","","","","","","","","","","","","","","","","","","","","","","","","","","","","","","","","","","","","","","","","","","","","","","","","","","","","","","","","","MET055METAR ENDR 220750Z 24027KT 9000 -RA OVC011 06/05 Q1010;","","","","","","","","","",""
"01023199999","2007-03-22T13:10:00","64.35","7.8","0.0","DRAUGEN, NO","FM-15","4","30.06","27","45","","","","","49","FEW:02 30","","","7.00","","290","","23","","","","","","","","","","","","","","","","","","","","","","","","","","","","","","","","","","","","","","","","","","","","","","","","","","","","","","","","","","","","","","","","","","","","","","","","","","","","","","","","","","","","","","","","","","","MET052METAR ENDR 221210Z 29020KT 9999 FEW030 07/M03 Q1018;","","","","","","","","","",""
"01023199999","2007-03-22T16:20:00","64.35","7.8","0.0","DRAUGEN, NO","FM-15","4","30.18","32","48","","","","","54","FEW:02 30","","","7.00","","270","","15","","","","","","","","","","","","","","","","","","","","","","","","","","","","","","","","","","","","","","","","","","","","","","","","","","","","","","","","","","","","","","","","","","","","","","","","","","","","","","","","","","","","","","","","","","","MET052METAR ENDR 221520Z 27013KT 9999 FEW030 09/M00 Q1022;","","","","","","","","","",""
"01023199999","2007-03-22T18:10:00","64.35","7.8","0.0","DRAUGEN, NO","FM-15","4","30.24","30","45","","","","","57","SCT:04 45","","","7.00","","250","","13","","","","","","","","","","","","","","","","","","","","","","","","","","","","","","","","","","","","","","","","","","","","","","","","","","","","","","","","","","","","","","","","","","","","","","","","","","","","","","","","","","","","","","","","","","","MET052METAR ENDR 221710Z 25011KT 9999 SCT046 07/M01 Q1024;","","","","","","","","","",""
"01023199999","2007-03-22T19:40:00","64.35","7.8","0.0","DRAUGEN, NO","FM-15","4","30.27","34","43","","","","","71","SCT:04 39","","","7.00","","270","","16","","","","","","","","","","","","","","","","","","","","","","","","","","","","","","","","","","","","","","","","","","","","","","","","","","","","","","","","","","","","","","","","","","","","","","","","","","","","","","","","","","","","","","","","","","","MET051METAR ENDR 221840Z 27014KT 9999 SCT040 06/01 Q1025;","","","","","","","","","",""
"01023199999","2007-03-22T20:40:00","64.35","7.8","0.0","DRAUGEN, NO","FM-15","4","30.30","32","43","","","","","66","FEW:02 30","","","7.00","","270","","14","","","","","","","","","","","","","","","","","","","","","","","","","","","","","","","","","","","","","","","","","","","","","","","","","","","","","","","","","","","","","","","","","","","","","","","","","","","","","","","","","","","","","","","","","","","MET051METAR ENDR 221940Z 27012KT 9999 FEW030 06/00 Q1026;","","","","","","","","","",""
"01023199999","2007-03-23T08:50:00","64.35","7.8","0.0","DRAUGEN, NO","FM-15","4","30.33","34","41","","","","","76","","","","6.15","","120","","30","","","","","","","","","","","","","","","","","","","","","","","","","","","","","","","","","","","","","","","","","","","","","","","","","","","","","","","","","","","","","","","","","","","","","","","","","","","","","","","","","","","","","","","","","","","MET045METAR ENDR 230750Z 12026KT CAVOK 05/01 Q1027;","","","","","","","","","",""
"01023199999","2007-03-23T09:40:00","64.35","7.8","0.0","DRAUGEN, NO","FM-15","4","30.33","32","41","","","","","70","","","","6.15","","120","","30","","","","","","","","","","","","","","","","","","","","","","","","","","","","","","","","","","","","","","","","","","","","","","","","","","","","","","","","","","","","","","","","","","","","","","","","","","","","","","","","","","","","","","","","","","","MET046METAR ENDR 230840Z 12026KT CAVOK 05/M00 Q1027;","","","","","","","","","",""
"01023199999","2007-03-23T10:20:00","64.35","7.8","0.0","DRAUGEN, NO","FM-15","4","30.33","32","41","","","","","70","","","","6.15","","120","","26","","","","","","","","","","","","","","","","","","","","","","","","","","","","","","","","","","","","","","","","","","","","","","","","","","","","","","","","","","","","","","","","","","","","","","","","","","","","","","","","","","","","","","","","","","","MET045METAR ENDR 230920Z 12023KT CAVOK 05/00 Q1027;","","","","","","","","","",""
"01023199999","2007-03-23T10:40:00","64.35","7.8","0.0","DRAUGEN, NO","FM-15","4","30.33","32","43","","","","","66","","","","6.15","","130","","26","","","","","","","","","","","","","","","","","","","","","","","","","","","","","","","","","","","","","","","","","","","","","","","","","","","","","","","","","","","","","","","","","","","","","","","","","","","","","","","","","","","","","","","","","","","MET045METAR ENDR 230940Z 13023KT CAVOK 06/00 Q1027;","","","","","","","","","",""
"01023199999","2007-03-23T13:20:00","64.35","7.8","0.0","DRAUGEN, NO","FM-15","4","30.33","34","45","","","","","66","","","","6.15","","150","","23","","","","","","","","","","","","","","","","","","","","","","","","","","","","","","","","","","","","","","","","","","","","","","","","","","","","","","","","","","","","","","","","","","","","","","","","","","","","","","","","","","","","","","","","","","","MET045METAR ENDR 231220Z 15020KT CAVOK 07/01 Q1027;","","","","","","","","","",""
"01023199999","2007-03-23T13:40:00","64.35","7.8","0.0","DRAUGEN, NO","FM-15","4","30.33","34","45","","","","","66","","","","6.15","","150","","23","","","","","","","","","","","","","","","","","","","","","","","","","","","","","","","","","","","","","","","","","","","","","","","","","","","","","","","","","","","","","","","","","","","","","","","","","","","","","","","","","","","","","","","","","","","MET045METAR ENDR 231240Z 15020KT CAVOK 07/01 Q1027;","","","","","","","","","",""
"01023199999","2007-03-23T16:10:00","64.35","7.8","0.0","DRAUGEN, NO","FM-15","4","30.33","37","45","","","","","76","","","","6.15","","170","","18","","","","","","","","","","","","","","","","","","","","","","","","","","","","","","","","","","","","","","","","","","","","","","","","","","","","","","","","","","","","","","","","","","","","","","","","","","","","","","","","","","","","","","","","","","","MET045METAR ENDR 231510Z 17016KT CAVOK 07/03 Q1027;","","","","","","","","","",""
"01023199999","2007-03-24T07:20:00","64.35","7.8","0.0","DRAUGEN, NO","FM-15","4","30.42","37","45","","","","","76","","","","6.15","","200","","16","","","","","","","","","","","","","","","","","","","","","","","","","","","","","","","","","","","","","","","","","","","","","","","","","","","","","","","","","","","","","","","","","","","","","","","","","","","","","","","","","","","","","","","","","","","MET045METAR ENDR 240620Z 20014KT CAVOK 07/03 Q1030;","","","","","","","","","",""
"01023199999","2007-03-24T11:20:00","64.35","7.8","0.0","DRAUGEN, NO","FM-15","4","30.45","39","46","","","","","76","","","","6.15","","190","","9","","","","","","","","","","","","","","","","","","","","","","","","","","","","","","","","","","","","","","","","","","","","","","","","","","","","","","","","","","","","","","","","","","","","","","","","","","","","","","","","","","","","","","","","","","","MET045METAR ENDR 241020Z 19008KT CAVOK 08/04 Q1031;","","","","","","","","","",""
"01023199999","2007-03-24T13:10:00","64.35","7.8","0.0","DRAUGEN, NO","FM-15","4","30.45","39","46","","","","","76","","","","6.15","","180","","8","","","","","","","","","","","","","","","","","","","","","","","","","","","","","","","","","","","","","","","","","","","","","","","","","","","","","","","","","","","","","","","","","","","","","","","","","","","","","","","","","","","","","","","","","","","MET045METAR ENDR 241210Z 18007KT CAVOK 08/04 Q1031;","","","","","","","","","",""
"01023199999","2007-03-25T07:10:00","64.35","7.8","0.0","DRAUGEN, NO","FM-15","4","30.47","41","46","","","","","82","FEW:02 49","","","7.00","","220","","14","","","","","","","","","","","","","","","","","","","","","","","","","","","","","","","","","","","","","","","","","","","","","","","","","","","","","","","","","","","","","","","","","","","","","","","","","","","","","","","","","","","","","","","","","","","MET051METAR ENDR 250610Z 22012KT 9999 FEW050 08/05 Q1032;","","","","","","","","","",""
"01023199999","2007-03-25T13:10:00","64.35","7.8","0.0","DRAUGEN, NO","FM-15","4","30.53","41","46","","","","","82","","","","6.15","","220","","15","","","","","","","","","","","","","","","","","","","","","","","","","","","","","","","","","","","","","","","","","","","","","","","","","","","","","","","","","","","","","","","","","","","","","","","","","","","","","","","","","","","","","","","","","","","MET045METAR ENDR 251210Z 22013KT CAVOK 08/05 Q1034;","","","","","","","","","",""
"01023199999","2007-03-25T16:10:00","64.35","7.8","0.0","DRAUGEN, NO","FM-15","4","30.53","43","48","","","","","82","","","","6.15","","210","","13","","","","","","","","","","","","","","","","","","","","","","","","","","","","","","","","","","","","","","","","","","","","","","","","","","","","","","","","","","","","","","","","","","","","","","","","","","","","","","","","","","","","","","","","","","","MET045METAR ENDR 251510Z 21011KT CAVOK 09/06 Q1034;","","","","","","","","","",""
"01023199999","2007-03-26T10:10:00","64.35","7.8","0.0","DRAUGEN, NO","FM-15","4","30.50","39","48","","","","","71","","","","6.15","","210","","18","","","","","","","","","","","","","","","","","","","","","","","","","","","","","","","","","","","","","","","","","","","","","","","","","","","","","","","","","","","","","","","","","","","","","","","","","","","","","","","","","","","","","","","","","","","MET045METAR ENDR 260910Z 21016KT CAVOK 09/04 Q1033;","","","","","","","","","",""
"01023199999","2007-03-26T13:10:00","64.35","7.8","0.0","DRAUGEN, NO","FM-15","4","30.50","39","48","","","","","71","","","","6.15","","210","","16","","","","","","","","","","","","","","","","","","","","","","","","","","","","","","","","","","","","","","","","","","","","","","","","","","","","","","","","","","","","","","","","","","","","","","","","","","","","","","","","","","","","","","","","","","","MET045METAR ENDR 261210Z 21014KT CAVOK 09/04 Q1033;","","","","","","","","","",""
"01023199999","2007-03-27T10:10:00","64.35","7.8","0.0","DRAUGEN, NO","FM-15","4","30.36","37","48","","","","","66","","","","6.15","","220","","16","","","","","","","","","","","","","","","","","","","","","","","","","","","","","","","","","","","","","","","","","","","","","","","","","","","","","","","","","","","","","","","","","","","","","","","","","","","","","","","","","","","","","","","","","","","MET045METAR ENDR 270910Z 22014KT CAVOK 09/03 Q1028;","","","","","","","","","",""
"01023199999","2007-03-27T13:10:00","64.35","7.8","0.0","DRAUGEN, NO","FM-15","4","30.36","41","50","","","","","71","","","","6.15","","200","","9","","","","","","","","","","","","","","","","","","","","","","","","","","","","","","","","","","","","","","","","","","","","","","","","","","","","","","","","","","","","","","","","","","","","","","","","","","","","","","","","","","","","","","","","","","","MET045METAR ENDR 271210Z 20008KT CAVOK 10/05 Q1028;","","","","","","","","","",""
"01023199999","2007-03-27T16:10:00","64.35","7.8","0.0","DRAUGEN, NO","FM-15","4","30.33","23","52","","","","","32","","","","6.15","","180","","7","","","","","","","","","","","","","","","","","","","","","","","","","","","","","","","","","","","","","","","","","","","","","","","","","","","","","","","","","","","","","","","","","","","","","","","","","","","","","","","","","","","","","","","","","","","MET046METAR ENDR 271510Z 18006KT CAVOK 11/M05 Q1027;","","","","","","","","","",""
"01023199999","2007-03-28T05:40:00","64.35","7.8","0.0","DRAUGEN, NO","FM-15","4","30.21","36","46","","","","","66","","","","6.15","","230","","11","","","","","","","","","","","","","","","","","","","","","","","","","","","","","","","","","","","","","","","","","","","","","","","","","","","","","","","","","","","","","","","","","","","","","","","","","","","","","","","","","","","","","","","","","","","MET045METAR ENDR 280440Z 23010KT CAVOK 08/02 Q1023;","","","","","","","","","",""
"01023199999","2007-03-28T07:00:00","64.35","7.8","0.0","DRAUGEN, NO","FM-15","4","30.18","36","46","","","","","66","","","","6.15","","230","","16","","","","","","","","","","","","","","","","","","","","","","","","","","","","","","","","","","","","","","","","","","","","","","","","","","","","","","","","","","","","","","","","","","","","","","","","","","","","","","","","","","","","","","","","","","","MET045METAR ENDR 280600Z 23014KT CAVOK 08/02 Q1022;","","","","","","","","","",""
"01023199999","2007-03-28T13:10:00","64.35","7.8","0.0","DRAUGEN, NO","FM-15","4","30.15","41","46","","","","","82","","","","6.15","","170","","16","","","","","","","","","","","","","","","","","","","","","","","","","","","","","","","","","","","","","","","","","","","","","","","","","","","","","","","","","","","","","","","","","","","","","","","","","","","","","","","","","","","","","","","","","","","MET045METAR ENDR 281210Z 17014KT CAVOK 08/05 Q1021;","","","","","","","","","",""
"01023199999","2007-03-28T14:40:00","64.35","7.8","0.0","DRAUGEN, NO","FM-15","4","30.15","39","48","","","","","71","","","","6.15","","190","","13","","","","","","","","","","","","","","","","","","","","","","","","","","","","","","","","","","","","","","","","","","","","","","","","","","","","","","","","","","","","","","","","","","","","","","","","","","","","","","","","","","","","","","","","","","","MET045METAR ENDR 281340Z 19011KT CAVOK 09/04 Q1021;","","","","","","","","","",""
"01023199999","2007-03-28T17:40:00","64.35","7.8","0.0","DRAUGEN, NO","FM-15","4","30.12","32","48","","","","","54","","","","6.15","","170","","5","","","","","","","","","","","","","","","","","","","","","","","","","","","","","","","","","","","","","","","","","","","","","","","","","","","","","","","","","","","","","","","","","","","","","","","","","","","","","","","","","","","","","","","","","","","MET045METAR ENDR 281640Z 17004KT CAVOK 09/00 Q1020;","","","","","","","","","",""
"01023199999","2007-03-28T18:10:00","64.35","7.8","0.0","DRAUGEN, NO","FM-15","4","30.12","32","48","","","","","54","","","","6.15","","160","","5","","","","","","","","","","","","","","","","","","","","","","","","","","","","","","","","","","","","","","","","","","","","","","","","","","","","","","","","","","","","","","","","","","","","","","","","","","","","","","","","","","","","","","","","","","","MET045METAR ENDR 281710Z 16004KT CAVOK 09/00 Q1020;","","","","","","","","","",""
"01023199999","2007-03-28T18:40:00","64.35","7.8","0.0","DRAUGEN, NO","FM-15","4","30.12","32","48","","","","","54","","","","6.15","","180","","6","","","","","","","","","","","","","","","","","","","","","","","","","","","","","","","","","","","","","","","","","","","","","","","","","","","","","","","","","","","","","","","","","","","","","","","","","","","","","","","","","","","","","","","","","","","MET045METAR ENDR 281740Z 18005KT CAVOK 09/00 Q1020;","","","","","","","","","",""
"01023199999","2007-03-28T19:10:00","64.35","7.8","0.0","DRAUGEN, NO","FM-15","4","30.12","34","46","","","","","62","","","","6.15","","180","","9","","","","","","","","","","","","","","","","","","","","","","","","","","","","","","","","","","","","","","","","","","","","","","","","","","","","","","","","","","","","","","","","","","","","","","","","","","","","","","","","","","","","","","","","","","","MET045METAR ENDR 281810Z 18008KT CAVOK 08/01 Q1020;","","","","","","","","","",""
"01023199999","2007-03-29T05:40:00","64.35","7.8","0.0","DRAUGEN, NO","FM-15","4","30.03","37","46","","","","","71","","","","6.15","","220","","14","","","","","","","","","","","","","","","","","","","","","","","","","","","","","","","","","","","","","","","","","","","","","","","","","","","","","","","","","","","","","","","","","","","","","","","","","","","","","","","","","","","","","","","","","","","MET045METAR ENDR 290440Z 22012KT CAVOK 08/03 Q1017;","","","","","","","","","",""
"01023199999","2007-03-29T10:10:00","64.35","7.8","0.0","DRAUGEN, NO","FM-15","4","30.06","41","45","","","","","87","","","","6.15","","240","","19","","","","","","","","","","","","","","","","","","","","","","","","","","","","","","","","","","","","","","","","","","","","","","","","","","","","","","","","","","","","","","","","","","","","","","","","","","","","","","","","","","","","","","","","","","","MET045METAR ENDR 290910Z 24017KT CAVOK 07/05 Q1018;","","","","","","","","","",""
"01023199999","2007-03-29T13:10:00","64.35","7.8","0.0","DRAUGEN, NO","FM-16","4","30.03","43","46","","","","","87","OVC:08 20","","","","","250","","17","","","","","","","","","","","","","","","","","","","","","","","","","","","","","","","","","","","","","","","","","","","","","","","","","","","","","","","","","","","","","","","","","","","","","","","","","","","","","","","","","","","","","","","","","","","MET049METAR ENDR 291210Z 25015KT FG OVC020 08/06 Q1017;","","","","","","","","","",""
"01023199999","2007-03-29T15:10:00","64.35","7.8","0.0","DRAUGEN, NO","FM-15","4","30.03","43","45","","||FG","","","93","OVC:08 34","","","3.11","","250","","16","","","","","","","","","","","","","","","","","","","","","","","","","","","","","","","","","","","","","","","","","","","","","","","","","","","","","","","","","","","","","","","","","","","","","","","","","","","","","","","","","","","","","","","","","","","MET054METAR ENDR 291410Z 25014KT 5000 FG OVC035 07/06 Q1017;","","","","","","","","","",""
"01023199999","2007-03-29T16:10:00","64.35","7.8","0.0","DRAUGEN, NO","FM-15","4","30.03","43","45","","||FG","","","93","","","","3.11","","250","","14","","","","","","","","","","","","","","","","","","","","","","","","","","","","","","","","","","","","","","","","","","","","","","","","","","","","","","","","","","","","","","","","","","","","","","","","","","","","","","","","","","","","","","","","","","","MET047METAR ENDR 291510Z 25012KT 5000 FG 07/06 Q1017;","","","","","","","","","",""
"01023199999","2007-03-29T16:40:00","64.35","7.8","0.0","DRAUGEN, NO","FM-15","4","30.03","45","46","","||FG","","","93","","","","3.73","","260","","15","","","","","","","","","","","","","","","","","","","","","","","","","","","","","","","","","","","","","","","","","","","","","","","","","","","","","","","","","","","","","","","","","","","","","","","","","","","","","","","","","","","","","","","","","","","MET047METAR ENDR 291540Z 26013KT 6000 FG 08/07 Q1017;","","","","","","","","","",""
"01023199999","2007-03-30T10:10:00","64.35","7.8","0.0","DRAUGEN, NO","FM-15","4","30.15","32","41","","","","","70","FEW:02 10 SCT:04 20","","","7.00","","330","","24","","","","","","","","","","","","","","","","","","","","","","","","","","","","","","","","","","","","","","","","","","","","","","","","","","","","","","","","","","","","","","","","","","","","","","","","","","","","","","","","","","","","","","","","","","","MET072METAR ENDR 300910Z 33021KT 290V360 9999 VCSH FEW010 SCT020 05/M00 Q1021;","","","","","","","","","",""
"01023199999","2007-03-30T15:40:00","64.35","7.8","0.0","DRAUGEN, NO","FM-15","4","30.30","23","41","","","","","49","BKN:07 39","","","7.00","","010","","10","","","","","","","","","","","","","","","","","","","","","","","","","","","","","","","","","","","","","","","","","","","","","","","","","","","","","","","","","","","","","","","","","","","","","","","","","","","","","","","","","","","","","","","","","","","MET060METAR ENDR 301440Z 01009KT 320V030 9999 BKN040 05/M05 Q1026;","","","","","","","","","",""
"01023199999","2007-03-30T16:10:00","64.35","7.8","0.0","DRAUGEN, NO","FM-15","4","30.30","23","41","","","","","49","BKN:07 39","","","7.00","","360","","9","","","","","","","","","","","","","","","","","","","","","","","","","","","","","","","","","","","","","","","","","","","","","","","","","","","","","","","","","","","","","","","","","","","","","","","","","","","","","","","","","","","","","","","","","","","MET060METAR ENDR 301510Z 36008KT 290V050 9999 BKN040 05/M05 Q1026;","","","","","","","","","",""
"01023199999","2007-03-30T17:20:00","64.35","7.8","0.0","DRAUGEN, NO","FM-15","4","30.33","23","43","","","","","46","BKN:07 44","","","7.00","","360","","9","","","","","","","","","","","","","","","","","","","","","","","","","","","","","","","","","","","","","","","","","","","","","","","","","","","","","","","","","","","","","","","","","","","","","","","","","","","","","","","","","","","","","","","","","","","MET060METAR ENDR 301620Z 36008KT 260V050 9999 BKN045 06/M05 Q1027;","","","","","","","","","",""
"01023199999","2007-03-31T07:10:00","64.35","7.8","0.0","DRAUGEN, NO","FM-15","4","30.33","28","39","","","","","65","SCT:04 30 BKN:07 128","","","7.00","","250","","17","","","","","","","","","","","","","","","","","","","","","","","","","","","","","","","","","","","","","","","","","","","","","","","","","","","","","","","","","","","","","","","","","","","","","","","","","","","","","","","","","","","","","","","","","","","MET059METAR ENDR 310610Z 25015KT 9999 SCT030 BKN130 04/M02 Q1027;","","","","","","","","","",""
"01023199999","2007-03-31T13:40:00","64.35","7.8","0.0","DRAUGEN, NO","FM-15","4","30.39","37","43","","","","","81","FEW:02 20 SCT:04 39 BKN:07 69","","","7.00","","240","","28","","","","","","","","","","","","","","","","","","","","","","","","","","","","","","","","","","","","","","","","","","","","","","","","","","","","","","","","","","","","","","","","","","","","","","","","","","","","","","","","","","","","","","","","","","","MET065METAR ENDR 311240Z 24024KT 9999 FEW020 SCT040 BKN070 06/03 Q1029;","","","","","","","","","",""
"01023199999","2007-04-01T07:10:00","64.35","7.8","0.0","DRAUGEN, NO","FM-15","4","30.42","43","45","","","","","93","FEW:02 10 OVC:08 49","","","7.00","","230","","33","","","","","","","","","","","","","","","","","","","","","","","","","","","","","","","","","","","","","","","","","","","","","","","","","","","","","","","","","","","","","","","","","","","","","","","","","","","","","","","","","","","","","","","","","","","MET058METAR ENDR 010610Z 23029KT 9999 FEW010 OVC050 07/06 Q1030;","","","","","","","","","",""
"01023199999","2007-04-01T10:10:00","64.35","7.8","0.0","DRAUGEN, NO","FM-15","4","30.42","41","45","","","","","87","FEW:02 10 BKN:07 44","","","7.00","","240","","36","","","","","","","","","","","","","","","","","","","","","","","","","","","","","","","","","","","","","","","","","","","","","","","","","","","","","","","","","","","","","","","","","","","","","","","","","","","","","","","","","","","","","","","","","","","MET058METAR ENDR 010910Z 24031KT 9999 FEW010 BKN045 07/05 Q1030;","","","","","","","","","",""
"01023199999","2007-04-01T16:10:00","64.35","7.8","0.0","DRAUGEN, NO","FM-15","4","30.36","39","45","","","","","81","OVC:08 18","","","7.00","","240","","39","","","","","","","","","","","","","","","","","","","","","","","","","","","","","","","","","","","","","","","","","","","","","","","","","","","","","","","","","","","","","","","","","","","","","","","","","","","","","","","","","","","","","","","","","","","MET051METAR ENDR 011510Z 24034KT 9999 OVC018 07/04 Q1028;","","","","","","","","","",""
"01023199999","2007-04-02T07:40:00","64.35","7.8","0.0","DRAUGEN, NO","FM-15","4","30.18","37","43","","","","","81","SCT:04 20","","","7.00","","280","","32","","","","","","","","","","","","","","","","","","","","","","","","","","","","","","","","","","","","","","","","","","","","","","","","","","","","","","","","","","","","","","","","","","","","","","","","","","","","","","","","","","","","","","","","","","","MET051METAR ENDR 020640Z 28028KT 9999 SCT020 06/03 Q1022;","","","","","","","","","",""
"01023199999","2007-04-02T09:50:00","64.35","7.8","0.0","DRAUGEN, NO","FM-15","4","30.21","36","41","","||RA","","","81","SCT:04 20","","","7.00","","320","","36","","","","","","","","","","","","","","","","","","","","","","","","","","","","","","","","","","","","","","","","","","","","","","","","","","","","","","","","","","","","","","","","","","","","","","","","","","","","","","","","","","","","","","","","","","","MET055METAR ENDR 020850Z 32031KT 9999 -RA SCT020 05/02 Q1023;","","","","","","","","","",""
"01023199999","2007-04-02T10:00:00","64.35","7.8","0.0","DRAUGEN, NO","FM-15","4","30.21","36","41","","||RA","","","81","BKN:07 20","","","7.00","","320","","36","","","","","","","","","","","","","","","","","","","","","","","","","","","","","","","","","","","","","","","","","","","","","","","","","","","","","","","","","","","","","","","","","","","","","","","","","","","","","","","","","","","","","","","","","","","MET055METAR ENDR 020900Z 32031KT 9999 -RA BKN020 05/02 Q1023;","","","","","","","","","",""
"01023199999","2007-04-02T13:10:00","64.35","7.8","0.0","DRAUGEN, NO","FM-15","4","30.24","34","39","","||SHRA","","","81","BKN:07 20","","","5.59","","310","","31","","","","","","","","","","","","","","","","","","","","","","","","","","","","","","","","","","","","","","","","","","","","","","","","","","","","","","","","","","","","","","","","","","","","","","","","","","","","","","","","","","","","","","","","","","","MET057METAR ENDR 021210Z 31027KT 9000 -SHRA BKN020 04/01 Q1024;","","","","","","","","","",""
"01023199999","2007-04-02T16:10:00","64.35","7.8","0.0","DRAUGEN, NO","FM-15","4","30.24","36","43","","||SHRA","","","76","BKN:07 20","","","7.00","","350","","18","","","","","","","","","","","","","","","","","","","","","","","","","","","","","","","","","","","","","","","","","","","","","","","","","","","","","","","","","","","","","","","","","","","","","","","","","","","","","","","","","","","","","","","","","","","MET064METAR ENDR 021510Z 35016KT 300V030 9999 SHRA BKN020 06/02 Q1024;","","","","","","","","","",""
"01023199999","2007-04-03T06:50:00","64.35","7.8","0.0","DRAUGEN, NO","FM-15","4","30.33","25","39","","","","","56","OVC:08 34","","","7.00","","","","","","","","","","","","","","","","","","","","","","","","","","","","","","","","","","","","","","","","","","","","","","","","","","","","","","","","","","","","","","","","","","","","","","","","","","","","","","","","","","","","","","","","","","","","","","","MET044METAR ENDR 030550Z 9999 OVC035 04/M04 Q1027;","","","","","","","","","",""
"01023199999","2007-04-03T07:00:00","64.35","7.8","0.0","DRAUGEN, NO","FM-15","4","30.33","27","41","","","","","57","OVC:08 34","","","","","350","","12","","","","","","","","","","","","","","","","","","","","","","","","","","","","","","","","","","","","","","","","","","","","","","","","","","","","","","","","","","","","","","","","","","","","","","","","","","","","","","","","","","","","","","","","","","","MET055METAR ENDR 030600Z 35010KT 270V030 OVC035 05/M03 Q1027;","","","","","","","","","",""
"01023199999","2007-04-03T10:10:00","64.35","7.8","0.0","DRAUGEN, NO","FM-16","4","30.27","28","39","","","","","65","SCT:04 27 BKN:07 39","","","","","290","","17","","","","","","","","","","","","","","","","","","","","","","","","","","","","","","","","","","","","","","","","","","","","","","","","","","","","","","","","","","","","","","","","","","","","","","","","","","","","","","","","","","","","","","","","","","","MET062METAR ENDR 030910Z 29015KT 240V340 SCT027 BKN040 04/M02 Q1025;","","","","","","","","","",""
"01023199999","2007-04-03T13:10:00","64.35","7.8","0.0","DRAUGEN, NO","FM-15","4","30.21","32","37","","||RA","","","81","SCT:04 14 BKN:07 20","","","7.00","","260","","14","","","","","","","","","","","","","","","","","","","","","","","","","","","","","","","","","","","","","","","","","","","","","","","","","","","","","","","","","","","","","","","","","","","","","","","","","","","","","","","","","","","","","","","","","","","MET062METAR ENDR 031210Z 26012KT 9999 -RA SCT014 BKN020 03/00 Q1023;","","","","","","","","","",""
"01023199999","2007-04-03T16:10:00","64.35","7.8","0.0","DRAUGEN, NO","FM-15","4","30.06","34","37","","||RA","","","87","BKN:07 12","","","4.97","","250","","30","","","","","","","","","","","","","","","","","","","","","","","","","","","","","","","","","","","","","","","","","","","","","","","","","","","","","","","","","","","","","","","","","","","","","","","","","","","","","","","","","","","","","","","","","","","MET054METAR ENDR 031510Z 25026KT 8000 RA BKN012 03/01 Q1018;","","","","","","","","","",""
"01023199999","2007-04-04T07:10:00","64.35","7.8","0.0","DRAUGEN, NO","FM-15","4","29.71","41","45","","","","","87","BKN:07 15","","","7.00","","260","","43","","","","","","","","","","","","","","","","","","","","","","","","","","","","","","","","","","","","","","","","","","","","","","","","","","","","","","","","","","","","","","","","","","","","","","","","","","","","","","","","","","","","","","","","","","","MET051METAR ENDR 040610Z 26037KT 9999 BKN015 07/05 Q1006;","","","","","","","","","",""
"01023199999","2007-04-04T10:10:00","64.35","7.8","0.0","DRAUGEN, NO","FM-15","4","29.62","41","43","","||RA","","","93","BKN:07 6","","","2.49","","250","","40","","","","","","","","","","","","","","","","","","","","","","","","","","","","","","","","","","","","","","","","","","","","","","","","","","","","","","","","","","","","","","","","","","","","","","","","","","","","","","","","","","","","","","","","","","","MET054METAR ENDR 040910Z 25035KT 4000 RA BKN006 06/05 Q1003;","","","","","","","","","",""
"01023199999","2007-04-04T13:10:00","64.35","7.8","0.0","DRAUGEN, NO","FM-15","4","29.56","41","45","","||RA","","","87","BKN:07 12","","","4.35","","270","","41","","","","","","","","","","","","","","","","","","","","","","","","","","","","","","","","","","","","","","","","","","","","","","","","","","","","","","","","","","","","","","","","","","","","","","","","","","","","","","","","","","","","","","","","","","","MET057METAR ENDR 041210Z 27036KT 7000 RA BR BKN012 07/05 Q1001;","","","","","","","","","",""
"01023199999","2007-04-04T16:10:00","64.35","7.8","0.0","DRAUGEN, NO","FM-15","4","29.47","39","46","","","","","76","FEW:02 24 SCT:04 59","","","7.00","","260","","44","","","","","","","","","","","","","","","","","","","","","","","","","","","","","","","","","","","","","","","","","","","","","","","","","","","","","","","","","","","","","","","","","","","","","","","","","","","","","","","","","","","","","","","","","","","MET058METAR ENDR 041510Z 26038KT 9999 FEW024 SCT060 08/04 Q0998;","","","","","","","","","",""
"01023199999","2007-04-05T07:10:00","64.35","7.8","0.0","DRAUGEN, NO","FM-15","4","29.47","25","34","","||SH","","","70","FEW:02 14 SCT:04 26 BKN:07 69","","","7.00","","310","","49","","","","","","","","","","","","","","","","","","","","","","","","","","","","","","","","","","","","","","","","","","","","","","","","","","","","","","","","","","","","","","","","","","","","","","","","","","","","","","","","","","","","","","","","","","","MET085METAR ENDR 050610Z 31043KT 280V360 9999 -SHGR VCSH FEW014 SCT026 BKN070 01/M04 Q0998;","","","","","","","","","",""
"01023199999","2007-04-05T10:20:00","64.35","7.8","0.0","DRAUGEN, NO","FM-15","4","29.53","23","32","","||SH SH","","","69","SCT:04 20 SCT:04 39","","","7.00","","310","","49","","","","","","","","","","","","","","","","","","","","","","","","","","","","","","","","","","","","","","","","","","","","","","","","","","","","","","","","","","","","","","","","","","","","","","","","","","","","","","","","","","","","","","","","","","","MET069METAR ENDR 050920Z 31043KT 9999 GRGS VCSH SCT020 SCT040 00/M05 Q1000;","","","","","","","","","",""
"01023199999","2007-04-05T13:10:00","64.35","7.8","0.0","DRAUGEN, NO","FM-15","4","29.56","25","34","","","","","70","BKN:07 20","","","7.00","","290","","52","","","","","","","","","","","","","","","","","","","","","","","","","","","","","","","","","","","","","","","","","","","","","","","","","","","","","","","","","","","","","","","","","","","","","","","","","","","","","","","","","","","","","","","","","","","MET060METAR ENDR 051210Z 29045KT 9999 VCSH BKN020TCU 01/M04 Q1001;","","","","","","","","","",""
"01023199999","2007-04-05T16:10:00","64.35","7.8","0.0","DRAUGEN, NO","FM-16","4","29.62","25","37","","","","","60","FEW:02 16 BKN:07 32","","","","","310","","49","","","","","","","","","","","","","","","","","","","","","","","","","","","","","","","","","","","","","","","","","","","","","","","","","","","","","","","","","","","","","","","","","","","","","","","","","","","","","","","","","","","","","","","","","","","MET059METAR ENDR 051510Z 31042KT VCSH FEW016 BKN033 03/M04 Q1003;","","","","","","","","","",""
"01023199999","2007-04-05T16:40:00","64.35","7.8","0.0","DRAUGEN, NO","FM-15","4","29.62","27","36","","","","","70","SCT:04 20 BKN:07 32","","","7.00","","310","","46","","","","","","","","","","","","","","","","","","","","","","","","","","","","","","","","","","","","","","","","","","","","","","","","","","","","","","","","","","","","","","","","","","","","","","","","","","","","","","","","","","","","","","","","","","","MET064METAR ENDR 051540Z 31040KT 9999 VCSH SCT020 BKN033 02/M03 Q1003;","","","","","","","","","",""
"01023199999","2007-04-06T06:40:00","64.35","7.8","0.0","DRAUGEN, NO","FM-15","4","29.77","25","34","","","","","70","SCT:04 25","","","7.00","","320","","34","","","","","","","","","","","","","","","","","","","","","","","","","","","","","","","","","","","","","","","","","","","","","","","","","","","","","","","","","","","","","","","","","","","","","","","","","","","","","","","","","","","","","","","","","","","MET057METAR ENDR 060540Z 32030KT 9999 VCSH SCT025 01/M04 Q1008;","","","","","","","","","",""
"01023199999","2007-04-06T10:20:00","64.35","7.8","0.0","DRAUGEN, NO","FM-15","4","29.83","27","32","","","","","80","SCT:04 17 BKN:07 39","","","","","280","","29","","","","","","","","","","","","","","","","","","","","","","","","","","","","","","","","","","","","","","","","","","","","","","","","","","","","","","","","","","","","","","","","","","","","","","","","","","","","","","","","","","","","","","","","","","","MET060METAR ENDR 060920Z 28025KT VCSH SCT017 BKN040 M00/M03 Q1010;","","","","","","","","","",""
"01023199999","2007-04-06T11:40:00","64.35","7.8","0.0","DRAUGEN, NO","FM-15","4","29.83","21","34","","","","","60","BKN:07 30","","","7.00","","310","","36","","","","","","","","","","","","","","","","","","","","","","","","","","","","","","","","","","","","","","","","","","","","","","","","","","","","","","","","","","","","","","","","","","","","","","","","","","","","","","","","","","","","","","","","","","","MET057METAR ENDR 061040Z 31031KT 9999 VCSH BKN030 01/M06 Q1010;","","","","","","","","","",""
"01023199999","2007-04-06T13:00:00","64.35","7.8","0.0","DRAUGEN, NO","FM-15","4","29.83","25","34","","||SHSN","","","70","BKN:07 30","","","7.00","","320","54","41","","","","","","","","","","","","","","","","","","","","","","","","","","","","","","","","","","","","","","","","","","","","","","","","","","","","","","","","","","","","","","","","","","","","","","","","","","","","","","","","","","","","","","","","","","","MET068METAR ENDR 061200Z 32036G47KT 280V350 9999 SHSN BKN030 01/M04 Q1010;","","","","","","","","","",""
"01023199999","2007-04-06T16:10:00","64.35","7.8","0.0","DRAUGEN, NO","FM-15","4","29.88","25","34","","","","","70","FEW:02 15 SCT:04 30 BKN:07 43","","","1.86","","320","","37","","","","","","","","","","","","","","","","","","","","","","","","","","","","","","","","","","","","","","","","","","","","","","","","","","","","","","","","","","","","","","","","","","","","","","","","","","","","","","","","","","","","","","","","","","","MET074METAR ENDR 061510Z 32032KT 3000N VCSH FEW015CB SCT030 BKN044 01/M04 Q1012;","","","","","","","","","",""
"01023199999","2007-04-07T07:10:00","64.35","7.8","0.0","DRAUGEN, NO","FM-15","4","29.85","23","34","","||SG","","","65","BKN:07 28","","","1.86","","330","41","28","","","","","","","","","","","","","","","","","","","","","","","","","","","","","","","","","","","","","","","","","","","","","","","","","","","","","","","","","","","","","","","","","","","","","","","","","","","","","","","","","","","","","","","","","","","MET076METAR ENDR 070610Z 33024G36KT 300V010 3000W -SG VCSH BKN028TCU 01/M05 Q1011;","","","","","","","","","",""
"01023199999","2007-04-07T10:10:00","64.35","7.8","0.0","DRAUGEN, NO","FM-15","4","29.88","21","32","","","","","64","BKN:07 20","","","7.00","","320","","30","","","","","","","","","","","","","","","","","","","","","","","","","","","","","","","","","","","","","","","","","","","","","","","","","","","","","","","","","","","","","","","","","","","","","","","","","","","","","","","","","","","","","","","","","","","MET059METAR ENDR 070910Z 32026KT 9999 VCSH BKN020CB 00/M06 Q1012;","","","","","","","","","",""
"01023199999","2007-04-07T13:10:00","64.35","7.8","0.0","DRAUGEN, NO","FM-15","4","29.91","18","34","","","","","51","SCT:04 28 SCT:04 39","","","7.00","","310","46","33","","","","","","","","","","","","","","","","","","","","","","","","","","","","","","","","","","","","","","","","","","","","","","","","","","","","","","","","","","","","","","","","","","","","","","","","","","","","","","","","","","","","","","","","","","","MET077METAR ENDR 071210Z 31029G40KT 280V360 9999 VCSH SCT028CB SCT040 01/M08 Q1013;","","","","","","","","","",""
"01023199999","2007-04-07T16:10:00","64.35","7.8","0.0","DRAUGEN, NO","FM-15","4","29.91","25","32","","","","","75","SCT:04 15 BKN:07 45 BKN:07 67","","","0.62","","310","","34","","","","","","","","","","","","","","","","","","","","","","","","","","","","","","","","","","","","","","","","","","","","","","","","","","","","","","","","","","","","","","","","","","","","","","","","","","","","","","","","","","","","","","","","","","","MET089METAR ENDR 071510Z 31030KT 290V350 1000W -SN VCSH SCT015CB BKN046CB BKN068 M00/M04 Q1013;","","","","","","","","","",""
"01023199999","2007-04-08T07:10:00","64.35","7.8","0.0","DRAUGEN, NO","FM-15","4","29.85","30","34","","","","","87","BKN:07 8","","","7.00","","260","","23","","","","","","","","","","","","","","","","","","","","","","","","","","","","","","","","","","","","","","","","","","","","","","","","","","","","","","","","","","","","","","","","","","","","","","","","","","","","","","","","","","","","","","","","","","","MET060METAR ENDR 080610Z 26020KT 9999 VCSH BKN008TCU 01/M01 Q1011;","","","","","","","","","",""
"01023199999","2007-04-08T13:10:00","64.35","7.8","0.0","DRAUGEN, NO","FM-15","4","29.80","28","37","","","","","70","SCT:04 28 SCT:04 118","","","3.11","","290","","14","","","","","","","","","","","","","","","","","","","","","","","","","","","","","","","","","","","","","","","","","","","","","","","","","","","","","","","","","","","","","","","","","","","","","","","","","","","","","","","","","","","","","","","","","","","MET068METAR ENDR 081210Z 29012KT 5000NW VCSH SCT028CB SCT120 03/M02 Q1009;","","","","","","","","","",""
"01023199999","2007-04-08T16:10:00","64.35","7.8","0.0","DRAUGEN, NO","FM-15","4","29.74","30","41","","","","","66","BKN:07 26","","","3.11","","050","","10","","","","","","","","","","","","","","","","","","","","","","","","","","","","","","","","","","","","","","","","","","","","","","","","","","","","","","","","","","","","","","","","","","","","","","","","","","","","","","","","","","","","","","","","","","","MET061METAR ENDR 081510Z 05009KT 5000NE VCSH BKN026CB 05/M01 Q1007;","","","","","","","","","",""
"01023199999","2007-04-09T07:10:00","64.35","7.8","0.0","DRAUGEN, NO","FM-15","4","29.65","23","37","","","","","56","SCT:04 34","","","7.00","","110","","18","","","","","","","","","","","","","","","","","","","","","","","","","","","","","","","","","","","","","","","","","","","","","","","","","","","","","","","","","","","","","","","","","","","","","","","","","","","","","","","","","","","","","","","","","","","MET057METAR ENDR 090610Z 11016KT 9999 VCSH SCT035 03/M05 Q1004;","","","","","","","","","",""
"01023199999","2007-04-09T10:10:00","64.35","7.8","0.0","DRAUGEN, NO","FM-15","4","29.65","19","37","","","","","48","FEW:02 34 SCT:04 118","","","7.00","","110","","17","","","","","","","","","","","","","","","","","","","","","","","","","","","","","","","","","","","","","","","","","","","","","","","","","","","","","","","","","","","","","","","","","","","","","","","","","","","","","","","","","","","","","","","","","","","MET062METAR ENDR 090910Z 11015KT 9999 FEW035TCU SCT120 03/M07 Q1004;","","","","","","","","","",""
"01023199999","2007-04-09T16:10:00","64.35","7.8","0.0","DRAUGEN, NO","FM-15","4","29.53","25","37","","","","","60","FEW:02 30 BKN:07 117","","","7.00","","150","","19","","","","","","","","","","","","","","","","","","","","","","","","","","","","","","","","","","","","","","","","","","","","","","","","","","","","","","","","","","","","","","","","","","","","","","","","","","","","","","","","","","","","","","","","","","","MET059METAR ENDR 091510Z 15017KT 9999 FEW030 BKN119 03/M04 Q1000;","","","","","","","","","",""
"01023199999","2007-04-10T07:10:00","64.35","7.8","0.0","DRAUGEN, NO","FM-15","4","29.35","36","41","","","","","81","OVC:08 22","","","7.00","","270","","31","","","","","","","","","","","","","","","","","","","","","","","","","","","","","","","","","","","","","","","","","","","","","","","","","","","","","","","","","","","","","","","","","","","","","","","","","","","","","","","","","","","","","","","","","","","MET051METAR ENDR 100610Z 27027KT 9999 OVC022 05/02 Q0994;","","","","","","","","","",""
"01023199999","2007-04-10T10:10:00","64.35","7.8","0.0","DRAUGEN, NO","FM-15","4","29.32","32","41","","","","","70","FEW:02 25 OVC:08 52","","","3.11","","230","","37","","","","","","","","","","","","","","","","","","","","","","","","","","","","","","","","","","","","","","","","","","","","","","","","","","","","","","","","","","","","","","","","","","","","","","","","","","","","","","","","","","","","","","","","","","","MET065METAR ENDR 100910Z 23032KT 5000S VCSH FEW025 OVC053 05/M00 Q0993;","","","","","","","","","",""
"01023199999","2007-04-10T13:10:00","64.35","7.8","0.0","DRAUGEN, NO","FM-15","4","29.15","37","41","","||RA","","","87","OVC:08 14","","","3.11","","210","","52","","","","","","","","","","","","","","","","","","","","","","","","","","","","","","","","","","","","","","","","","","","","","","","","","","","","","","","","","","","","","","","","","","","","","","","","","","","","","","","","","","","","","","","","","","","MET061METAR ENDR 101210Z 21045KT 5000W -RA VCSH OVC014 05/03 Q0987;","","","","","","","","","",""
"01023199999","2007-04-10T16:20:00","64.35","7.8","0.0","DRAUGEN, NO","FM-15","4","29.06","41","46","","","","","82","SCT:04 22 SCT:04 71 BKN:07 86","","","7.00","","260","76","57","","","","","","","","","","","","","","","","","","","","","","","","","","","","","","","","","","","","","","","","","","","","","","","","","","","","","","","","","","","","","","","","","","","","","","","","","","","","","","","","","","","","","","","","","","","MET076METAR ENDR 101520Z 26050G66KT 9999 VCSH SCT022TCU SCT072 BKN087 08/05 Q0984;","","","","","","","","","",""
"01023199999","2007-04-11T07:20:00","64.35","7.8","0.0","DRAUGEN, NO","FM-15","4","29.41","34","41","","","","","76","SCT:04 18 BKN:07 43","","","7.00","","280","","57","","","","","","","","","","","","","","","","","","","","","","","","","","","","","","","","","","","","","","","","","","","","","","","","","","","","","","","","","","","","","","","","","","","","","","","","","","","","","","","","","","","","","","","","","","","MET063METAR ENDR 110620Z 28050KT 9999 VCSH SCT018 BKN044 05/01 Q0996;","","","","","","","","","",""
"01023199999","2007-04-11T10:10:00","64.35","7.8","0.0","DRAUGEN, NO","FM-15","4","29.62","32","39","","","","","75","BKN:07 23 BKN:07 30","","","7.00","","290","","45","","","","","","","","","","","","","","","","","","","","","","","","","","","","","","","","","","","","","","","","","","","","","","","","","","","","","","","","","","","","","","","","","","","","","","","","","","","","","","","","","","","","","","","","","","","MET064METAR ENDR 110910Z 29039KT 9999 VCSH BKN023 BKN030 04/M00 Q1003;","","","","","","","","","",""
"01023199999","2007-04-11T13:10:00","64.35","7.8","0.0","DRAUGEN, NO","FM-15","4","29.77","28","39","","","","","65","BKN:07 32","","","7.00","","290","","43","","","","","","","","","","","","","","","","","","","","","","","","","","","","","","","","","","","","","","","","","","","","","","","","","","","","","","","","","","","","","","","","","","","","","","","","","","","","","","","","","","","","","","","","","","","MET057METAR ENDR 111210Z 29037KT 9999 VCSH BKN033 04/M02 Q1008;","","","","","","","","","",""
"01023199999","2007-04-11T16:10:00","64.35","7.8","0.0","DRAUGEN, NO","FM-15","4","29.88","27","39","","","","","61","BKN:07 41","","","7.00","","280","","34","","","","","","","","","","","","","","","","","","","","","","","","","","","","","","","","","","","","","","","","","","","","","","","","","","","","","","","","","","","","","","","","","","","","","","","","","","","","","","","","","","","","","","","","","","","MET057METAR ENDR 111510Z 28030KT 9999 VCSH BKN042 04/M03 Q1012;","","","","","","","","","",""
"01023199999","2007-04-12T07:10:00","64.35","7.8","0.0","DRAUGEN, NO","FM-15","4","29.91","39","41","","||RA","","","93","OVC:08 6","","","3.73","","190","","31","","","","","","","","","","","","","","","","","","","","","","","","","","","","","","","","","","","","","","","","","","","","","","","","","","","","","","","","","","","","","","","","","","","","","","","","","","","","","","","","","","","","","","","","","","","MET060METAR ENDR 120610Z 19027KT 6000 -RA VCSH OVC006 05/04 Q1013;","","","","","","","","","",""
"01023199999","2007-04-12T10:40:00","64.35","7.8","0.0","DRAUGEN, NO","FM-15","4","29.94","46","46","","||RA","","","100","OVC:08 4","","","1.24","","240","","34","","","","","","","","","","","","","","","","","","","","","","","","","","","","","","","","","","","","","","","","","","","","","","","","","","","","","","","","","","","","","","","","","","","","","","","","","","","","","","","","","","","","","","","","","","","MET060METAR ENDR 120940Z 24030KT 2000 -RA VCSH OVC004 08/08 Q1014;","","","","","","","","","",""
"01023199999","2007-04-12T13:20:00","64.35","7.8","0.0","DRAUGEN, NO","FM-15","4","30.00","45","46","","||DZ","","","93","OVC:08 5","","","2.17","","230","","38","","","","","","","","","","","","","","","","","","","","","","","","","","","","","","","","","","","","","","","","","","","","","","","","","","","","","","","","","","","","","","","","","","","","","","","","","","","","","","","","","","","","","","","","","","","MET060METAR ENDR 121220Z 23033KT 3500 -DZ VCSH OVC005 08/07 Q1016;","","","","","","","","","",""
"01023199999","2007-04-12T16:10:00","64.35","7.8","0.0","DRAUGEN, NO","FM-15","4","30.06","45","46","","","","","93","BKN:07 49 OVC:08 67","","","4.97","","230","","38","","","","","","","","","","","","","","","","","","","","","","","","","","","","","","","","","","","","","","","","","","","","","","","","","","","","","","","","","","","","","","","","","","","","","","","","","","","","","","","","","","","","","","","","","","","MET063METAR ENDR 121510Z 23033KT 8000 VCSH BKN050 OVC068 08/07 Q1018;","","","","","","","","","",""
"01023199999","2007-04-13T07:10:00","64.35","7.8","0.0","DRAUGEN, NO","FM-15","4","30.09","45","46","","","","","93","BKN:07 8 OVC:08 32","","","4.97","","240","","34","","","","","","","","","","","","","","","","","","","","","","","","","","","","","","","","","","","","","","","","","","","","","","","","","","","","","","","","","","","","","","","","","","","","","","","","","","","","","","","","","","","","","","","","","","","MET063METAR ENDR 130610Z 24030KT 8000 VCSH BKN008 OVC033 08/07 Q1019;","","","","","","","","","",""
"01023199999","2007-04-13T10:20:00","64.35","7.8","0.0","DRAUGEN, NO","FM-15","4","30.15","45","46","","","","","93","OVC:08 10","","","4.35","","240","","28","","","","","","","","","","","","","","","","","","","","","","","","","","","","","","","","","","","","","","","","","","","","","","","","","","","","","","","","","","","","","","","","","","","","","","","","","","","","","","","","","","","","","","","","","","","MET056METAR ENDR 130920Z 24024KT 7000 VCSH OVC010 08/07 Q1021;","","","","","","","","","",""
"01023199999","2007-04-13T13:10:00","64.35","7.8","0.0","DRAUGEN, NO","FM-15","4","30.21","45","46","","||HZ","","","93","OVC:08 5","","","1.86","","230","","30","","","","","","","","","","","","","","","","","","","","","","","","","","","","","","","","","","","","","","","","","","","","","","","","","","","","","","","","","","","","","","","","","","","","","","","","","","","","","","","","","","","","","","","","","","","MET054METAR ENDR 131210Z 23026KT 3000 HZ OVC005 08/07 Q1023;","","","","","","","","","",""
"01023199999","2007-04-13T16:10:00","64.35","7.8","0.0","DRAUGEN, NO","FM-15","4","30.24","45","45","","","","","100","OVC:08 4","","","2.05","","240","","31","","","","","","","","","","","","","","","","","","","","","","","","","","","","","","","","","","","","","","","","","","","","","","","","","","","","","","","","","","","","","","","","","","","","","","","","","","","","","","","","","","","","","","","","","","","MET054METAR ENDR 131510Z 24027KT 3300 BR OVC004 07/07 Q1024;","","","","","","","","","",""
"01023199999","2007-04-14T07:10:00","64.35","7.8","0.0","DRAUGEN, NO","FM-15","4","30.24","45","48","","","","","87","","","","6.15","","200","","26","","","","","","","","","","","","","","","","","","","","","","","","","","","","","","","","","","","","","","","","","","","","","","","","","","","","","","","","","","","","","","","","","","","","","","","","","","","","","","","","","","","","","","","","","","","MET045METAR ENDR 140610Z 20023KT CAVOK 09/07 Q1024;","","","","","","","","","",""
"01023199999","2007-04-14T10:10:00","64.35","7.8","0.0","DRAUGEN, NO","FM-15","4","30.21","41","50","","","","","71","","","","6.15","","190","","29","","","","","","","","","","","","","","","","","","","","","","","","","","","","","","","","","","","","","","","","","","","","","","","","","","","","","","","","","","","","","","","","","","","","","","","","","","","","","","","","","","","","","","","","","","","MET045METAR ENDR 140910Z 19025KT CAVOK 10/05 Q1023;","","","","","","","","","",""
"01023199999","2007-04-14T13:20:00","64.35","7.8","0.0","DRAUGEN, NO","FM-15","4","30.21","41","52","","","","","67","BKN:07 55 BKN:07 100","","","7.00","","210","","31","","","","","","","","","","","","","","","","","","","","","","","","","","","","","","","","","","","","","","","","","","","","","","","","","","","","","","","","","","","","","","","","","","","","","","","","","","","","","","","","","","","","","","","","","","","MET058METAR ENDR 141220Z 21027KT 9999 BKN056 BKN102 11/05 Q1023;","","","","","","","","","",""
"01023199999","2007-04-14T16:10:00","64.35","7.8","0.0","DRAUGEN, NO","FM-15","4","30.21","43","48","","","","","82","BKN:07 34","","","7.00","","220","","32","","","","","","","","","","","","","","","","","","","","","","","","","","","","","","","","","","","","","","","","","","","","","","","","","","","","","","","","","","","","","","","","","","","","","","","","","","","","","","","","","","","","","","","","","","","MET051METAR ENDR 141510Z 22028KT 9999 BKN035 09/06 Q1023;","","","","","","","","","",""
"01023199999","2007-04-15T07:20:00","64.35","7.8","0.0","DRAUGEN, NO","FM-15","4","30.27","45","45","","||FG","","","100","VV:09 1","","","0.12","","200","","16","","","","","","","","","","","","","","","","","","","","","","","","","","","","","","","","","","","","","","","","","","","","","","","","","","","","","","","","","","","","","","","","","","","","","","","","","","","","","","","","","","","","","","","","","","","MET053METAR ENDR 150620Z 20014KT 0200 FG VV001 07/07 Q1025;","","","","","","","","","",""
"01023199999","2007-04-15T10:10:00","64.35","7.8","0.0","DRAUGEN, NO","FM-15","4","30.21","45","45","","||HZ","","","100","BKN:07 50","","","3.73","","200","","19","","","","","","","","","","","","","","","","","","","","","","","","","","","","","","","","","","","","","","","","","","","","","","","","","","","","","","","","","","","","","","","","","","","","","","","","","","","","","","","","","","","","","","","","","","","MET054METAR ENDR 150910Z 20017KT 6000 HZ BKN051 07/07 Q1023;","","","","","","","","","",""
"01023199999","2007-04-15T13:10:00","64.35","7.8","0.0","DRAUGEN, NO","FM-15","4","30.15","45","45","","||HZ","","","100","BKN:07 94","","","7.00","","160","","21","","","","","","","","","","","","","","","","","","","","","","","","","","","","","","","","","","","","","","","","","","","","","","","","","","","","","","","","","","","","","","","","","","","","","","","","","","","","","","","","","","","","","","","","","","","MET054METAR ENDR 151210Z 16018KT 9999 HZ BKN095 07/07 Q1021;","","","","","","","","","",""
"01023199999","2007-04-15T16:10:00","64.35","7.8","0.0","DRAUGEN, NO","FM-15","4","30.06","43","54","","","","","67","SCT:04 86 BKN:07 118","","","7.00","","180","","28","","","","","","","","","","","","","","","","","","","","","","","","","","","","","","","","","","","","","","","","","","","","","","","","","","","","","","","","","","","","","","","","","","","","","","","","","","","","","","","","","","","","","","","","","","","MET058METAR ENDR 151510Z 18024KT 9999 SCT087 BKN120 12/06 Q1018;","","","","","","","","","",""
"01023199999","2007-04-16T07:10:00","64.35","7.8","0.0","DRAUGEN, NO","FM-15","4","29.91","45","45","","","","","100","SCT:04 11 SCT:04 118","","","7.00","","250","","26","","","","","","","","","","","","","","","","","","","","","","","","","","","","","","","","","","","","","","","","","","","","","","","","","","","","","","","","","","","","","","","","","","","","","","","","","","","","","","","","","","","","","","","","","","","MET058METAR ENDR 160610Z 25023KT 9999 SCT011 SCT120 07/07 Q1013;","","","","","","","","","",""
"01023199999","2007-04-16T10:10:00","64.35","7.8","0.0","DRAUGEN, NO","FM-15","4","29.94","41","45","","","","","87","FEW:02 20 SCT:04 118","","","7.00","","240","","29","","","","","","","","","","","","","","","","","","","","","","","","","","","","","","","","","","","","","","","","","","","","","","","","","","","","","","","","","","","","","","","","","","","","","","","","","","","","","","","","","","","","","","","","","","","MET061METAR ENDR 160910Z 24025KT 9999 FEW020TCU SCT120 07/05 Q1014;","","","","","","","","","",""
"01023199999","2007-04-16T13:10:00","64.35","7.8","0.0","DRAUGEN, NO","FM-15","4","29.91","39","46","","","","","76","SCT:04 23","","","7.00","","240","","29","","","","","","","","","","","","","","","","","","","","","","","","","","","","","","","","","","","","","","","","","","","","","","","","","","","","","","","","","","","","","","","","","","","","","","","","","","","","","","","","","","","","","","","","","","","MET053METAR ENDR 161210Z 24025KT 9999 SCT023CB 08/04 Q1013;","","","","","","","","","",""
"01023199999","2007-04-16T16:20:00","64.35","7.8","0.0","DRAUGEN, NO","FM-15","4","29.85","39","46","","","","","76","BKN:07 24","","","7.00","","230","","37","","","","","","","","","","","","","","","","","","","","","","","","","","","","","","","","","","","","","","","","","","","","","","","","","","","","","","","","","","","","","","","","","","","","","","","","","","","","","","","","","","","","","","","","","","","MET058METAR ENDR 161520Z 23032KT 9999 VCSH BKN024CB 08/04 Q1011;","","","","","","","","","",""
"01023199999","2007-04-17T07:10:00","64.35","7.8","0.0","DRAUGEN, NO","FM-15","4","29.71","34","41","","","","","76","SCT:04 27 BKN:07 118","","","7.00","","250","","30","","","","","","","","","","","","","","","","","","","","","","","","","","","","","","","","","","","","","","","","","","","","","","","","","","","","","","","","","","","","","","","","","","","","","","","","","","","","","","","","","","","","","","","","","","","MET066METAR ENDR 170610Z 25026KT 9999 VCSH SCT027TCU BKN120 05/01 Q1006;","","","","","","","","","",""
"01023199999","2007-04-17T10:10:00","64.35","7.8","0.0","DRAUGEN, NO","FM-15","4","29.71","36","43","","","","","76","BKN:07 19","","","7.00","","270","","26","","","","","","","","","","","","","","","","","","","","","","","","","","","","","","","","","","","","","","","","","","","","","","","","","","","","","","","","","","","","","","","","","","","","","","","","","","","","","","","","","","","","","","","","","","","MET059METAR ENDR 170910Z 27023KT 9999 VCSH BKN019TCU 06/02 Q1006;","","","","","","","","","",""
"01023199999","2007-04-17T13:10:00","64.35","7.8","0.0","DRAUGEN, NO","FM-15","4","29.74","36","45","","","","","71","BKN:07 15","","","4.35","","","","","","","","","","","","","","","","","","","","","","","","","","","","","","","","","","","","","","","","","","","","","","","","","","","","","","","","","","","","","","","","","","","","","","","","","","","","","","","","","","","","","","","","","","","","","","","MET051METAR ENDR 171210Z 7000 VCSH BKN015TCU 07/02 Q1007;","","","","","","","","","",""
"01023199999","2007-04-18T07:10:00","64.35","7.8","0.0","DRAUGEN, NO","FM-15","4","29.85","30","36","","","","","81","FEW:02 8 BKN:07 43","","","7.00","","300","","8","","","","","","","","","","","","","","","","","","","","","","","","","","","","","","","","","","","","","","","","","","","","","","","","","","","","","","","","","","","","","","","","","","","","","","","","","","","","","","","","","","","","","","","","","","","MET075METAR ENDR 180610Z 30007KT 270V010 9999 VCSH FEW008TCU BKN044 02/M01 Q1011;","","","","","","","","","",""
"01023199999","2007-04-18T13:10:00","64.35","7.8","0.0","DRAUGEN, NO","FM-15","4","29.77","28","37","","","","","70","BKN:07 30 BKN:07 98","","","7.00","","250","","23","","","","","","","","","","","","","","","","","","","","","","","","","","","","","","","","","","","","","","","","","","","","","","","","","","","","","","","","","","","","","","","","","","","","","","","","","","","","","","","","","","","","","","","","","","","MET067METAR ENDR 181210Z 25020KT 9999 VCSH BKN030TCU BKN100 03/M02 Q1008;","","","","","","","","","",""
"01023199999","2007-04-18T16:10:00","64.35","7.8","0.0","DRAUGEN, NO","FM-15","4","29.65","32","36","","||RA","","","87","OVC:08 6","","","3.73","","190","","13","","","","","","","","","","","","","","","","","","","","","","","","","","","","","","","","","","","","","","","","","","","","","","","","","","","","","","","","","","","","","","","","","","","","","","","","","","","","","","","","","","","","","","","","","","","MET054METAR ENDR 181510Z 19011KT 6000 RA OVC006 02/00 Q1004;","","","","","","","","","",""
"01023199999","2007-04-19T07:10:00","64.35","7.8","0.0","DRAUGEN, NO","FM-15","4","29.23","30","39","","","","","70","SCT:04 32 BKN:07 108","","","7.00","","270","","25","","","","","","","","","","","","","","","","","","","","","","","","","","","","","","","","","","","","","","","","","","","","","","","","","","","","","","","","","","","","","","","","","","","","","","","","","","","","","","","","","","","","","","","","","","","MET067METAR ENDR 190610Z 27022KT 9999 VCSH SCT032TCU BKN110 04/M01 Q0990;","","","","","","","","","",""
"01023199999","2007-04-19T10:10:00","64.35","7.8","0.0","DRAUGEN, NO","FM-15","4","29.23","30","41","","","","","66","BKN:07 25","","","7.00","","260","","19","","","","","","","","","","","","","","","","","","","","","","","","","","","","","","","","","","","","","","","","","","","","","","","","","","","","","","","","","","","","","","","","","","","","","","","","","","","","","","","","","","","","","","","","","","","MET059METAR ENDR 190910Z 26017KT 9999 VCSH BKN025CB 05/M01 Q0990;","","","","","","","","","",""
"01023199999","2007-04-19T13:10:00","64.35","7.8","0.0","DRAUGEN, NO","FM-15","4","29.21","34","36","","","","","93","OVC:08 7","","","7.00","","150","","21","","","","","","","","","","","","","","","","","","","","","","","","","","","","","","","","","","","","","","","","","","","","","","","","","","","","","","","","","","","","","","","","","","","","","","","","","","","","","","","","","","","","","","","","","","","MET056METAR ENDR 191210Z 15018KT 9999 VCSH OVC007 02/01 Q0989;","","","","","","","","","",""
"01023199999","2007-04-19T16:10:00","64.35","7.8","0.0","DRAUGEN, NO","FM-15","4","","34","39","","","","","81","BKN:07 18 BKN:07 79","","","7.00","","330","","43","","","","","","","","","","","","","","","","","","","","","","","","","","","","","","","","","","","","","","","","","","","","","","","","","","","","","","","","","","","","","","","","","","","","","","","","","","","","","","","","","","","","","","","","","","","MET066METAR ENDR 191510Z 33037KT 9999 VCSH BKN018TCU BKN080 04/01 Q0996;","","","","","","","","","",""
"01023199999","2007-04-20T07:10:00","64.35","7.8","0.0","DRAUGEN, NO","FM-15","4","29.85","19","37","","","","","48","FEW:02 10 SCT:04 20 BKN:07 39","","","7.00","","330","","31","","","","","","","","","","","","","","","","","","","","","","","","","","","","","","","","","","","","","","","","","","","","","","","","","","","","","","","","","","","","","","","","","","","","","","","","","","","","","","","","","","","","","","","","","","","MET074METAR ENDR 200610Z 33027KT 310V010 9999 FEW010 SCT020 BKN040 03/M07 Q1011;","","","","","","","","","",""
"01023199999","2007-04-20T10:10:00","64.35","7.8","0.0","DRAUGEN, NO","FM-15","4","29.94","21","37","","","","","52","FEW:02 10 SCT:04 20 BKN:07 49","","","7.00","","360","","22","","","","","","","","","","","","","","","","","","","","","","","","","","","","","","","","","","","","","","","","","","","","","","","","","","","","","","","","","","","","","","","","","","","","","","","","","","","","","","","","","","","","","","","","","","","MET081METAR ENDR 200910Z 36019KT 290V050 9999 VCSH FEW010CB SCT020 BKN050 03/M06 Q1014;","","","","","","","","","",""
"01023199999","2007-04-20T13:10:00","64.35","7.8","0.0","DRAUGEN, NO","FM-15","4","30.03","27","37","","","","","65","FEW:02 10 SCT:04 20 BKN:07 49","","","7.00","","330","","16","","","","","","","","","","","","","","","","","","","","","","","","","","","","","","","","","","","","","","","","","","","","","","","","","","","","","","","","","","","","","","","","","","","","","","","","","","","","","","","","","","","","","","","","","","","MET081METAR ENDR 201210Z 33014KT 270V010 9999 VCSH FEW010CB SCT020 BKN050 03/M03 Q1017;","","","","","","","","","",""
"01023199999","2007-04-20T16:10:00","64.35","7.8","0.0","DRAUGEN, NO","FM-15","4","30.09","23","37","","","","","56","FEW:02 10 SCT:04 30 BKN:07 49","","","7.00","","310","","19","","","","","","","","","","","","","","","","","","","","","","","","","","","","","","","","","","","","","","","","","","","","","","","","","","","","","","","","","","","","","","","","","","","","","","","","","","","","","","","","","","","","","","","","","","","MET081METAR ENDR 201510Z 31017KT 280V030 9999 VCSH FEW010CB SCT030 BKN050 03/M05 Q1019;","","","","","","","","","",""
"01023199999","2007-04-21T07:10:00","64.35","7.8","0.0","DRAUGEN, NO","FM-15","4","30.12","18","37","","","","","45","FEW:02 20 BKN:07 49","","","7.00","","270","","9","","","","","","","","","","","","","","","","","","","","","","","","","","","","","","","","","","","","","","","","","","","","","","","","","","","","","","","","","","","","","","","","","","","","","","","","","","","","","","","","","","","","","","","","","","","MET059METAR ENDR 210610Z 27008KT 9999 FEW020 BKN050 03/M08 Q1020;","","","","","","","","","",""
"01023199999","2007-04-21T10:10:00","64.35","7.8","0.0","DRAUGEN, NO","FM-15","4","30.12","21","37","","","","","52","SCT:04 30 BKN:07 44","","","7.00","","230","","13","","","","","","","","","","","","","","","","","","","","","","","","","","","","","","","","","","","","","","","","","","","","","","","","","","","","","","","","","","","","","","","","","","","","","","","","","","","","","","","","","","","","","","","","","","","MET059METAR ENDR 210910Z 23011KT 9999 SCT030 BKN045 03/M06 Q1020;","","","","","","","","","",""
"01023199999","2007-04-21T13:10:00","64.35","7.8","0.0","DRAUGEN, NO","FM-15","4","30.12","28","39","","","","","65","BKN:07 39","","","7.00","","190","","11","","","","","","","","","","","","","","","","","","","","","","","","","","","","","","","","","","","","","","","","","","","","","","","","","","","","","","","","","","","","","","","","","","","","","","","","","","","","","","","","","","","","","","","","","","","MET052METAR ENDR 211210Z 19010KT 9999 BKN040 04/M02 Q1020;","","","","","","","","","",""
"01023199999","2007-04-21T16:10:00","64.35","7.8","0.0","DRAUGEN, NO","FM-15","4","30.09","25","39","","","","","56","FEW:02 25 SCT:04 44","","","7.00","","160","","13","","","","","","","","","","","","","","","","","","","","","","","","","","","","","","","","","","","","","","","","","","","","","","","","","","","","","","","","","","","","","","","","","","","","","","","","","","","","","","","","","","","","","","","","","","","MET064METAR ENDR 211510Z 16011KT 9999 VCSH FEW025 SCT045 04/M04 Q1019;","","","","","","","","","",""
"01023199999","2007-04-22T10:10:00","64.35","7.8","0.0","DRAUGEN, NO","FM-15","4","29.71","37","41","","||RA","","","87","OVC:08 30","","","7.00","","150","","29","","","","","","","","","","","","","","","","","","","","","","","","","","","","","","","","","","","","","","","","","","","","","","","","","","","","","","","","","","","","","","","","","","","","","","","","","","","","","","","","","","","","","","","","","","","MET054METAR ENDR 220910Z 15025KT 9999 RA OVC030 05/03 Q1006;","","","","","","","","","",""
"01023199999","2007-04-22T13:10:00","64.35","7.8","0.0","DRAUGEN, NO","FM-15","4","29.65","41","43","","||RA","","","93","SCT:04 10 OVC:08 30","","","7.00","","160","","30","","","","","","","","","","","","","","","","","","","","","","","","","","","","","","","","","","","","","","","","","","","","","","","","","","","","","","","","","","","","","","","","","","","","","","","","","","","","","","","","","","","","","","","","","","","MET062METAR ENDR 221210Z 16026KT 9999 -RA SCT010 OVC030 06/05 Q1004;","","","","","","","","","",""
"01023199999","2007-04-22T16:10:00","64.35","7.8","0.0","DRAUGEN, NO","FM-15","4","29.62","43","45","","||RA","","","93","SCT:04 10 OVC:08 15","","","7.00","","180","","30","","","","","","","","","","","","","","","","","","","","","","","","","","","","","","","","","","","","","","","","","","","","","","","","","","","","","","","","","","","","","","","","","","","","","","","","","","","","","","","","","","","","","","","","","","","MET061METAR ENDR 221510Z 18026KT 9999 RA SCT010 OVC015 07/06 Q1003;","","","","","","","","","",""
"01023199999","2007-04-23T10:10:00","64.35","7.8","0.0","DRAUGEN, NO","FM-15","4","29.83","43","45","","","","","93","OVC:08 9","","","7.00","","290","","21","","","","","","","","","","","","","","","","","","","","","","","","","","","","","","","","","","","","","","","","","","","","","","","","","","","","","","","","","","","","","","","","","","","","","","","","","","","","","","","","","","","","","","","","","","","MET051METAR ENDR 230910Z 29018KT 9999 OVC009 07/06 Q1010;","","","","","","","","","",""
"01023199999","2007-04-23T13:10:00","64.35","7.8","0.0","DRAUGEN, NO","FM-15","4","29.88","43","45","","","","","93","OVC:08 11","","","7.00","","280","","11","","","","","","","","","","","","","","","","","","","","","","","","","","","","","","","","","","","","","","","","","","","","","","","","","","","","","","","","","","","","","","","","","","","","","","","","","","","","","","","","","","","","","","","","","","","MET051METAR ENDR 231210Z 28010KT 9999 OVC011 07/06 Q1012;","","","","","","","","","",""
"01023199999","2007-04-23T16:10:00","64.35","7.8","0.0","DRAUGEN, NO","FM-15","4","29.91","41","45","","","","","87","OVC:08 12","","","7.00","","250","","8","","","","","","","","","","","","","","","","","","","","","","","","","","","","","","","","","","","","","","","","","","","","","","","","","","","","","","","","","","","","","","","","","","","","","","","","","","","","","","","","","","","","","","","","","","","MET051METAR ENDR 231510Z 25007KT 9999 OVC012 07/05 Q1013;","","","","","","","","","",""
"01023199999","2007-04-24T10:10:00","64.35","7.8","0.0","DRAUGEN, NO","FM-16","4","29.74","45","46","","","","","93","FEW:02 15","","","","","170","","22","","","","","","","","","","","","","","","","","","","","","","","","","","","","","","","","","","","","","","","","","","","","","","","","","","","","","","","","","","","","","","","","","","","","","","","","","","","","","","","","","","","","","","","","","","","MET049METAR ENDR 240910Z 17019KT RA FEW015 08/07 Q1007;","","","","","","","","","",""
"01023199999","2007-04-24T13:10:00","64.35","7.8","0.0","DRAUGEN, NO","FM-15","4","29.77","45","50","","||DZ","","","82","SCT:04 15 OVC:08 20","","","7.00","","210","","24","","","","","","","","","","","","","","","","","","","","","","","","","","","","","","","","","","","","","","","","","","","","","","","","","","","","","","","","","","","","","","","","","","","","","","","","","","","","","","","","","","","","","","","","","","","MET062METAR ENDR 241210Z 21021KT 9999 -DZ SCT015 OVC020 10/07 Q1008;","","","","","","","","","",""
"01023199999","2007-04-24T16:10:00","64.35","7.8","0.0","DRAUGEN, NO","FM-15","4","29.74","46","48","","||RA","","","94","BKN:07 8 OVC:08 10","","","7.00","","220","","33","","","","","","","","","","","","","","","","","","","","","","","","","","","","","","","","","","","","","","","","","","","","","","","","","","","","","","","","","","","","","","","","","","","","","","","","","","","","","","","","","","","","","","","","","","","MET061METAR ENDR 241510Z 22029KT 9999 RA BKN008 OVC010 09/08 Q1007;","","","","","","","","","",""
"01023199999","2007-04-25T07:10:00","64.35","7.8","0.0","DRAUGEN, NO","FM-15","4","30.00","45","46","","","","","93","BKN:07 10","","","7.00","","240","","9","","","","","","","","","","","","","","","","","","","","","","","","","","","","","","","","","","","","","","","","","","","","","","","","","","","","","","","","","","","","","","","","","","","","","","","","","","","","","","","","","","","","","","","","","","","MET051METAR ENDR 250610Z 24008KT 9999 BKN010 08/07 Q1016;","","","","","","","","","",""
"01023199999","2007-04-25T13:10:00","64.35","7.8","0.0","DRAUGEN, NO","FM-15","4","29.97","45","46","","","","","93","SCT:04 10","","","7.00","","120","","17","","","","","","","","","","","","","","","","","","","","","","","","","","","","","","","","","","","","","","","","","","","","","","","","","","","","","","","","","","","","","","","","","","","","","","","","","","","","","","","","","","","","","","","","","","","MET051METAR ENDR 251210Z 12015KT 9999 SCT010 08/07 Q1015;","","","","","","","","","",""
"01023199999","2007-04-25T15:40:00","64.35","7.8","0.0","DRAUGEN, NO","FM-16","4","29.91","46","50","","","","","88","SCT:04 10","","","","","100","","21","","","","","","","","","","","","","","","","","","","","","","","","","","","","","","","","","","","","","","","","","","","","","","","","","","","","","","","","","","","","","","","","","","","","","","","","","","","","","","","","","","","","","","","","","","","MET046METAR ENDR 251440Z 10018KT SCT010 10/08 Q1013;","","","","","","","","","",""
"01023199999","2007-04-25T16:10:00","64.35","7.8","0.0","DRAUGEN, NO","FM-15","4","29.91","45","48","","","","","87","FEW:02 15","","","7.00","","100","","22","","","","","","","","","","","","","","","","","","","","","","","","","","","","","","","","","","","","","","","","","","","","","","","","","","","","","","","","","","","","","","","","","","","","","","","","","","","","","","","","","","","","","","","","","","","MET051METAR ENDR 251510Z 10019KT 9999 FEW015 09/07 Q1013;","","","","","","","","","",""
"01023199999","2007-04-26T07:00:00","64.35","7.8","0.0","DRAUGEN, NO","FM-15","4","29.77","45","46","","","","","93","OVC:08 10","","","5.59","","240","","44","","","","","","","","","","","","","","","","","","","","","","","","","","","","","","","","","","","","","","","","","","","","","","","","","","","","","","","","","","","","","","","","","","","","","","","","","","","","","","","","","","","","","","","","","","","MET054METAR ENDR 260600Z 24038KT 9000 BR OVC010 08/07 Q1008;","","","","","","","","","",""
"01023199999","2007-04-26T10:10:00","64.35","7.8","0.0","DRAUGEN, NO","FM-15","4","29.94","41","46","","","","","82","BKN:07 20","","","7.00","","260","","39","","","","","","","","","","","","","","","","","","","","","","","","","","","","","","","","","","","","","","","","","","","","","","","","","","","","","","","","","","","","","","","","","","","","","","","","","","","","","","","","","","","","","","","","","","","MET051METAR ENDR 260910Z 26034KT 9999 BKN020 08/05 Q1014;","","","","","","","","","",""
"01023199999","2007-04-26T13:10:00","64.35","7.8","0.0","DRAUGEN, NO","FM-15","4","30.06","41","46","","","","","82","BKN:07 17","","","7.00","","260","","31","","","","","","","","","","","","","","","","","","","","","","","","","","","","","","","","","","","","","","","","","","","","","","","","","","","","","","","","","","","","","","","","","","","","","","","","","","","","","","","","","","","","","","","","","","","MET051METAR ENDR 261210Z 26027KT 9999 BKN017 08/05 Q1018;","","","","","","","","","",""
"01023199999","2007-04-26T16:10:00","64.35","7.8","0.0","DRAUGEN, NO","FM-15","4","30.09","43","46","","","","","87","FEW:02 13","","","7.00","","240","","25","","","","","","","","","","","","","","","","","","","","","","","","","","","","","","","","","","","","","","","","","","","","","","","","","","","","","","","","","","","","","","","","","","","","","","","","","","","","","","","","","","","","","","","","","","","MET051METAR ENDR 261510Z 24022KT 9999 FEW013 08/06 Q1019;","","","","","","","","","",""
"01023199999","2007-04-27T07:10:00","64.35","7.8","0.0","DRAUGEN, NO","FM-15","4","30.15","43","45","","","","","93","SCT:04 14 BKN:07 118","","","7.00","","280","","25","","","","","","","","","","","","","","","","","","","","","","","","","","","","","","","","","","","","","","","","","","","","","","","","","","","","","","","","","","","","","","","","","","","","","","","","","","","","","","","","","","","","","","","","","","","MET063METAR ENDR 270610Z 28022KT 9999 VCSH SCT014 BKN120 07/06 Q1021;","","","","","","","","","",""
"01023199999","2007-04-27T10:10:00","64.35","7.8","0.0","DRAUGEN, NO","FM-15","4","30.24","37","45","","","","","76","BKN:07 20","","","7.00","","290","","23","","","","","","","","","","","","","","","","","","","","","","","","","","","","","","","","","","","","","","","","","","","","","","","","","","","","","","","","","","","","","","","","","","","","","","","","","","","","","","","","","","","","","","","","","","","MET051METAR ENDR 270910Z 29020KT 9999 BKN020 07/03 Q1024;","","","","","","","","","",""
"01023199999","2007-04-27T13:10:00","64.35","7.8","0.0","DRAUGEN, NO","FM-15","4","30.30","37","45","","","","","76","BKN:07 19","","","7.00","","300","","18","","","","","","","","","","","","","","","","","","","","","","","","","","","","","","","","","","","","","","","","","","","","","","","","","","","","","","","","","","","","","","","","","","","","","","","","","","","","","","","","","","","","","","","","","","","MET051METAR ENDR 271210Z 30016KT 9999 BKN019 07/03 Q1026;","","","","","","","","","",""
"01023199999","2007-04-27T16:10:00","64.35","7.8","0.0","DRAUGEN, NO","FM-15","4","30.36","37","46","","","","","71","OVC:08 22","","","7.00","","320","","16","","","","","","","","","","","","","","","","","","","","","","","","","","","","","","","","","","","","","","","","","","","","","","","","","","","","","","","","","","","","","","","","","","","","","","","","","","","","","","","","","","","","","","","","","","","MET059METAR ENDR 271510Z 32014KT 280V350 9999 OVC022 08/03 Q1028;","","","","","","","","","",""
"01023199999","2007-04-28T07:50:00","64.35","7.8","0.0","DRAUGEN, NO","FM-15","4","30.53","39","45","","","","","81","FEW:02 25 BKN:07 31","","","7.00","","000","","0","","","","","","","","","","","","","","","","","","","","","","","","","","","","","","","","","","","","","","","","","","","","","","","","","","","","","","","","","","","","","","","","","","","","","","","","","","","","","","","","","","","","","","","","","","","MET058METAR ENDR 280650Z 00000KT 9999 FEW025 BKN031 07/04 Q1034;","","","","","","","","","",""
"01023199999","2007-04-28T10:10:00","64.35","7.8","0.0","DRAUGEN, NO","FM-15","4","30.53","39","46","","","","","76","OVC:08 13","","","7.00","","000","","0","","","","","","","","","","","","","","","","","","","","","","","","","","","","","","","","","","","","","","","","","","","","","","","","","","","","","","","","","","","","","","","","","","","","","","","","","","","","","","","","","","","","","","","","","","","MET056METAR ENDR 280910Z 00000KT 9999 VCSH OVC013 08/04 Q1034;","","","","","","","","","",""
"01023199999","2007-04-28T13:20:00","64.35","7.8","0.0","DRAUGEN, NO","FM-15","4","30.53","39","46","","","","","76","OVC:08 31","","","7.00","","060","","1","","","","","","","","","","","","","","","","","","","","","","","","","","","","","","","","","","","","","","","","","","","","","","","","","","","","","","","","","","","","","","","","","","","","","","","","","","","","","","","","","","","","","","","","","","","MET056METAR ENDR 281220Z 06001KT 9999 VCSH OVC031 08/04 Q1034;","","","","","","","","","",""
"01023199999","2007-04-28T16:10:00","64.35","7.8","0.0","DRAUGEN, NO","FM-15","4","30.53","39","50","","","","","67","BKN:07 32","","","7.00","","300","","2","","","","","","","","","","","","","","","","","","","","","","","","","","","","","","","","","","","","","","","","","","","","","","","","","","","","","","","","","","","","","","","","","","","","","","","","","","","","","","","","","","","","","","","","","","","MET054METAR ENDR 281510Z 30002KT 9999 BKN032TCU 10/04 Q1034;","","","","","","","","","",""
"01023199999","2007-04-29T07:10:00","64.35","7.8","0.0","DRAUGEN, NO","FM-15","4","30.36","45","45","","||FG","","","100","OVC:08 4","","","7.00","","290","","23","","","","","","","","","","","","","","","","","","","","","","","","","","","","","","","","","","","","","","","","","","","","","","","","","","","","","","","","","","","","","","","","","","","","","","","","","","","","","","","","","","","","","","","","","","","MET056METAR ENDR 290610Z 29020KT 9999 VCFG OVC004 07/07 Q1028;","","","","","","","","","",""
"01023199999","2007-04-29T13:20:00","64.35","7.8","0.0","DRAUGEN, NO","FM-15","4","30.39","43","48","","","","","82","FEW:02 11 BKN:07 14","","","7.00","","340","","13","","","","","","","","","","","","","","","","","","","","","","","","","","","","","","","","","","","","","","","","","","","","","","","","","","","","","","","","","","","","","","","","","","","","","","","","","","","","","","","","","","","","","","","","","","","MET066METAR ENDR 291220Z 34011KT 300V360 9999 FEW011 BKN014 09/06 Q1029;","","","","","","","","","",""
"01023199999","2007-04-29T16:10:00","64.35","7.8","0.0","DRAUGEN, NO","FM-15","4","30.39","43","48","","||DZ","","","82","SCT:04 8 OVC:08 20","","","7.00","","","","","","","","","","","","","","","","","","","","","","","","","","","","","","","","","","","","","","","","","","","","","","","","","","","","","","","","","","","","","","","","","","","","","","","","","","","","","","","","","","","","","","","","","","","","","","","MET054METAR ENDR 291510Z 9999 -DZ SCT008 OVC020 09/06 Q1029;","","","","","","","","","",""
"01023199999","2007-04-30T07:10:00","64.35","7.8","0.0","DRAUGEN, NO","FM-15","4","30.30","41","43","","||DZ","","","93","OVC:08 6","","","7.00","","210","","7","","","","","","","","","","","","","","","","","","","","","","","","","","","","","","","","","","","","","","","","","","","","","","","","","","","","","","","","","","","","","","","","","","","","","","","","","","","","","","","","","","","","","","","","","","","MET058METAR ENDR 300610Z 21006KT 9999 -DZ BR OVC006 06/05 Q1026;","","","","","","","","","",""
"01023199999","2007-04-30T10:10:00","64.35","7.8","0.0","DRAUGEN, NO","FM-15","4","30.30","43","46","","||DZ","","","87","OVC:08 5","","","7.00","","320","","7","","","","","","","","","","","","","","","","","","","","","","","","","","","","","","","","","","","","","","","","","","","","","","","","","","","","","","","","","","","","","","","","","","","","","","","","","","","","","","","","","","","","","","","","","","","MET066METAR ENDR 300910Z 32006KT 270V360 9999 -DZ BR OVC005 08/06 Q1026;","","","","","","","","","",""
"01023199999","2007-04-30T13:10:00","64.35","7.8","0.0","DRAUGEN, NO","FM-15","4","30.27","43","46","","","","","87","BKN:07 11","","","7.00","","310","","11","","","","","","","","","","","","","","","","","","","","","","","","","","","","","","","","","","","","","","","","","","","","","","","","","","","","","","","","","","","","","","","","","","","","","","","","","","","","","","","","","","","","","","","","","","","MET054METAR ENDR 301210Z 31010KT 9999 BKN011TCU 08/06 Q1025;","","","","","","","","","",""
"01023199999","2007-04-30T16:10:00","64.35","7.8","0.0","DRAUGEN, NO","FM-15","4","30.24","43","45","","||DZ","","","93","BKN:07 6","","","3.73","","280","","14","","","","","","","","","","","","","","","","","","","","","","","","","","","","","","","","","","","","","","","","","","","","","","","","","","","","","","","","","","","","","","","","","","","","","","","","","","","","","","","","","","","","","","","","","","","MET058METAR ENDR 301510Z 28012KT 6000 -DZ BR BKN006 07/06 Q1024;","","","","","","","","","",""
"01023199999","2007-05-01T10:10:00","64.35","7.8","0.0","DRAUGEN, NO","FM-15","4","30.21","41","43","","||DZ","","","93","BKN:07 5 BKN:07 62","","","2.49","","310","","11","","","","","","","","","","","","","","","","","","","","","","","","","","","","","","","","","","","","","","","","","","","","","","","","","","","","","","","","","","","","","","","","","","","","","","","","","","","","","","","","","","","","","","","","","","","MET075METAR ENDR 010910Z 31010KT 280V350 4000SW -DZ BR BKN005 BKN063 06/05 Q1023;","","","","","","","","","",""
"01023199999","2007-05-01T13:10:00","64.35","7.8","0.0","DRAUGEN, NO","FM-15","4","30.21","41","43","","||DZ","","","93","BKN:07 12","","","2.49","","310","","11","","","","","","","","","","","","","","","","","","","","","","","","","","","","","","","","","","","","","","","","","","","","","","","","","","","","","","","","","","","","","","","","","","","","","","","","","","","","","","","","","","","","","","","","","","","MET059METAR ENDR 011210Z 31010KT 4000W -DZ BR BKN012 06/05 Q1023;","","","","","","","","","",""
"01023199999","2007-05-01T16:10:00","64.35","7.8","0.0","DRAUGEN, NO","FM-15","4","30.18","39","43","","","","","87","OVC:08 10","","","7.00","","310","","8","","","","","","","","","","","","","","","","","","","","","","","","","","","","","","","","","","","","","","","","","","","","","","","","","","","","","","","","","","","","","","","","","","","","","","","","","","","","","","","","","","","","","","","","","","","MET059METAR ENDR 011510Z 31007KT 290V360 9999 OVC010 06/04 Q1022;","","","","","","","","","",""
"01023199999","2007-05-02T07:10:00","64.35","7.8","0.0","DRAUGEN, NO","FM-15","4","30.18","39","43","","","","","87","OVC:08 13","","","7.00","","340","","2","","","","","","","","","","","","","","","","","","","","","","","","","","","","","","","","","","","","","","","","","","","","","","","","","","","","","","","","","","","","","","","","","","","","","","","","","","","","","","","","","","","","","","","","","","","MET051METAR ENDR 020610Z 34002KT 9999 OVC013 06/04 Q1022;","","","","","","","","","",""
"01023199999","2007-05-02T10:10:00","64.35","7.8","0.0","DRAUGEN, NO","FM-15","4","30.18","41","45","","","","","87","OVC:08 11","","","7.00","","330","","3","","","","","","","","","","","","","","","","","","","","","","","","","","","","","","","","","","","","","","","","","","","","","","","","","","","","","","","","","","","","","","","","","","","","","","","","","","","","","","","","","","","","","","","","","","","MET059METAR ENDR 020910Z 33003KT 270V040 9999 OVC011 07/05 Q1022;","","","","","","","","","",""
"01023199999","2007-05-02T13:10:00","64.35","7.8","0.0","DRAUGEN, NO","FM-15","4","30.18","39","45","","","","","81","OVC:08 15","","","7.00","","010","","1","","","","","","","","","","","","","","","","","","","","","","","","","","","","","","","","","","","","","","","","","","","","","","","","","","","","","","","","","","","","","","","","","","","","","","","","","","","","","","","","","","","","","","","","","","","MET051METAR ENDR 021210Z 01001KT 9999 OVC015 07/04 Q1022;","","","","","","","","","",""
"01023199999","2007-05-02T16:10:00","64.35","7.8","0.0","DRAUGEN, NO","FM-15","4","30.18","39","45","","","","","81","OVC:08 13","","","7.00","","350","","1","","","","","","","","","","","","","","","","","","","","","","","","","","","","","","","","","","","","","","","","","","","","","","","","","","","","","","","","","","","","","","","","","","","","","","","","","","","","","","","","","","","","","","","","","","","MET051METAR ENDR 021510Z 35001KT 9999 OVC013 07/04 Q1022;","","","","","","","","","",""
"01023199999","2007-05-03T07:10:00","64.35","7.8","0.0","DRAUGEN, NO","FM-15","4","30.06","37","41","","","","","87","OVC:08 12","","","7.00","","280","","8","","","","","","","","","","","","","","","","","","","","","","","","","","","","","","","","","","","","","","","","","","","","","","","","","","","","","","","","","","","","","","","","","","","","","","","","","","","","","","","","","","","","","","","","","","","MET059METAR ENDR 030610Z 28007KT 260V340 9999 OVC012 05/03 Q1018;","","","","","","","","","",""
"01023199999","2007-05-03T10:10:00","64.35","7.8","0.0","DRAUGEN, NO","FM-15","4","30.06","39","41","","||DZ","","","93","OVC:08 6","","","7.00","","240","","10","","","","","","","","","","","","","","","","","","","","","","","","","","","","","","","","","","","","","","","","","","","","","","","","","","","","","","","","","","","","","","","","","","","","","","","","","","","","","","","","","","","","","","","","","","","MET063METAR ENDR 030910Z 24009KT 180V260 9999 -DZ OVC006 05/04 Q1018;","","","","","","","","","",""
"01023199999","2007-05-03T13:20:00","64.35","7.8","0.0","DRAUGEN, NO","FM-15","4","30.06","41","43","","||DZ","","","93","OVC:08 10","","","7.00","","260","","14","","","","","","","","","","","","","","","","","","","","","","","","","","","","","","","","","","","","","","","","","","","","","","","","","","","","","","","","","","","","","","","","","","","","","","","","","","","","","","","","","","","","","","","","","","","MET055METAR ENDR 031220Z 26012KT 9999 -DZ OVC010 06/05 Q1018;","","","","","","","","","",""
"01023199999","2007-05-03T16:10:00","64.35","7.8","0.0","DRAUGEN, NO","FM-15","4","30.03","41","43","","||DZ","","","93","SCT:04 9 OVC:08 12","","","7.00","","280","","10","","","","","","","","","","","","","","","","","","","","","","","","","","","","","","","","","","","","","","","","","","","","","","","","","","","","","","","","","","","","","","","","","","","","","","","","","","","","","","","","","","","","","","","","","","","MET062METAR ENDR 031510Z 28009KT 9999 -DZ SCT009 OVC012 06/05 Q1017;","","","","","","","","","",""
"01023199999","2007-05-04T07:50:00","64.35","7.8","0.0","DRAUGEN, NO","FM-15","4","30.00","41","45","","||RA","","","87","BKN:07 10","","","4.35","","260","","13","","","","","","","","","","","","","","","","","","","","","","","","","","","","","","","","","","","","","","","","","","","","","","","","","","","","","","","","","","","","","","","","","","","","","","","","","","","","","","","","","","","","","","","","","","","MET058METAR ENDR 040650Z 26011KT 7000 -RA BR BKN010 07/05 Q1016;","","","","","","","","","",""
"01023199999","2007-05-04T16:10:00","64.35","7.8","0.0","DRAUGEN, NO","FM-15","4","30.00","39","46","","","","","76","FEW:02 12 BKN:07 39","","","7.00","","270","","13","","","","","","","","","","","","","","","","","","","","","","","","","","","","","","","","","","","","","","","","","","","","","","","","","","","","","","","","","","","","","","","","","","","","","","","","","","","","","","","","","","","","","","","","","","","MET063METAR ENDR 041510Z 27011KT 9999 VCSH FEW012 BKN040 08/04 Q1016;","","","","","","","","","",""
"01023199999","2007-05-05T07:10:00","64.35","7.8","0.0","DRAUGEN, NO","FM-15","4","29.94","32","43","","","","","66","BKN:07 59","","","7.00","","230","","13","","","","","","","","","","","","","","","","","","","","","","","","","","","","","","","","","","","","","","","","","","","","","","","","","","","","","","","","","","","","","","","","","","","","","","","","","","","","","","","","","","","","","","","","","","","MET051METAR ENDR 050610Z 23011KT 9999 BKN060 06/00 Q1014;","","","","","","","","","",""
"01023199999","2007-05-05T10:10:00","64.35","7.8","0.0","DRAUGEN, NO","FM-15","4","29.94","37","41","","||SHRA","","","87","BKN:07 16","","","4.35","","250","","18","","","","","","","","","","","","","","","","","","","","","","","","","","","","","","","","","","","","","","","","","","","","","","","","","","","","","","","","","","","","","","","","","","","","","","","","","","","","","","","","","","","","","","","","","","","MET064METAR ENDR 050910Z 25016KT 210V270 7000 SHRA BKN016 05/03 Q1014;","","","","","","","","","",""
"01023199999","2007-05-05T13:10:00","64.35","7.8","0.0","DRAUGEN, NO","FM-15","4","29.91","37","43","","","","","81","BKN:07 15","","","7.00","","220","","19","","","","","","","","","","","","","","","","","","","","","","","","","","","","","","","","","","","","","","","","","","","","","","","","","","","","","","","","","","","","","","","","","","","","","","","","","","","","","","","","","","","","","","","","","","","MET056METAR ENDR 051210Z 22017KT 9999 VCSH BKN015 06/03 Q1013;","","","","","","","","","",""
"01023199999","2007-05-05T16:10:00","64.35","7.8","0.0","DRAUGEN, NO","FM-15","4","29.91","34","45","","","","","66","SCT:04 15 BKN:07 39","","","7.00","","250","","19","","","","","","","","","","","","","","","","","","","","","","","","","","","","","","","","","","","","","","","","","","","","","","","","","","","","","","","","","","","","","","","","","","","","","","","","","","","","","","","","","","","","","","","","","","","MET071METAR ENDR 051510Z 25017KT 230V320 9999 VCSH SCT015 BKN040 07/01 Q1013;","","","","","","","","","",""
"01023199999","2007-05-07T16:10:00","64.35","7.8","0.0","DRAUGEN, NO","FM-15","4","29.23","45","52","","","","","77","SCT:04 8 BKN:07 79","","","7.00","","050","","14","","","","","","","","","","","","","","","","","","","","","","","","","","","","","","","","","","","","","","","","","","","","","","","","","","","","","","","","","","","","","","","","","","","","","","","","","","","","","","","","","","","","","","","","","","","MET058METAR ENDR 071510Z 05012KT 9999 SCT008 BKN080 11/07 Q0990;","","","","","","","","","",""
"01023199999","2007-05-08T10:10:00","64.35","7.8","0.0","DRAUGEN, NO","FM-15","4","29.32","34","45","","","","","66","BKN:07 29 BKN:07 59","","","7.00","","010","","19","","","","","","","","","","","","","","","","","","","","","","","","","","","","","","","","","","","","","","","","","","","","","","","","","","","","","","","","","","","","","","","","","","","","","","","","","","","","","","","","","","","","","","","","","","","MET058METAR ENDR 080910Z 01017KT 9999 BKN029 BKN060 07/01 Q0993;","","","","","","","","","",""
"01023199999","2007-05-08T13:10:00","64.35","7.8","0.0","DRAUGEN, NO","FM-15","4","29.35","34","46","","","","","62","BKN:07 25 BKN:07 59","","","7.00","","010","30","17","","","","","","","","","","","","","","","","","","","","","","","","","","","","","","","","","","","","","","","","","","","","","","","","","","","","","","","","","","","","","","","","","","","","","","","","","","","","","","","","","","","","","","","","","","","MET074METAR ENDR 081210Z 01015G26KT 320V040 9999 VCSH BKN025 BKN060 08/01 Q0994;","","","","","","","","","",""
"01023199999","2007-05-09T07:10:00","64.35","7.8","0.0","DRAUGEN, NO","FM-15","4","29.53","32","45","","","","","61","FEW:02 20 BKN:07 64","","","7.00","","340","","13","","","","","","","","","","","","","","","","","","","","","","","","","","","","","","","","","","","","","","","","","","","","","","","","","","","","","","","","","","","","","","","","","","","","","","","","","","","","","","","","","","","","","","","","","","","MET075METAR ENDR 090610Z 34011KT 310V010 9999 VCSH FEW020TCU BKN065 07/M00 Q1000;","","","","","","","","","",""
"01023199999","2007-05-09T13:10:00","64.35","7.8","0.0","DRAUGEN, NO","FM-15","4","29.56","27","41","","","","","57","FEW:02 30 SCT:04 34","","","7.00","","300","","17","","","","","","","","","","","","","","","","","","","","","","","","","","","","","","","","","","","","","","","","","","","","","","","","","","","","","","","","","","","","","","","","","","","","","","","","","","","","","","","","","","","","","","","","","","","MET075METAR ENDR 091210Z 30015KT 280V340 9999 VCSH FEW030TCU SCT035 05/M03 Q1001;","","","","","","","","","",""
"01023199999","2007-05-09T16:10:00","64.35","7.8","0.0","DRAUGEN, NO","FM-15","4","29.59","30","41","","","","","66","SCT:04 30 SCT:04 54","","","7.00","","300","","17","","","","","","","","","","","","","","","","","","","","","","","","","","","","","","","","","","","","","","","","","","","","","","","","","","","","","","","","","","","","","","","","","","","","","","","","","","","","","","","","","","","","","","","","","","","MET067METAR ENDR 091510Z 30015KT 9999 VCSH SCT030TCU SCT055 05/M01 Q1002;","","","","","","","","","",""
"01023199999","2007-05-10T07:10:00","64.35","7.8","0.0","DRAUGEN, NO","FM-15","4","29.50","32","37","","||SHRA","","","81","FEW:02 10 SCT:04 30 BKN:07 59","","","7.00","","270","","19","","","","","","","","","","","","","","","","","","","","","","","","","","","","","","","","","","","","","","","","","","","","","","","","","","","","","","","","","","","","","","","","","","","","","","","","","","","","","","","","","","","","","","","","","","","MET075METAR ENDR 100610Z 27017KT 9999 -SHRA FEW010TCU SCT030 BKN060 03/M00 Q0999;","","","","","","","","","",""
"01023199999","2007-05-10T10:10:00","64.35","7.8","0.0","DRAUGEN, NO","FM-15","4","29.50","32","37","","||RA","","","81","SCT:04 10 BKN:07 39","","","7.00","","210","","9","","","","","","","","","","","","","","","","","","","","","","","","","","","","","","","","","","","","","","","","","","","","","","","","","","","","","","","","","","","","","","","","","","","","","","","","","","","","","","","","","","","","","","","","","","","MET069METAR ENDR 100910Z 21008KT 9999 RA VCSH SCT010TCU BKN040 03/00 Q0999;","","","","","","","","","",""
"01023199999","2007-05-10T13:10:00","64.35","7.8","0.0","DRAUGEN, NO","FM-15","4","29.50","32","37","","","","","81","FEW:02 12 SCT:04 25","","","7.00","","170","","14","","","","","","","","","","","","","","","","","","","","","","","","","","","","","","","","","","","","","","","","","","","","","","","","","","","","","","","","","","","","","","","","","","","","","","","","","","","","","","","","","","","","","","","","","","","MET066METAR ENDR 101210Z 17012KT 9999 VCSH FEW012TCU SCT025 03/00 Q0999;","","","","","","","","","",""
"01023199999","2007-05-11T06:40:00","64.35","7.8","0.0","DRAUGEN, NO","FM-15","4","29.41","32","37","","","","","81","OVC:08 17","","","7.00","","130","","6","","","","","","","","","","","","","","","","","","","","","","","","","","","","","","","","","","","","","","","","","","","","","","","","","","","","","","","","","","","","","","","","","","","","","","","","","","","","","","","","","","","","","","","","","","","MET057METAR ENDR 110540Z 13005KT 9999 VCSH OVC017 03/M00 Q0996;","","","","","","","","","",""
"01023199999","2007-05-11T07:10:00","64.35","7.8","0.0","DRAUGEN, NO","FM-15","4","29.41","32","37","","","","","81","SCT:04 19 BKN:07 25","","","7.00","","280","","7","","","","","","","","","","","","","","","","","","","","","","","","","","","","","","","","","","","","","","","","","","","","","","","","","","","","","","","","","","","","","","","","","","","","","","","","","","","","","","","","","","","","","","","","","","","MET063METAR ENDR 110610Z 28006KT 9999 VCSH SCT019 BKN025 03/00 Q0996;","","","","","","","","","",""
"01023199999","2007-05-11T10:10:00","64.35","7.8","0.0","DRAUGEN, NO","FM-16","4","29.41","34","39","","","","","81","FEW:02 16 BKN:07 22","","","","","310","","7","","","","","","","","","","","","","","","","","","","","","","","","","","","","","","","","","","","","","","","","","","","","","","","","","","","","","","","","","","","","","","","","","","","","","","","","","","","","","","","","","","","","","","","","","","","MET066METAR ENDR 110910Z 31006KT 230V040 VCSH FEW016 BKN022 04/01 Q0996;","","","","","","","","","",""
"01023199999","2007-05-11T11:40:00","64.35","7.8","0.0","DRAUGEN, NO","FM-15","4","29.41","32","36","","||RA","","","87","OVC:08 13","","","7.00","","000","","0","","","","","","","","","","","","","","","","","","","","","","","","","","","","","","","","","","","","","","","","","","","","","","","","","","","","","","","","","","","","","","","","","","","","","","","","","","","","","","","","","","","","","","","","","","","MET055METAR ENDR 111040Z 00000KT 9999 -RA OVC013 02/00 Q0996;","","","","","","","","","",""
"01023199999","2007-05-11T16:10:00","64.35","7.8","0.0","DRAUGEN, NO","FM-15","4","29.44","36","45","","","","","71","FEW:02 14","","","7.00","","270","","6","","","","","","","","","","","","","","","","","","","","","","","","","","","","","","","","","","","","","","","","","","","","","","","","","","","","","","","","","","","","","","","","","","","","","","","","","","","","","","","","","","","","","","","","","","","MET059METAR ENDR 111510Z 27005KT 250V320 9999 FEW014 07/02 Q0997;","","","","","","","","","",""
"01023199999","2007-05-12T08:40:00","64.35","7.8","0.0","DRAUGEN, NO","FM-15","4","29.56","34","41","","","","","76","BKN:07 20 BKN:07 39","","","7.00","","180","","14","","","","","","","","","","","","","","","","","","","","","","","","","","","","","","","","","","","","","","","","","","","","","","","","","","","","","","","","","","","","","","","","","","","","","","","","","","","","","","","","","","","","","","","","","","","MET058METAR ENDR 120740Z 18012KT 9999 BKN020 BKN040 05/01 Q1001;","","","","","","","","","",""
"01023199999","2007-05-12T10:00:00","64.35","7.8","0.0","DRAUGEN, NO","FM-15","4","29.56","36","45","","","","","71","FEW:02 39","","","7.00","","180","","13","","","","","","","","","","","","","","","","","","","","","","","","","","","","","","","","","","","","","","","","","","","","","","","","","","","","","","","","","","","","","","","","","","","","","","","","","","","","","","","","","","","","","","","","","","","MET051METAR ENDR 120900Z 18011KT 9999 FEW040 07/02 Q1001;","","","","","","","","","",""
"01023199999","2007-05-12T13:00:00","64.35","7.8","0.0","DRAUGEN, NO","FM-15","4","29.59","34","45","","","","","66","FEW:02 30","","","7.00","","170","","7","","","","","","","","","","","","","","","","","","","","","","","","","","","","","","","","","","","","","","","","","","","","","","","","","","","","","","","","","","","","","","","","","","","","","","","","","","","","","","","","","","","","","","","","","","","MET051METAR ENDR 121200Z 17006KT 9999 FEW030 07/01 Q1002;","","","","","","","","","",""
"01023199999","2007-05-13T07:10:00","64.35","7.8","0.0","DRAUGEN, NO","FM-15","4","29.62","41","46","","","","","82","","","","6.15","","350","","2","","","","","","","","","","","","","","","","","","","","","","","","","","","","","","","","","","","","","","","","","","","","","","","","","","","","","","","","","","","","","","","","","","","","","","","","","","","","","","","","","","","","","","","","","","","MET045METAR ENDR 130610Z 35002KT CAVOK 08/05 Q1003;","","","","","","","","","",""
"01023199999","2007-05-13T13:00:00","64.35","7.8","0.0","DRAUGEN, NO","FM-15","4","29.62","43","52","","","","","72","SCT:04 13 BKN:07 59","","","7.00","","070","","3","","","","","","","","","","","","","","","","","","","","","","","","","","","","","","","","","","","","","","","","","","","","","","","","","","","","","","","","","","","","","","","","","","","","","","","","","","","","","","","","","","","","","","","","","","","MET066METAR ENDR 131200Z 07003KT 360V090 9999 SCT013 BKN060 11/06 Q1003;","","","","","","","","","",""
"01023199999","2007-05-13T16:00:00","64.35","7.8","0.0","DRAUGEN, NO","FM-15","4","29.65","41","48","","","","","76","SCT:04 16 BKN:07 39","","","7.00","","220","","7","","","","","","","","","","","","","","","","","","","","","","","","","","","","","","","","","","","","","","","","","","","","","","","","","","","","","","","","","","","","","","","","","","","","","","","","","","","","","","","","","","","","","","","","","","","MET058METAR ENDR 131500Z 22006KT 9999 SCT016 BKN040 09/05 Q1004;","","","","","","","","","",""
"01023199999","2007-05-14T07:10:00","64.35","7.8","0.0","DRAUGEN, NO","FM-15","4","29.65","34","45","","","","","66","FEW:02 30","","","7.00","","130","","6","","","","","","","","","","","","","","","","","","","","","","","","","","","","","","","","","","","","","","","","","","","","","","","","","","","","","","","","","","","","","","","","","","","","","","","","","","","","","","","","","","","","","","","","","","","MET051METAR ENDR 140610Z 13005KT 9999 FEW030 07/01 Q1004;","","","","","","","","","",""
"01023199999","2007-05-15T05:10:00","64.35","7.8","0.0","DRAUGEN, NO","FM-15","4","29.38","37","41","","||RA","","","87","BKN:07 13 OVC:08 20","","","7.00","","330","","34","","","","","","","","","","","","","","","","","","","","","","","","","","","","","","","","","","","","","","","","","","","","","","","","","","","","","","","","","","","","","","","","","","","","","","","","","","","","","","","","","","","","","","","","","","","MET061METAR ENDR 150410Z 33030KT 9999 RA BKN013 OVC020 05/03 Q0995;","","","","","","","","","",""
"01023199999","2007-05-15T05:40:00","64.35","7.8","0.0","DRAUGEN, NO","FM-15","4","29.41","37","43","","||RA","","","81","BKN:07 13 OVC:08 20","","","5.59","","330","","28","","","","","","","","","","","","","","","","","","","","","","","","","","","","","","","","","","","","","","","","","","","","","","","","","","","","","","","","","","","","","","","","","","","","","","","","","","","","","","","","","","","","","","","","","","","MET061METAR ENDR 150440Z 33024KT 9000 RA BKN013 OVC020 06/03 Q0996;","","","","","","","","","",""
"01023199999","2007-05-15T07:10:00","64.35","7.8","0.0","DRAUGEN, NO","FM-15","4","29.41","37","41","","||RA","","","87","BKN:07 11 OVC:08 16","","","5.59","","310","","32","","","","","","","","","","","","","","","","","","","","","","","","","","","","","","","","","","","","","","","","","","","","","","","","","","","","","","","","","","","","","","","","","","","","","","","","","","","","","","","","","","","","","","","","","","","MET061METAR ENDR 150610Z 31028KT 9000 RA BKN011 OVC016 05/03 Q0996;","","","","","","","","","",""
"01023199999","2007-05-15T07:40:00","64.35","7.8","0.0","DRAUGEN, NO","FM-15","4","29.41","37","41","","||RA","","","87","BKN:07 11 OVC:08 16","","","7.00","","320","","31","","","","","","","","","","","","","","","","","","","","","","","","","","","","","","","","","","","","","","","","","","","","","","","","","","","","","","","","","","","","","","","","","","","","","","","","","","","","","","","","","","","","","","","","","","","MET061METAR ENDR 150640Z 32027KT 9999 RA BKN011 OVC016 05/03 Q0996;","","","","","","","","","",""
"01023199999","2007-05-15T09:40:00","64.35","7.8","0.0","DRAUGEN, NO","FM-15","4","29.41","39","43","","||RA","","","87","OVC:08 12","","","7.00","","310","","24","","","","","","","","","","","","","","","","","","","","","","","","","","","","","","","","","","","","","","","","","","","","","","","","","","","","","","","","","","","","","","","","","","","","","","","","","","","","","","","","","","","","","","","","","","","MET054METAR ENDR 150840Z 31021KT 9999 RA OVC012 06/04 Q0996;","","","","","","","","","",""
"01023199999","2007-05-15T16:10:00","64.35","7.8","0.0","DRAUGEN, NO","FM-15","4","29.47","34","45","","","","","66","SCT:04 20 BKN:07 89","","","7.00","","310","","22","","","","","","","","","","","","","","","","","","","","","","","","","","","","","","","","","","","","","","","","","","","","","","","","","","","","","","","","","","","","","","","","","","","","","","","","","","","","","","","","","","","","","","","","","","","MET058METAR ENDR 151510Z 31019KT 9999 SCT020 BKN090 07/01 Q0998;","","","","","","","","","",""
"01023199999","2007-05-16T07:10:00","64.35","7.8","0.0","DRAUGEN, NO","FM-15","4","29.56","34","43","","","","","71","SCT:04 25","","","7.00","","300","","22","","","","","","","","","","","","","","","","","","","","","","","","","","","","","","","","","","","","","","","","","","","","","","","","","","","","","","","","","","","","","","","","","","","","","","","","","","","","","","","","","","","","","","","","","","","MET051METAR ENDR 160610Z 30019KT 9999 SCT025 06/01 Q1001;","","","","","","","","","",""
"01023199999","2007-05-16T16:00:00","64.35","7.8","0.0","DRAUGEN, NO","FM-15","4","29.68","37","46","","","","","71","SCT:04 20","","","7.00","","260","","14","","","","","","","","","","","","","","","","","","","","","","","","","","","","","","","","","","","","","","","","","","","","","","","","","","","","","","","","","","","","","","","","","","","","","","","","","","","","","","","","","","","","","","","","","","","MET051METAR ENDR 161500Z 26012KT 9999 SCT020 08/03 Q1005;","","","","","","","","","",""
"01023199999","2007-05-17T06:40:00","64.35","7.8","0.0","DRAUGEN, NO","FM-15","4","29.80","32","41","","","","","70","SCT:04 44 BKN:07 54","","","7.00","","230","","14","","","","","","","","","","","","","","","","","","","","","","","","","","","","","","","","","","","","","","","","","","","","","","","","","","","","","","","","","","","","","","","","","","","","","","","","","","","","","","","","","","","","","","","","","","","MET059METAR ENDR 170540Z 23012KT 9999 SCT045 BKN055 05/M00 Q1009;","","","","","","","","","",""
"01023199999","2007-05-17T08:40:00","64.35","7.8","0.0","DRAUGEN, NO","FM-15","4","29.83","34","43","","","","","71","SCT:04 59","","","7.00","","230","","10","","","","","","","","","","","","","","","","","","","","","","","","","","","","","","","","","","","","","","","","","","","","","","","","","","","","","","","","","","","","","","","","","","","","","","","","","","","","","","","","","","","","","","","","","","","MET059METAR ENDR 170740Z 23009KT 210V290 9999 SCT060 06/01 Q1010;","","","","","","","","","",""
"01023199999","2007-05-17T09:40:00","64.35","7.8","0.0","DRAUGEN, NO","FM-15","4","29.83","32","43","","","","","66","FEW:02 30 SCT:04 49","","","7.00","","230","","11","","","","","","","","","","","","","","","","","","","","","","","","","","","","","","","","","","","","","","","","","","","","","","","","","","","","","","","","","","","","","","","","","","","","","","","","","","","","","","","","","","","","","","","","","","","MET059METAR ENDR 170840Z 23010KT 9999 FEW030 SCT050 06/M00 Q1010;","","","","","","","","","",""
"01023199999","2007-05-17T10:10:00","64.35","7.8","0.0","DRAUGEN, NO","FM-15","4","29.83","32","41","","","","","70","SCT:04 30 BKN:07 59","","","7.00","","230","","17","","","","","","","","","","","","","","","","","","","","","","","","","","","","","","","","","","","","","","","","","","","","","","","","","","","","","","","","","","","","","","","","","","","","","","","","","","","","","","","","","","","","","","","","","","","MET058METAR ENDR 170910Z 23015KT 9999 SCT030 BKN060 05/00 Q1010;","","","","","","","","","",""
"01023199999","2007-05-17T11:40:00","64.35","7.8","0.0","DRAUGEN, NO","FM-15","4","29.83","34","43","","","","","71","SCT:04 25 BKN:07 49","","","7.00","","220","","15","","","","","","","","","","","","","","","","","","","","","","","","","","","","","","","","","","","","","","","","","","","","","","","","","","","","","","","","","","","","","","","","","","","","","","","","","","","","","","","","","","","","","","","","","","","MET058METAR ENDR 171040Z 22013KT 9999 SCT025 BKN050 06/01 Q1010;","","","","","","","","","",""
"01023199999","2007-05-17T12:10:00","64.35","7.8","0.0","DRAUGEN, NO","FM-15","4","29.83","34","43","","","","","71","BKN:07 39","","","7.00","","240","","11","","","","","","","","","","","","","","","","","","","","","","","","","","","","","","","","","","","","","","","","","","","","","","","","","","","","","","","","","","","","","","","","","","","","","","","","","","","","","","","","","","","","","","","","","","","MET051METAR ENDR 171110Z 24010KT 9999 BKN040 06/01 Q1010;","","","","","","","","","",""
"01023199999","2007-05-17T12:40:00","64.35","7.8","0.0","DRAUGEN, NO","FM-15","4","29.83","34","43","","","","","71","BKN:07 35","","","7.00","","230","","9","","","","","","","","","","","","","","","","","","","","","","","","","","","","","","","","","","","","","","","","","","","","","","","","","","","","","","","","","","","","","","","","","","","","","","","","","","","","","","","","","","","","","","","","","","","MET051METAR ENDR 171140Z 23008KT 9999 BKN036 06/01 Q1010;","","","","","","","","","",""
"01023199999","2007-05-17T13:10:00","64.35","7.8","0.0","DRAUGEN, NO","FM-15","4","29.83","34","45","","","","","66","SCT:04 25","","","7.00","","230","","10","","","","","","","","","","","","","","","","","","","","","","","","","","","","","","","","","","","","","","","","","","","","","","","","","","","","","","","","","","","","","","","","","","","","","","","","","","","","","","","","","","","","","","","","","","","MET051METAR ENDR 171210Z 23009KT 9999 SCT025 07/01 Q1010;","","","","","","","","","",""
"01023199999","2007-05-18T04:00:00","64.35","7.8","0.0","DRAUGEN, NO","FM-15","4","29.68","37","45","","","","","76","OVC:08 89","","","7.00","","110","","22","","","","","","","","","","","","","","","","","","","","","","","","","","","","","","","","","","","","","","","","","","","","","","","","","","","","","","","","","","","","","","","","","","","","","","","","","","","","","","","","","","","","","","","","","","","MET051METAR ENDR 180300Z 11019KT 9999 OVC090 07/03 Q1005;","","","","","","","","","",""
"01023199999","2007-05-18T07:10:00","64.35","7.8","0.0","DRAUGEN, NO","FM-15","4","29.59","37","45","","","","","76","FEW:02 39 BKN:07 74","","","7.00","","120","","29","","","","","","","","","","","","","","","","","","","","","","","","","","","","","","","","","","","","","","","","","","","","","","","","","","","","","","","","","","","","","","","","","","","","","","","","","","","","","","","","","","","","","","","","","","","MET058METAR ENDR 180610Z 12025KT 9999 FEW040 BKN075 07/03 Q1002;","","","","","","","","","",""
"01023199999","2007-05-18T10:40:00","64.35","7.8","0.0","DRAUGEN, NO","FM-15","4","29.53","37","45","","","","","76","BKN:07 74","","","7.00","","120","","17","","","","","","","","","","","","","","","","","","","","","","","","","","","","","","","","","","","","","","","","","","","","","","","","","","","","","","","","","","","","","","","","","","","","","","","","","","","","","","","","","","","","","","","","","","","MET051METAR ENDR 180940Z 12015KT 9999 BKN075 07/03 Q1000;","","","","","","","","","",""
"01023199999","2007-05-18T13:10:00","64.35","7.8","0.0","DRAUGEN, NO","FM-15","4","29.47","39","46","","","","","76","BKN:07 44","","","7.00","","150","","15","","","","","","","","","","","","","","","","","","","","","","","","","","","","","","","","","","","","","","","","","","","","","","","","","","","","","","","","","","","","","","","","","","","","","","","","","","","","","","","","","","","","","","","","","","","MET051METAR ENDR 181210Z 15013KT 9999 BKN045 08/04 Q0998;","","","","","","","","","",""
"01023199999","2007-05-18T16:20:00","64.35","7.8","0.0","DRAUGEN, NO","FM-15","4","29.38","36","50","","","","","58","BKN:07 58 BKN:07 89","","","7.00","","140","","18","","","","","","","","","","","","","","","","","","","","","","","","","","","","","","","","","","","","","","","","","","","","","","","","","","","","","","","","","","","","","","","","","","","","","","","","","","","","","","","","","","","","","","","","","","","MET058METAR ENDR 181520Z 14016KT 9999 BKN059 BKN090 10/02 Q0995;","","","","","","","","","",""
"01023199999","2007-05-19T07:10:00","64.35","7.8","0.0","DRAUGEN, NO","FM-15","4","29.26","45","46","","","","","93","","","","6.15","","230","","9","","","","","","","","","","","","","","","","","","","","","","","","","","","","","","","","","","","","","","","","","","","","","","","","","","","","","","","","","","","","","","","","","","","","","","","","","","","","","","","","","","","","","","","","","","","MET045METAR ENDR 190610Z 23008KT CAVOK 08/07 Q0991;","","","","","","","","","",""
"01023199999","2007-05-19T10:10:00","64.35","7.8","0.0","DRAUGEN, NO","FM-15","4","29.26","45","48","","","","","87","FEW:02 30 SCT:04 69","","","7.00","","130","","16","","","","","","","","","","","","","","","","","","","","","","","","","","","","","","","","","","","","","","","","","","","","","","","","","","","","","","","","","","","","","","","","","","","","","","","","","","","","","","","","","","","","","","","","","","","MET065METAR ENDR 190910Z 13014KT 9999 VCSH FEW030CB SCT070 09/07 Q0991;","","","","","","","","","",""
"01023199999","2007-05-19T13:10:00","64.35","7.8","0.0","DRAUGEN, NO","FM-15","4","29.26","43","46","","","","","87","OVC:08 49","","","7.00","","160","","15","","","","","","","","","","","","","","","","","","","","","","","","","","","","","","","","","","","","","","","","","","","","","","","","","","","","","","","","","","","","","","","","","","","","","","","","","","","","","","","","","","","","","","","","","","","MET051METAR ENDR 191210Z 16013KT 9999 OVC050 08/06 Q0991;","","","","","","","","","",""
"01023199999","2007-05-20T07:10:00","64.35","7.8","0.0","DRAUGEN, NO","FM-15","4","29.32","45","46","","","","","93","OVC:08 12","","","3.11","","210","","51","","","","","","","","","","","","","","","","","","","","","","","","","","","","","","","","","","","","","","","","","","","","","","","","","","","","","","","","","","","","","","","","","","","","","","","","","","","","","","","","","","","","","","","","","","","MET057METAR ENDR 200610Z 21044KT 5000S VCSH OVC012 08/07 Q0993;","","","","","","","","","",""
"01023199999","2007-05-20T10:20:00","64.35","7.8","0.0","DRAUGEN, NO","FM-15","4","29.44","45","48","","","","","87","OVC:08 14","","","7.00","","230","","39","","","","","","","","","","","","","","","","","","","","","","","","","","","","","","","","","","","","","","","","","","","","","","","","","","","","","","","","","","","","","","","","","","","","","","","","","","","","","","","","","","","","","","","","","","","MET051METAR ENDR 200920Z 23034KT 9999 OVC014 09/07 Q0997;","","","","","","","","","",""
"01023199999","2007-05-20T13:10:00","64.35","7.8","0.0","DRAUGEN, NO","FM-15","4","29.62","45","48","","","","","87","SCT:04 13 BKN:07 34","","","4.35","","230","","32","","","","","","","","","","","","","","","","","","","","","","","","","","","","","","","","","","","","","","","","","","","","","","","","","","","","","","","","","","","","","","","","","","","","","","","","","","","","","","","","","","","","","","","","","","","MET058METAR ENDR 201210Z 23028KT 7000 SCT013 BKN035 09/07 Q1003;","","","","","","","","","",""
"01023199999","2007-05-20T16:10:00","64.35","7.8","0.0","DRAUGEN, NO","FM-15","4","29.68","45","46","","||RA","","","93","OVC:08 11","","","3.11","","220","","37","","","","","","","","","","","","","","","","","","","","","","","","","","","","","","","","","","","","","","","","","","","","","","","","","","","","","","","","","","","","","","","","","","","","","","","","","","","","","","","","","","","","","","","","","","","MET055METAR ENDR 201510Z 22032KT 5000 -RA OVC011 08/07 Q1005;","","","","","","","","","",""
"01023199999","2007-05-21T07:10:00","64.35","7.8","0.0","DRAUGEN, NO","FM-15","4","29.97","37","46","","","","","71","BKN:07 30","","","7.00","","250","","18","","","","","","","","","","","","","","","","","","","","","","","","","","","","","","","","","","","","","","","","","","","","","","","","","","","","","","","","","","","","","","","","","","","","","","","","","","","","","","","","","","","","","","","","","","","MET051METAR ENDR 210610Z 25016KT 9999 BKN030 08/03 Q1015;","","","","","","","","","",""
"01023199999","2007-05-21T10:10:00","64.35","7.8","0.0","DRAUGEN, NO","FM-15","4","30.00","39","46","","","","","76","","","","6.15","","210","","16","","","","","","","","","","","","","","","","","","","","","","","","","","","","","","","","","","","","","","","","","","","","","","","","","","","","","","","","","","","","","","","","","","","","","","","","","","","","","","","","","","","","","","","","","","","MET045METAR ENDR 210910Z 21014KT CAVOK 08/04 Q1016;","","","","","","","","","",""
"01023199999","2007-05-21T13:10:00","64.35","7.8","0.0","DRAUGEN, NO","FM-15","4","30.00","45","48","","","","","87","BKN:07 13","","","7.00","","220","","22","","","","","","","","","","","","","","","","","","","","","","","","","","","","","","","","","","","","","","","","","","","","","","","","","","","","","","","","","","","","","","","","","","","","","","","","","","","","","","","","","","","","","","","","","","","MET051METAR ENDR 211210Z 22019KT 9999 BKN013 09/07 Q1016;","","","","","","","","","",""
"01023199999","2007-05-21T16:10:00","64.35","7.8","0.0","DRAUGEN, NO","FM-15","4","30.00","45","48","","","","","87","BKN:07 76","","","7.00","","240","","21","","","","","","","","","","","","","","","","","","","","","","","","","","","","","","","","","","","","","","","","","","","","","","","","","","","","","","","","","","","","","","","","","","","","","","","","","","","","","","","","","","","","","","","","","","","MET051METAR ENDR 211510Z 24018KT 9999 BKN077 09/07 Q1016;","","","","","","","","","",""
"01023199999","2007-05-22T07:10:00","64.35","7.8","0.0","DRAUGEN, NO","FM-15","4","29.71","43","48","","","","","82","","","","6.15","","160","","18","","","","","","","","","","","","","","","","","","","","","","","","","","","","","","","","","","","","","","","","","","","","","","","","","","","","","","","","","","","","","","","","","","","","","","","","","","","","","","","","","","","","","","","","","","","MET045METAR ENDR 220610Z 16016KT CAVOK 09/06 Q1006;","","","","","","","","","",""
"01023199999","2007-05-22T10:10:00","64.35","7.8","0.0","DRAUGEN, NO","FM-15","4","29.65","41","48","","","","","76","","","","6.15","","160","","22","","","","","","","","","","","","","","","","","","","","","","","","","","","","","","","","","","","","","","","","","","","","","","","","","","","","","","","","","","","","","","","","","","","","","","","","","","","","","","","","","","","","","","","","","","","MET045METAR ENDR 220910Z 16019KT CAVOK 09/05 Q1004;","","","","","","","","","",""
"01023199999","2007-05-22T13:10:00","64.35","7.8","0.0","DRAUGEN, NO","FM-15","4","29.62","39","45","","","","","81","FEW:02 11 OVC:08 79","","","7.00","","230","","48","","","","","","","","","","","","","","","","","","","","","","","","","","","","","","","","","","","","","","","","","","","","","","","","","","","","","","","","","","","","","","","","","","","","","","","","","","","","","","","","","","","","","","","","","","","MET058METAR ENDR 221210Z 23042KT 9999 FEW011 OVC080 07/04 Q1003;","","","","","","","","","",""
"01023199999","2007-05-22T16:10:00","64.35","7.8","0.0","DRAUGEN, NO","FM-15","4","29.68","41","46","","","","","82","BKN:07 19","","","7.00","","220","","33","","","","","","","","","","","","","","","","","","","","","","","","","","","","","","","","","","","","","","","","","","","","","","","","","","","","","","","","","","","","","","","","","","","","","","","","","","","","","","","","","","","","","","","","","","","MET058METAR ENDR 221510Z 22029KT 9999 VCSH BKN019CB 08/05 Q1005;","","","","","","","","","",""
"01023199999","2007-05-23T07:10:00","64.35","7.8","0.0","DRAUGEN, NO","FM-15","4","29.68","36","46","","","","","66","SCT:04 32","","","7.00","","250","","32","","","","","","","","","","","","","","","","","","","","","","","","","","","","","","","","","","","","","","","","","","","","","","","","","","","","","","","","","","","","","","","","","","","","","","","","","","","","","","","","","","","","","","","","","","","MET058METAR ENDR 230610Z 25028KT 9999 VCSH SCT033CB 08/02 Q1005;","","","","","","","","","",""
"01023199999","2007-05-23T13:10:00","64.35","7.8","0.0","DRAUGEN, NO","FM-15","4","29.77","37","46","","","","","71","SCT:04 22 BKN:07 96","","","7.00","","260","","22","","","","","","","","","","","","","","","","","","","","","","","","","","","","","","","","","","","","","","","","","","","","","","","","","","","","","","","","","","","","","","","","","","","","","","","","","","","","","","","","","","","","","","","","","","","MET066METAR ENDR 231210Z 26019KT 9999 VCSH SCT022TCU BKN098 08/03 Q1008;","","","","","","","","","",""
"01023199999","2007-05-24T07:10:00","64.35","7.8","0.0","DRAUGEN, NO","FM-15","4","29.53","39","43","","||RA","","","87","OVC:08 20","","","7.00","","260","","23","","","","","","","","","","","","","","","","","","","","","","","","","","","","","","","","","","","","","","","","","","","","","","","","","","","","","","","","","","","","","","","","","","","","","","","","","","","","","","","","","","","","","","","","","","","MET055METAR ENDR 240610Z 26020KT 9999 -RA OVC020 06/04 Q1000;","","","","","","","","","",""
"01023199999","2007-05-24T08:40:00","64.35","7.8","0.0","DRAUGEN, NO","FM-15","4","29.56","39","43","","","","","87","BKN:07 16","","","7.00","","270","","23","","","","","","","","","","","","","","","","","","","","","","","","","","","","","","","","","","","","","","","","","","","","","","","","","","","","","","","","","","","","","","","","","","","","","","","","","","","","","","","","","","","","","","","","","","","MET056METAR ENDR 240740Z 27020KT 9999 VCSH BKN016 06/04 Q1001;","","","","","","","","","",""
"01023199999","2007-05-24T10:10:00","64.35","7.8","0.0","DRAUGEN, NO","FM-15","4","29.56","37","46","","","","","71","FEW:02 21 SCT:04 39","","","7.00","","260","","33","","","","","","","","","","","","","","","","","","","","","","","","","","","","","","","","","","","","","","","","","","","","","","","","","","","","","","","","","","","","","","","","","","","","","","","","","","","","","","","","","","","","","","","","","","","MET065METAR ENDR 240910Z 26029KT 9999 VCSH FEW021 SCT040CB 08/03 Q1001;","","","","","","","","","",""
"01023199999","2007-05-24T16:10:00","64.35","7.8","0.0","DRAUGEN, NO","FM-15","4","29.59","39","46","","","","","76","FEW:02 25 SCT:04 118","","","7.00","","230","","22","","","","","","","","","","","","","","","","","","","","","","","","","","","","","","","","","","","","","","","","","","","","","","","","","","","","","","","","","","","","","","","","","","","","","","","","","","","","","","","","","","","","","","","","","","","MET063METAR ENDR 241510Z 23019KT 9999 VCSH FEW025 SCT120 08/04 Q1002;","","","","","","","","","",""
"01023199999","2007-05-25T07:10:00","64.35","7.8","0.0","DRAUGEN, NO","FM-15","4","29.44","41","45","","","","","87","FEW:02 35 BKN:07 72","","","7.00","","150","","24","","","","","","","","","","","","","","","","","","","","","","","","","","","","","","","","","","","","","","","","","","","","","","","","","","","","","","","","","","","","","","","","","","","","","","","","","","","","","","","","","","","","","","","","","","","MET058METAR ENDR 250610Z 15021KT 9999 FEW036 BKN073 07/05 Q0997;","","","","","","","","","",""
"01023199999","2007-05-25T10:10:00","64.35","7.8","0.0","DRAUGEN, NO","FM-15","4","29.44","39","43","","","","","87","FEW:02 12 BKN:07 29","","","3.11","","240","","19","","","","","","","","","","","","","","","","","","","","","","","","","","","","","","","","","","","","","","","","","","","","","","","","","","","","","","","","","","","","","","","","","","","","","","","","","","","","","","","","","","","","","","","","","","","MET066METAR ENDR 250910Z 24017KT 5000N VCSH FEW012 BKN029CB 06/04 Q0997;","","","","","","","","","",""
"01023199999","2007-05-25T13:10:00","64.35","7.8","0.0","DRAUGEN, NO","FM-15","4","29.44","37","46","","","","","71","SCT:04 12 SCT:04 118","","","7.00","","230","","31","","","","","","","","","","","","","","","","","","","","","","","","","","","","","","","","","","","","","","","","","","","","","","","","","","","","","","","","","","","","","","","","","","","","","","","","","","","","","","","","","","","","","","","","","","","MET065METAR ENDR 251210Z 23027KT 9999 VCSH SCT012CB SCT120 08/03 Q0997;","","","","","","","","","",""
"01023199999","2007-05-25T16:10:00","64.35","7.8","0.0","DRAUGEN, NO","FM-15","4","29.47","37","46","","","","","71","FEW:02 26 SCT:04 118","","","7.00","","240","","24","","","","","","","","","","","","","","","","","","","","","","","","","","","","","","","","","","","","","","","","","","","","","","","","","","","","","","","","","","","","","","","","","","","","","","","","","","","","","","","","","","","","","","","","","","","MET066METAR ENDR 251510Z 24021KT 9999 VCSH FEW026TCU SCT120 08/03 Q0998;","","","","","","","","","",""
"01023199999","2007-05-26T07:10:00","64.35","7.8","0.0","DRAUGEN, NO","FM-15","4","29.41","37","41","","||RA","","","87","BKN:07 19","","","4.35","","230","","38","","","","","","","","","","","","","","","","","","","","","","","","","","","","","","","","","","","","","","","","","","","","","","","","","","","","","","","","","","","","","","","","","","","","","","","","","","","","","","","","","","","","","","","","","","","MET055METAR ENDR 260610Z 23033KT 7000 +RA BKN019 05/03 Q0996;","","","","","","","","","",""
"01023199999","2007-05-26T10:10:00","64.35","7.8","0.0","DRAUGEN, NO","FM-15","4","29.44","39","43","","||RA","","","87","BKN:07 15","","","7.00","","240","","24","","","","","","","","","","","","","","","","","","","","","","","","","","","","","","","","","","","","","","","","","","","","","","","","","","","","","","","","","","","","","","","","","","","","","","","","","","","","","","","","","","","","","","","","","","","MET060METAR ENDR 260910Z 24021KT 9999 -RA VCSH BKN015 06/04 Q0997;","","","","","","","","","",""
"01023199999","2007-05-26T13:10:00","64.35","7.8","0.0","DRAUGEN, NO","FM-15","4","29.44","39","45","","","","","81","FEW:02 15 BKN:07 113","","","7.00","","220","","24","","","","","","","","","","","","","","","","","","","","","","","","","","","","","","","","","","","","","","","","","","","","","","","","","","","","","","","","","","","","","","","","","","","","","","","","","","","","","","","","","","","","","","","","","","","MET058METAR ENDR 261210Z 22021KT 9999 FEW015 BKN115 07/04 Q0997;","","","","","","","","","",""
"01023199999","2007-05-26T16:10:00","64.35","7.8","0.0","DRAUGEN, NO","FM-15","4","29.47","37","45","","","","","76","FEW:02 79 SCT:04 159","","","7.00","","230","","24","","","","","","","","","","","","","","","","","","","","","","","","","","","","","","","","","","","","","","","","","","","","","","","","","","","","","","","","","","","","","","","","","","","","","","","","","","","","","","","","","","","","","","","","","","","MET066METAR ENDR 261510Z 23021KT 9999 VCSH FEW080TCU SCT162 07/03 Q0998;","","","","","","","","","",""
"01023199999","2007-05-27T07:10:00","64.35","7.8","0.0","DRAUGEN, NO","FM-15","4","29.65","37","45","","","","","76","FEW:02 23 SCT:04 38","","","7.00","","240","","25","","","","","","","","","","","","","","","","","","","","","","","","","","","","","","","","","","","","","","","","","","","","","","","","","","","","","","","","","","","","","","","","","","","","","","","","","","","","","","","","","","","","","","","","","","","MET066METAR ENDR 270610Z 24022KT 9999 VCSH FEW023TCU SCT039 07/03 Q1004;","","","","","","","","","",""
"01023199999","2007-05-27T10:10:00","64.35","7.8","0.0","DRAUGEN, NO","FM-15","4","29.74","37","46","","","","","71","SCT:04 23","","","7.00","","270","","11","","","","","","","","","","","","","","","","","","","","","","","","","","","","","","","","","","","","","","","","","","","","","","","","","","","","","","","","","","","","","","","","","","","","","","","","","","","","","","","","","","","","","","","","","","","MET059METAR ENDR 270910Z 27010KT 9999 VCSH SCT023TCU 08/03 Q1007;","","","","","","","","","",""
"01023199999","2007-05-27T13:10:00","64.35","7.8","0.0","DRAUGEN, NO","FM-15","4","29.80","37","46","","","","","71","SCT:04 20","","","7.00","","250","","16","","","","","","","","","","","","","","","","","","","","","","","","","","","","","","","","","","","","","","","","","","","","","","","","","","","","","","","","","","","","","","","","","","","","","","","","","","","","","","","","","","","","","","","","","","","MET054METAR ENDR 271210Z 25014KT 9999 SCT020TCU 08/03 Q1009;","","","","","","","","","",""
"01023199999","2007-05-27T16:10:00","64.35","7.8","0.0","DRAUGEN, NO","FM-15","4","29.85","37","50","","","","","62","FEW:02 20","","","7.00","","270","","15","","","","","","","","","","","","","","","","","","","","","","","","","","","","","","","","","","","","","","","","","","","","","","","","","","","","","","","","","","","","","","","","","","","","","","","","","","","","","","","","","","","","","","","","","","","MET051METAR ENDR 271510Z 27013KT 9999 FEW020 10/03 Q1011;","","","","","","","","","",""
"01023199999","2007-05-28T07:10:00","64.35","7.8","0.0","DRAUGEN, NO","FM-15","4","29.97","39","48","","","","","71","FEW:02 17 SCT:04 98","","","7.00","","060","","18","","","","","","","","","","","","","","","","","","","","","","","","","","","","","","","","","","","","","","","","","","","","","","","","","","","","","","","","","","","","","","","","","","","","","","","","","","","","","","","","","","","","","","","","","","","MET058METAR ENDR 280610Z 06016KT 9999 FEW017 SCT100 09/04 Q1015;","","","","","","","","","",""
"01023199999","2007-05-28T10:10:00","64.35","7.8","0.0","DRAUGEN, NO","FM-15","4","29.97","41","48","","","","","76","FEW:02 20 SCT:04 118","","","7.00","","060","","29","","","","","","","","","","","","","","","","","","","","","","","","","","","","","","","","","","","","","","","","","","","","","","","","","","","","","","","","","","","","","","","","","","","","","","","","","","","","","","","","","","","","","","","","","","","MET058METAR ENDR 280910Z 06025KT 9999 FEW020 SCT120 09/05 Q1015;","","","","","","","","","",""
"01023199999","2007-05-28T13:20:00","64.35","7.8","0.0","DRAUGEN, NO","FM-15","4","29.97","39","48","","","","","71","FEW:02 20 SCT:04 118","","","7.00","","050","","38","","","","","","","","","","","","","","","","","","","","","","","","","","","","","","","","","","","","","","","","","","","","","","","","","","","","","","","","","","","","","","","","","","","","","","","","","","","","","","","","","","","","","","","","","","","MET058METAR ENDR 281220Z 05033KT 9999 FEW020 SCT120 09/04 Q1015;","","","","","","","","","",""
"01023199999","2007-05-28T17:10:00","64.35","7.8","0.0","DRAUGEN, NO","FM-15","4","29.94","41","48","","","","","76","","","","6.15","","050","","41","","","","","","","","","","","","","","","","","","","","","","","","","","","","","","","","","","","","","","","","","","","","","","","","","","","","","","","","","","","","","","","","","","","","","","","","","","","","","","","","","","","","","","","","","","","MET045METAR ENDR 281610Z 05036KT CAVOK 09/05 Q1014;","","","","","","","","","",""
"01023199999","2007-05-29T07:10:00","64.35","7.8","0.0","DRAUGEN, NO","FM-15","4","29.91","43","50","","","","","76","SCT:04 94 BKN:07 139","","","7.00","","060","","34","","","","","","","","","","","","","","","","","","","","","","","","","","","","","","","","","","","","","","","","","","","","","","","","","","","","","","","","","","","","","","","","","","","","","","","","","","","","","","","","","","","","","","","","","","","MET058METAR ENDR 290610Z 06030KT 9999 SCT095 BKN141 10/06 Q1013;","","","","","","","","","",""
"01023199999","2007-05-29T10:10:00","64.35","7.8","0.0","DRAUGEN, NO","FM-15","4","29.91","41","54","","","","","63","OVC:08 88","","","7.00","","070","","32","","","","","","","","","","","","","","","","","","","","","","","","","","","","","","","","","","","","","","","","","","","","","","","","","","","","","","","","","","","","","","","","","","","","","","","","","","","","","","","","","","","","","","","","","","","MET051METAR ENDR 290910Z 07028KT 9999 OVC089 12/05 Q1013;","","","","","","","","","",""
"01023199999","2007-05-29T13:10:00","64.35","7.8","0.0","DRAUGEN, NO","FM-15","4","29.91","43","54","","","","","67","FEW:02 56 BKN:07 94","","","7.00","","060","","37","","","","","","","","","","","","","","","","","","","","","","","","","","","","","","","","","","","","","","","","","","","","","","","","","","","","","","","","","","","","","","","","","","","","","","","","","","","","","","","","","","","","","","","","","","","MET058METAR ENDR 291210Z 06032KT 9999 FEW057 BKN096 12/06 Q1013;","","","","","","","","","",""
"01023199999","2007-05-29T16:20:00","64.35","7.8","0.0","DRAUGEN, NO","FM-15","4","29.88","43","54","","","","","67","","","","6.15","","060","","39","","","","","","","","","","","","","","","","","","","","","","","","","","","","","","","","","","","","","","","","","","","","","","","","","","","","","","","","","","","","","","","","","","","","","","","","","","","","","","","","","","","","","","","","","","","MET045METAR ENDR 291520Z 06034KT CAVOK 12/06 Q1012;","","","","","","","","","",""
"01023199999","2007-05-30T07:10:00","64.35","7.8","0.0","DRAUGEN, NO","FM-15","4","29.83","43","54","","","","","67","","","","6.15","","070","","37","","","","","","","","","","","","","","","","","","","","","","","","","","","","","","","","","","","","","","","","","","","","","","","","","","","","","","","","","","","","","","","","","","","","","","","","","","","","","","","","","","","","","","","","","","","MET045METAR ENDR 300610Z 07032KT CAVOK 12/06 Q1010;","","","","","","","","","",""
"01023199999","2007-05-30T10:10:00","64.35","7.8","0.0","DRAUGEN, NO","FM-15","4","29.83","45","54","","","","","72","","","","6.15","","050","","38","","","","","","","","","","","","","","","","","","","","","","","","","","","","","","","","","","","","","","","","","","","","","","","","","","","","","","","","","","","","","","","","","","","","","","","","","","","","","","","","","","","","","","","","","","","MET045METAR ENDR 300910Z 05033KT CAVOK 12/07 Q1010;","","","","","","","","","",""
"01023199999","2007-05-30T13:10:00","64.35","7.8","0.0","DRAUGEN, NO","FM-15","4","29.83","45","54","","","","","72","","","","6.15","","040","","40","","","","","","","","","","","","","","","","","","","","","","","","","","","","","","","","","","","","","","","","","","","","","","","","","","","","","","","","","","","","","","","","","","","","","","","","","","","","","","","","","","","","","","","","","","","MET045METAR ENDR 301210Z 04035KT CAVOK 12/07 Q1010;","","","","","","","","","",""
"01023199999","2007-05-30T16:10:00","64.35","7.8","0.0","DRAUGEN, NO","FM-15","4","29.83","45","52","","","","","77","","","","6.15","","040","","44","","","","","","","","","","","","","","","","","","","","","","","","","","","","","","","","","","","","","","","","","","","","","","","","","","","","","","","","","","","","","","","","","","","","","","","","","","","","","","","","","","","","","","","","","","","MET045METAR ENDR 301510Z 04038KT CAVOK 11/07 Q1010;","","","","","","","","","",""
"01023199999","2007-05-31T07:10:00","64.35","7.8","0.0","DRAUGEN, NO","FM-15","4","30.00","43","48","","||HZ","","","82","BKN:07 138","","","5.59","","060","","33","","","","","","","","","","","","","","","","","","","","","","","","","","","","","","","","","","","","","","","","","","","","","","","","","","","","","","","","","","","","","","","","","","","","","","","","","","","","","","","","","","","","","","","","","","","MET054METAR ENDR 310610Z 06029KT 9000 HZ BKN140 09/06 Q1016;","","","","","","","","","",""
"01023199999","2007-05-31T10:10:00","64.35","7.8","0.0","DRAUGEN, NO","FM-15","4","30.06","46","52","","||HZ","","","82","OVC:08 187","","","4.97","","070","","24","","","","","","","","","","","","","","","","","","","","","","","","","","","","","","","","","","","","","","","","","","","","","","","","","","","","","","","","","","","","","","","","","","","","","","","","","","","","","","","","","","","","","","","","","","","MET054METAR ENDR 310910Z 07021KT 8000 HZ OVC190 11/08 Q1018;","","","","","","","","","",""
"01023199999","2007-05-31T13:10:00","64.35","7.8","0.0","DRAUGEN, NO","FM-15","4","30.09","48","54","","||HZ","","","82","BKN:07 197","","","4.97","","070","","16","","","","","","","","","","","","","","","","","","","","","","","","","","","","","","","","","","","","","","","","","","","","","","","","","","","","","","","","","","","","","","","","","","","","","","","","","","","","","","","","","","","","","","","","","","","MET054METAR ENDR 311210Z 07014KT 8000 HZ BKN200 12/09 Q1019;","","","","","","","","","",""
"01023199999","2007-05-31T16:10:00","64.35","7.8","0.0","DRAUGEN, NO","FM-15","4","30.09","46","54","","||HZ","","","77","OVC:08 197","","","7.00","","080","","28","","","","","","","","","","","","","","","","","","","","","","","","","","","","","","","","","","","","","","","","","","","","","","","","","","","","","","","","","","","","","","","","","","","","","","","","","","","","","","","","","","","","","","","","","","","MET054METAR ENDR 311510Z 08024KT 9999 HZ OVC200 12/08 Q1019;","","","","","","","","","",""
"01023199999","2007-06-01T07:10:00","64.35","7.8","0.0","DRAUGEN, NO","FM-15","4","30.27","39","54","","","","","58","","","","6.15","","120","","41","","","","","","","","","","","","","","","","","","","","","","","","","","","","","","","","","","","","","","","","","","","","","","","","","","","","","","","","","","","","","","","","","","","","","","","","","","","","","","","","","","","","","","","","","","","MET045METAR ENDR 010610Z 12036KT CAVOK 12/04 Q1025;","","","","","","","","","",""
"01023199999","2007-06-01T16:10:00","64.35","7.8","0.0","DRAUGEN, NO","FM-15","4","30.30","36","61","","","","","39","","","","6.15","","100","","34","","","","","","","","","","","","","","","","","","","","","","","","","","","","","","","","","","","","","","","","","","","","","","","","","","","","","","","","","","","","","","","","","","","","","","","","","","","","","","","","","","","","","","","","","","","MET045METAR ENDR 011510Z 10030KT CAVOK 16/02 Q1026;","","","","","","","","","",""
"01023199999","2007-06-02T07:10:00","64.35","7.8","0.0","DRAUGEN, NO","FM-15","4","30.45","48","59","","","","","68","","","","6.15","","270","","6","","","","","","","","","","","","","","","","","","","","","","","","","","","","","","","","","","","","","","","","","","","","","","","","","","","","","","","","","","","","","","","","","","","","","","","","","","","","","","","","","","","","","","","","","","","MET045METAR ENDR 020610Z 27005KT CAVOK 15/09 Q1031;","","","","","","","","","",""
"01023199999","2007-06-02T10:10:00","64.35","7.8","0.0","DRAUGEN, NO","FM-15","4","30.45","52","55","","","","","88","","","","6.15","","220","","3","","","","","","","","","","","","","","","","","","","","","","","","","","","","","","","","","","","","","","","","","","","","","","","","","","","","","","","","","","","","","","","","","","","","","","","","","","","","","","","","","","","","","","","","","","","MET045METAR ENDR 020910Z 22003KT CAVOK 13/11 Q1031;","","","","","","","","","",""
"01023199999","2007-06-02T13:10:00","64.35","7.8","0.0","DRAUGEN, NO","FM-15","4","30.47","52","55","","","","","88","","","","6.15","","280","","5","","","","","","","","","","","","","","","","","","","","","","","","","","","","","","","","","","","","","","","","","","","","","","","","","","","","","","","","","","","","","","","","","","","","","","","","","","","","","","","","","","","","","","","","","","","MET045METAR ENDR 021210Z 28004KT CAVOK 13/11 Q1032;","","","","","","","","","",""
"01023199999","2007-06-02T16:10:00","64.35","7.8","0.0","DRAUGEN, NO","FM-15","4","30.42","52","61","","","","","72","","","","6.15","","020","","8","","","","","","","","","","","","","","","","","","","","","","","","","","","","","","","","","","","","","","","","","","","","","","","","","","","","","","","","","","","","","","","","","","","","","","","","","","","","","","","","","","","","","","","","","","","MET045METAR ENDR 021510Z 02007KT CAVOK 16/11 Q1030;","","","","","","","","","",""
"01023199999","2007-06-03T07:10:00","64.35","7.8","0.0","DRAUGEN, NO","FM-16","4","30.42","48","57","","","","","72","BKN:07 69","","","","","090","","12","","","","","","","","","","","","","","","","","","","","","","","","","","","","","","","","","","","","","","","","","","","","","","","","","","","","","","","","","","","","","","","","","","","","","","","","","","","","","","","","","","","","","","","","","","","MET046METAR ENDR 030610Z 09010KT BKN070 14/09 Q1030;","","","","","","","","","",""
"01023199999","2007-06-03T13:10:00","64.35","7.8","0.0","DRAUGEN, NO","FM-15","4","30.42","43","61","","","","","52","FEW:02 64","","","7.00","","","","","","","","","","","","","","","","","","","","","","","","","","","","","","","","","","","","","","","","","","","","","","","","","","","","","","","","","","","","","","","","","","","","","","","","","","","","","","","","","","","","","","","","","","","","","","","MET043METAR ENDR 031210Z 9999 FEW065 16/06 Q1030;","","","","","","","","","",""
"01023199999","2007-06-03T16:10:00","64.35","7.8","0.0","DRAUGEN, NO","FM-15","4","30.42","37","64","","","","","37","","","","","","","","","","","","","","","","","","","","","","","","","","","","","","","","","","","","","","","","","","","","","","","","","","","","","","","","","","","","","","","","","","","","","","","","","","","","","","","","","","","","","","","","","","","","","","","","","","","MET037METAR ENDR 031510Z CAVOK 18/03 Q1030;","","","","","","","","","",""
"01023199999","2007-06-04T07:10:00","64.35","7.8","0.0","DRAUGEN, NO","FM-15","4","30.42","48","55","","","","","77","","","","6.15","","050","","19","","","","","","","","","","","","","","","","","","","","","","","","","","","","","","","","","","","","","","","","","","","","","","","","","","","","","","","","","","","","","","","","","","","","","","","","","","","","","","","","","","","","","","","","","","","MET045METAR ENDR 040610Z 05017KT CAVOK 13/09 Q1030;","","","","","","","","","",""
"01023199999","2007-06-04T10:10:00","64.35","7.8","0.0","DRAUGEN, NO","FM-15","4","30.45","48","61","","","","","63","","","","6.15","","030","","13","","","","","","","","","","","","","","","","","","","","","","","","","","","","","","","","","","","","","","","","","","","","","","","","","","","","","","","","","","","","","","","","","","","","","","","","","","","","","","","","","","","","","","","","","","","MET045METAR ENDR 040910Z 03011KT CAVOK 16/09 Q1031;","","","","","","","","","",""
"01023199999","2007-06-04T13:10:00","64.35","7.8","0.0","DRAUGEN, NO","FM-15","4","30.45","50","63","","","","","64","","","","6.15","","010","","10","","","","","","","","","","","","","","","","","","","","","","","","","","","","","","","","","","","","","","","","","","","","","","","","","","","","","","","","","","","","","","","","","","","","","","","","","","","","","","","","","","","","","","","","","","","MET045METAR ENDR 041210Z 01009KT CAVOK 17/10 Q1031;","","","","","","","","","",""
"01023199999","2007-06-04T16:10:00","64.35","7.8","0.0","DRAUGEN, NO","FM-16","4","30.42","50","61","","","","","68","","","","","","010","","19","","","","","","","","","","","","","","","","","","","","","","","","","","","","","","","","","","","","","","","","","","","","","","","","","","","","","","","","","","","","","","","","","","","","","","","","","","","","","","","","","","","","","","","","","","","MET043METAR ENDR 041510Z 01016KT SKC 16/10 Q1030;","","","","","","","","","",""
"01023199999","2007-06-05T13:10:00","64.35","7.8","0.0","DRAUGEN, NO","FM-15","4","30.45","48","50","","","","","94","VV:09 2","","","1.24","","020","","26","","","","","","","","","","","","","","","","","","","","","","","","","","","","","","","","","","","","","","","","","","","","","","","","","","","","","","","","","","","","","","","","","","","","","","","","","","","","","","","","","","","","","","","","","","","MET053METAR ENDR 051210Z 02023KT 2000 BR VV002 10/09 Q1031;","","","","","","","","","",""
"01023199999","2007-06-06T07:10:00","64.35","7.8","0.0","DRAUGEN, NO","FM-15","4","30.36","46","50","","","","","88","FEW:02 7","","","7.00","","030","","32","","","","","","","","","","","","","","","","","","","","","","","","","","","","","","","","","","","","","","","","","","","","","","","","","","","","","","","","","","","","","","","","","","","","","","","","","","","","","","","","","","","","","","","","","","","MET051METAR ENDR 060610Z 03028KT 9999 FEW007 10/08 Q1028;","","","","","","","","","",""
"01023199999","2007-06-06T13:10:00","64.35","7.8","0.0","DRAUGEN, NO","FM-16","4","30.33","48","54","","","","","82","","","","","","040","","29","","","","","","","","","","","","","","","","","","","","","","","","","","","","","","","","","","","","","","","","","","","","","","","","","","","","","","","","","","","","","","","","","","","","","","","","","","","","","","","","","","","","","","","","","","","MET043METAR ENDR 061210Z 04025KT SKC 12/09 Q1027;","","","","","","","","","",""
"01023199999","2007-06-06T16:10:00","64.35","7.8","0.0","DRAUGEN, NO","FM-15","4","30.30","48","55","","","","","77","","","","6.15","","040","","31","","","","","","","","","","","","","","","","","","","","","","","","","","","","","","","","","","","","","","","","","","","","","","","","","","","","","","","","","","","","","","","","","","","","","","","","","","","","","","","","","","","","","","","","","","","MET045METAR ENDR 061510Z 04027KT CAVOK 13/09 Q1026;","","","","","","","","","",""
"01023199999","2007-06-07T07:10:00","64.35","7.8","0.0","DRAUGEN, NO","FM-15","4","30.27","50","54","","","","","88","","","","6.15","","050","","25","","","","","","","","","","","","","","","","","","","","","","","","","","","","","","","","","","","","","","","","","","","","","","","","","","","","","","","","","","","","","","","","","","","","","","","","","","","","","","","","","","","","","","","","","","","MET045METAR ENDR 070610Z 05022KT CAVOK 12/10 Q1025;","","","","","","","","","",""
"01023199999","2007-06-07T10:10:00","64.35","7.8","0.0","DRAUGEN, NO","FM-15","4","30.27","50","57","","","","","77","","","","6.15","","060","","18","","","","","","","","","","","","","","","","","","","","","","","","","","","","","","","","","","","","","","","","","","","","","","","","","","","","","","","","","","","","","","","","","","","","","","","","","","","","","","","","","","","","","","","","","","","MET045METAR ENDR 070910Z 06016KT CAVOK 14/10 Q1025;","","","","","","","","","",""
"01023199999","2007-06-07T13:10:00","64.35","7.8","0.0","DRAUGEN, NO","FM-15","4","30.30","50","57","","","","","77","","","","6.15","","050","","17","","","","","","","","","","","","","","","","","","","","","","","","","","","","","","","","","","","","","","","","","","","","","","","","","","","","","","","","","","","","","","","","","","","","","","","","","","","","","","","","","","","","","","","","","","","MET045METAR ENDR 071210Z 05015KT CAVOK 14/10 Q1026;","","","","","","","","","",""
"01023199999","2007-06-08T07:20:00","64.35","7.8","0.0","DRAUGEN, NO","FM-15","4","30.27","52","55","","","","","88","","","","","","340","","4","","","","","","","","","","","","","","","","","","","","","","","","","","","","","","","","","","","","","","","","","","","","","","","","","","","","","","","","","","","","","","","","","","","","","","","","","","","","","","","","","","","","","","","","","","","MET058METAR ENDR 080620Z 34003KT 290V030 VCFG CAVOK 13/11 Q1025;","","","","","","","","","",""
"01023199999","2007-06-08T10:10:00","64.35","7.8","0.0","DRAUGEN, NO","FM-16","4","30.30","50","57","","","","","77","","","","","","350","","7","","","","","","","","","","","","","","","","","","","","","","","","","","","","","","","","","","","","","","","","","","","","","","","","","","","","","","","","","","","","","","","","","","","","","","","","","","","","","","","","","","","","","","","","","","","MET058METAR ENDR 080910Z 35006KT 300V040 VCFG CAVOK 14/10 Q1026;","","","","","","","","","",""
"01023199999","2007-06-08T13:20:00","64.35","7.8","0.0","DRAUGEN, NO","FM-15","4","30.30","50","57","","","","","77","FEW:02 4","","","7.00","","350","","9","","","","","","","","","","","","","","","","","","","","","","","","","","","","","","","","","","","","","","","","","","","","","","","","","","","","","","","","","","","","","","","","","","","","","","","","","","","","","","","","","","","","","","","","","","","MET059METAR ENDR 081220Z 35008KT 310V030 9999 FEW004 14/10 Q1026;","","","","","","","","","",""
"01023199999","2007-06-08T16:50:00","64.35","7.8","0.0","DRAUGEN, NO","FM-15","4","30.27","48","57","","","","","72","FEW:02 6","","","7.00","","360","","9","","","","","","","","","","","","","","","","","","","","","","","","","","","","","","","","","","","","","","","","","","","","","","","","","","","","","","","","","","","","","","","","","","","","","","","","","","","","","","","","","","","","","","","","","","","MET059METAR ENDR 081550Z 36008KT 320V030 9999 FEW006 14/09 Q1025;","","","","","","","","","",""
"01023199999","2007-06-09T10:40:00","64.35","7.8","0.0","DRAUGEN, NO","FM-15","4","30.27","50","57","","","","","77","","","","6.15","","020","","19","","","","","","","","","","","","","","","","","","","","","","","","","","","","","","","","","","","","","","","","","","","","","","","","","","","","","","","","","","","","","","","","","","","","","","","","","","","","","","","","","","","","","","","","","","","MET045METAR ENDR 090940Z 02017KT CAVOK 14/10 Q1025;","","","","","","","","","",""
"01023199999","2007-06-09T13:20:00","64.35","7.8","0.0","DRAUGEN, NO","FM-15","4","30.24","50","57","","","","","77","","","","6.15","","030","","17","","","","","","","","","","","","","","","","","","","","","","","","","","","","","","","","","","","","","","","","","","","","","","","","","","","","","","","","","","","","","","","","","","","","","","","","","","","","","","","","","","","","","","","","","","","MET045METAR ENDR 091220Z 03015KT CAVOK 14/10 Q1024;","","","","","","","","","",""
"01023199999","2007-06-09T16:20:00","64.35","7.8","0.0","DRAUGEN, NO","FM-15","4","30.24","50","59","","","","","72","","","","6.15","","030","","16","","","","","","","","","","","","","","","","","","","","","","","","","","","","","","","","","","","","","","","","","","","","","","","","","","","","","","","","","","","","","","","","","","","","","","","","","","","","","","","","","","","","","","","","","","","MET053METAR ENDR 091520Z 03014KT 320V060 CAVOK 15/10 Q1024;","","","","","","","","","",""
"01023199999","2007-06-09T16:40:00","64.35","7.8","0.0","DRAUGEN, NO","FM-15","4","30.24","48","59","","","","","68","","","","6.15","","030","","16","","","","","","","","","","","","","","","","","","","","","","","","","","","","","","","","","","","","","","","","","","","","","","","","","","","","","","","","","","","","","","","","","","","","","","","","","","","","","","","","","","","","","","","","","","","MET045METAR ENDR 091540Z 03014KT CAVOK 15/09 Q1024;","","","","","","","","","",""
"01023199999","2007-06-10T07:20:00","64.35","7.8","0.0","DRAUGEN, NO","FM-15","4","30.24","50","54","","","","","88","","","","6.15","","040","","2","","","","","","","","","","","","","","","","","","","","","","","","","","","","","","","","","","","","","","","","","","","","","","","","","","","","","","","","","","","","","","","","","","","","","","","","","","","","","","","","","","","","","","","","","","","MET045METAR ENDR 100620Z 04002KT CAVOK 12/10 Q1024;","","","","","","","","","",""
"01023199999","2007-06-10T10:20:00","64.35","7.8","0.0","DRAUGEN, NO","FM-15","4","30.24","50","54","","","","","88","","","","6.15","","320","","1","","","","","","","","","","","","","","","","","","","","","","","","","","","","","","","","","","","","","","","","","","","","","","","","","","","","","","","","","","","","","","","","","","","","","","","","","","","","","","","","","","","","","","","","","","","MET045METAR ENDR 100920Z 32001KT CAVOK 12/10 Q1024;","","","","","","","","","",""
"01023199999","2007-06-10T16:10:00","64.35","7.8","0.0","DRAUGEN, NO","FM-15","4","30.24","48","61","","","","","63","","","","6.15","","360","","6","","","","","","","","","","","","","","","","","","","","","","","","","","","","","","","","","","","","","","","","","","","","","","","","","","","","","","","","","","","","","","","","","","","","","","","","","","","","","","","","","","","","","","","","","","","MET053METAR ENDR 101510Z 36005KT 330V040 CAVOK 16/09 Q1024;","","","","","","","","","",""
"01023199999","2007-06-11T09:50:00","64.35","7.8","0.0","DRAUGEN, NO","FM-15","4","30.03","45","52","","","","","77","BKN:07 20","","","7.00","","270","","10","","","","","","","","","","","","","","","","","","","","","","","","","","","","","","","","","","","","","","","","","","","","","","","","","","","","","","","","","","","","","","","","","","","","","","","","","","","","","","","","","","","","","","","","","","","MET051METAR ENDR 110850Z 27009KT 9999 BKN020 11/07 Q1017;","","","","","","","","","",""
"01023199999","2007-06-11T13:20:00","64.35","7.8","0.0","DRAUGEN, NO","FM-15","4","29.97","46","52","","","","","82","BKN:07 20","","","7.00","","280","","13","","","","","","","","","","","","","","","","","","","","","","","","","","","","","","","","","","","","","","","","","","","","","","","","","","","","","","","","","","","","","","","","","","","","","","","","","","","","","","","","","","","","","","","","","","","MET051METAR ENDR 111220Z 28011KT 9999 BKN020 11/08 Q1015;","","","","","","","","","",""
"01023199999","2007-06-11T15:50:00","64.35","7.8","0.0","DRAUGEN, NO","FM-15","4","29.94","46","50","","||RA","","","88","BKN:07 10","","","7.00","","300","","17","","","","","","","","","","","","","","","","","","","","","","","","","","","","","","","","","","","","","","","","","","","","","","","","","","","","","","","","","","","","","","","","","","","","","","","","","","","","","","","","","","","","","","","","","","","MET055METAR ENDR 111450Z 30015KT 9999 -RA BKN010 10/08 Q1014;","","","","","","","","","",""
"01023199999","2007-06-11T16:10:00","64.35","7.8","0.0","DRAUGEN, NO","FM-15","4","29.94","48","50","","||RA","","","94","BKN:07 10","","","7.00","","310","","14","","","","","","","","","","","","","","","","","","","","","","","","","","","","","","","","","","","","","","","","","","","","","","","","","","","","","","","","","","","","","","","","","","","","","","","","","","","","","","","","","","","","","","","","","","","MET063METAR ENDR 111510Z 31012KT 270V010 9999 -RA BKN010 10/09 Q1014;","","","","","","","","","",""
"01023199999","2007-06-12T07:10:00","64.35","7.8","0.0","DRAUGEN, NO","FM-15","4","29.71","41","48","","||RA","","","76","SCT:04 15 BKN:07 30","","","7.00","","030","","16","","","","","","","","","","","","","","","","","","","","","","","","","","","","","","","","","","","","","","","","","","","","","","","","","","","","","","","","","","","","","","","","","","","","","","","","","","","","","","","","","","","","","","","","","","","MET062METAR ENDR 120610Z 03014KT 9999 -RA SCT015 BKN030 09/05 Q1006;","","","","","","","","","",""
"01023199999","2007-06-12T10:20:00","64.35","7.8","0.0","DRAUGEN, NO","FM-15","4","29.68","37","50","","||DZ","","","62","SCT:04 30 BKN:07 98","","","7.00","","010","","15","","","","","","","","","","","","","","","","","","","","","","","","","","","","","","","","","","","","","","","","","","","","","","","","","","","","","","","","","","","","","","","","","","","","","","","","","","","","","","","","","","","","","","","","","","","MET061METAR ENDR 120920Z 01013KT 9999 DZ SCT030 BKN100 10/03 Q1005;","","","","","","","","","",""
"01023199999","2007-06-12T13:20:00","64.35","7.8","0.0","DRAUGEN, NO","FM-15","4","29.68","37","52","","||SHRA","","","58","SCT:04 20 BKN:07 79","","","7.00","","350","","13","","","","","","","","","","","","","","","","","","","","","","","","","","","","","","","","","","","","","","","","","","","","","","","","","","","","","","","","","","","","","","","","","","","","","","","","","","","","","","","","","","","","","","","","","","","MET072METAR ENDR 121220Z 35011KT 300V020 9999 -SHRA SCT020 BKN080 11/03 Q1005;","","","","","","","","","",""
"01023199999","2007-06-13T07:10:00","64.35","7.8","0.0","DRAUGEN, NO","FM-15","4","29.59","36","43","","","","","76","SCT:04 20 SCT:04 89","","","7.00","","290","","15","","","","","","","","","","","","","","","","","","","","","","","","","","","","","","","","","","","","","","","","","","","","","","","","","","","","","","","","","","","","","","","","","","","","","","","","","","","","","","","","","","","","","","","","","","","MET063METAR ENDR 130610Z 29013KT 9999 VCSH SCT020 SCT090 06/02 Q1002;","","","","","","","","","",""
"01023199999","2007-06-13T14:10:00","64.35","7.8","0.0","DRAUGEN, NO","FM-15","4","29.62","36","46","","","","","66","SCT:04 20","","","7.00","","310","","3","","","","","","","","","","","","","","","","","","","","","","","","","","","","","","","","","","","","","","","","","","","","","","","","","","","","","","","","","","","","","","","","","","","","","","","","","","","","","","","","","","","","","","","","","","","MET059METAR ENDR 131310Z 31003KT 260V090 9999 SCT020 08/02 Q1003;","","","","","","","","","",""
"01023199999","2007-06-14T07:20:00","64.35","7.8","0.0","DRAUGEN, NO","FM-15","4","29.65","34","50","","","","","54","SCT:04 15","","","7.00","","350","","5","","","","","","","","","","","","","","","","","","","","","","","","","","","","","","","","","","","","","","","","","","","","","","","","","","","","","","","","","","","","","","","","","","","","","","","","","","","","","","","","","","","","","","","","","","","MET059METAR ENDR 140620Z 35004KT 210V140 9999 SCT015 10/01 Q1004;","","","","","","","","","",""
"01023199999","2007-06-14T10:10:00","64.35","7.8","0.0","DRAUGEN, NO","FM-15","4","29.68","34","52","","","","","50","SCT:04 30","","","7.00","","340","","5","","","","","","","","","","","","","","","","","","","","","","","","","","","","","","","","","","","","","","","","","","","","","","","","","","","","","","","","","","","","","","","","","","","","","","","","","","","","","","","","","","","","","","","","","","","MET059METAR ENDR 140910Z 34004KT 250V100 9999 SCT030 11/01 Q1005;","","","","","","","","","",""
"01023199999","2007-06-14T13:20:00","64.35","7.8","0.0","DRAUGEN, NO","FM-15","4","29.71","34","52","","","","","50","SCT:04 30","","","7.00","","320","","7","","","","","","","","","","","","","","","","","","","","","","","","","","","","","","","","","","","","","","","","","","","","","","","","","","","","","","","","","","","","","","","","","","","","","","","","","","","","","","","","","","","","","","","","","","","MET051METAR ENDR 141220Z 32006KT 9999 SCT030 11/01 Q1006;","","","","","","","","","",""
"01023199999","2007-06-14T15:10:00","64.35","7.8","0.0","DRAUGEN, NO","FM-15","4","29.74","36","50","","","","","58","SCT:04 30","","","7.00","","290","","11","","","","","","","","","","","","","","","","","","","","","","","","","","","","","","","","","","","","","","","","","","","","","","","","","","","","","","","","","","","","","","","","","","","","","","","","","","","","","","","","","","","","","","","","","","","MET051METAR ENDR 141410Z 29010KT 9999 SCT030 10/02 Q1007;","","","","","","","","","",""
"01023199999","2007-06-14T17:10:00","64.35","7.8","0.0","DRAUGEN, NO","FM-15","4","29.77","39","46","","","","","76","FEW:02 25","","","7.00","","280","","7","","","","","","","","","","","","","","","","","","","","","","","","","","","","","","","","","","","","","","","","","","","","","","","","","","","","","","","","","","","","","","","","","","","","","","","","","","","","","","","","","","","","","","","","","","","MET051METAR ENDR 141610Z 28006KT 9999 FEW025 08/04 Q1008;","","","","","","","","","",""
"01023199999","2007-06-14T17:40:00","64.35","7.8","0.0","DRAUGEN, NO","FM-15","4","29.77","39","50","","","","","67","SCT:04 25","","","7.00","","300","","14","","","","","","","","","","","","","","","","","","","","","","","","","","","","","","","","","","","","","","","","","","","","","","","","","","","","","","","","","","","","","","","","","","","","","","","","","","","","","","","","","","","","","","","","","","","MET059METAR ENDR 141640Z 30012KT 240V360 9999 SCT025 10/04 Q1008;","","","","","","","","","",""
"01023199999","2007-06-15T06:40:00","64.35","7.8","0.0","DRAUGEN, NO","FM-15","4","29.83","37","46","","","","","71","BKN:07 30","","","7.00","","270","","17","","","","","","","","","","","","","","","","","","","","","","","","","","","","","","","","","","","","","","","","","","","","","","","","","","","","","","","","","","","","","","","","","","","","","","","","","","","","","","","","","","","","","","","","","","","MET051METAR ENDR 150540Z 27015KT 9999 BKN030 08/03 Q1010;","","","","","","","","","",""
"01023199999","2007-06-15T09:40:00","64.35","7.8","0.0","DRAUGEN, NO","FM-15","4","29.85","34","48","","","","","58","BKN:07 34","","","7.00","","270","","16","","","","","","","","","","","","","","","","","","","","","","","","","","","","","","","","","","","","","","","","","","","","","","","","","","","","","","","","","","","","","","","","","","","","","","","","","","","","","","","","","","","","","","","","","","","MET059METAR ENDR 150840Z 27014KT 230V290 9999 BKN035 09/01 Q1011;","","","","","","","","","",""
"01023199999","2007-06-15T15:10:00","64.35","7.8","0.0","DRAUGEN, NO","FM-15","4","29.91","34","50","","","","","54","FEW:02 25 BKN:07 39","","","7.00","","260","","14","","","","","","","","","","","","","","","","","","","","","","","","","","","","","","","","","","","","","","","","","","","","","","","","","","","","","","","","","","","","","","","","","","","","","","","","","","","","","","","","","","","","","","","","","","","MET058METAR ENDR 151410Z 26012KT 9999 FEW025 BKN040 10/01 Q1013;","","","","","","","","","",""
"01023199999","2007-06-15T16:10:00","64.35","7.8","0.0","DRAUGEN, NO","FM-15","4","29.91","32","48","","","","","54","FEW:02 25 BKN:07 39","","","7.00","","240","","10","","","","","","","","","","","","","","","","","","","","","","","","","","","","","","","","","","","","","","","","","","","","","","","","","","","","","","","","","","","","","","","","","","","","","","","","","","","","","","","","","","","","","","","","","","","MET059METAR ENDR 151510Z 24009KT 9999 FEW025 BKN040 09/M00 Q1013;","","","","","","","","","",""
"01023199999","2007-06-16T09:40:00","64.35","7.8","0.0","DRAUGEN, NO","FM-15","4","29.88","43","50","","","","","76","BKN:07 20","","","7.00","","280","","7","","","","","","","","","","","","","","","","","","","","","","","","","","","","","","","","","","","","","","","","","","","","","","","","","","","","","","","","","","","","","","","","","","","","","","","","","","","","","","","","","","","","","","","","","","","MET051METAR ENDR 160840Z 28006KT 9999 BKN020 10/06 Q1012;","","","","","","","","","",""
"01023199999","2007-06-16T13:10:00","64.35","7.8","0.0","DRAUGEN, NO","FM-15","4","29.91","43","54","","","","","67","SCT:04 17 BKN:07 49","","","7.00","","030","","14","","","","","","","","","","","","","","","","","","","","","","","","","","","","","","","","","","","","","","","","","","","","","","","","","","","","","","","","","","","","","","","","","","","","","","","","","","","","","","","","","","","","","","","","","","","MET058METAR ENDR 161210Z 03012KT 9999 SCT017 BKN050 12/06 Q1013;","","","","","","","","","",""
"01023199999","2007-06-16T16:10:00","64.35","7.8","0.0","DRAUGEN, NO","FM-15","4","29.88","39","54","","","","","58","SCT:04 25","","","7.00","","010","","16","","","","","","","","","","","","","","","","","","","","","","","","","","","","","","","","","","","","","","","","","","","","","","","","","","","","","","","","","","","","","","","","","","","","","","","","","","","","","","","","","","","","","","","","","","","MET051METAR ENDR 161510Z 01014KT 9999 SCT025 12/04 Q1012;","","","","","","","","","",""
"01023199999","2007-06-17T06:40:00","64.35","7.8","0.0","DRAUGEN, NO","FM-15","4","29.83","37","50","","","","","62","BKN:07 30","","","7.00","","040","","36","","","","","","","","","","","","","","","","","","","","","","","","","","","","","","","","","","","","","","","","","","","","","","","","","","","","","","","","","","","","","","","","","","","","","","","","","","","","","","","","","","","","","","","","","","","MET051METAR ENDR 170540Z 04031KT 9999 BKN030 10/03 Q1010;","","","","","","","","","",""
"01023199999","2007-06-17T07:10:00","64.35","7.8","0.0","DRAUGEN, NO","FM-15","4","29.83","37","50","","","","","62","BKN:07 30","","","7.00","","040","","31","","","","","","","","","","","","","","","","","","","","","","","","","","","","","","","","","","","","","","","","","","","","","","","","","","","","","","","","","","","","","","","","","","","","","","","","","","","","","","","","","","","","","","","","","","","MET051METAR ENDR 170610Z 04027KT 9999 BKN030 10/03 Q1010;","","","","","","","","","",""
"01023199999","2007-06-17T10:10:00","64.35","7.8","0.0","DRAUGEN, NO","FM-15","4","29.83","39","52","","","","","62","BKN:07 28","","","7.00","","040","","33","","","","","","","","","","","","","","","","","","","","","","","","","","","","","","","","","","","","","","","","","","","","","","","","","","","","","","","","","","","","","","","","","","","","","","","","","","","","","","","","","","","","","","","","","","","MET051METAR ENDR 170910Z 04029KT 9999 BKN028 11/04 Q1010;","","","","","","","","","",""
"01023199999","2007-06-17T12:40:00","64.35","7.8","0.0","DRAUGEN, NO","FM-15","4","29.80","41","52","","","","","67","BKN:07 24","","","7.00","","040","","39","","","","","","","","","","","","","","","","","","","","","","","","","","","","","","","","","","","","","","","","","","","","","","","","","","","","","","","","","","","","","","","","","","","","","","","","","","","","","","","","","","","","","","","","","","","MET051METAR ENDR 171140Z 04034KT 9999 BKN024 11/05 Q1009;","","","","","","","","","",""
"01023199999","2007-06-17T18:10:00","64.35","7.8","0.0","DRAUGEN, NO","FM-15","4","29.80","41","52","","","","","67","SCT:04 23","","","7.00","","020","","43","","","","","","","","","","","","","","","","","","","","","","","","","","","","","","","","","","","","","","","","","","","","","","","","","","","","","","","","","","","","","","","","","","","","","","","","","","","","","","","","","","","","","","","","","","","MET051METAR ENDR 171710Z 02037KT 9999 SCT023 11/05 Q1009;","","","","","","","","","",""
"01023199999","2007-06-18T06:40:00","64.35","7.8","0.0","DRAUGEN, NO","FM-15","4","29.88","39","48","","||RA","","","71","BKN:07 24","","","7.00","","010","","18","","","","","","","","","","","","","","","","","","","","","","","","","","","","","","","","","","","","","","","","","","","","","","","","","","","","","","","","","","","","","","","","","","","","","","","","","","","","","","","","","","","","","","","","","","","MET055METAR ENDR 180540Z 01016KT 9999 -RA BKN024 09/04 Q1012;","","","","","","","","","",""
"01023199999","2007-06-18T16:10:00","64.35","7.8","0.0","DRAUGEN, NO","FM-15","4","29.94","41","52","","","","","67","BKN:07 34","","","7.00","","360","","14","","","","","","","","","","","","","","","","","","","","","","","","","","","","","","","","","","","","","","","","","","","","","","","","","","","","","","","","","","","","","","","","","","","","","","","","","","","","","","","","","","","","","","","","","","","MET051METAR ENDR 181510Z 36012KT 9999 BKN035 11/05 Q1014;","","","","","","","","","",""
"01023199999","2007-06-19T13:10:00","64.35","7.8","0.0","DRAUGEN, NO","FM-15","4","30.09","45","54","","","","","72","SCT:04 15 BKN:07 33","","","7.00","","360","","9","","","","","","","","","","","","","","","","","","","","","","","","","","","","","","","","","","","","","","","","","","","","","","","","","","","","","","","","","","","","","","","","","","","","","","","","","","","","","","","","","","","","","","","","","","","MET058METAR ENDR 191210Z 36008KT 9999 SCT015 BKN034 12/07 Q1019;","","","","","","","","","",""
"01023199999","2007-06-19T16:10:00","64.35","7.8","0.0","DRAUGEN, NO","FM-15","4","30.09","43","52","","","","","72","SCT:04 19 BKN:07 30","","","7.00","","020","","13","","","","","","","","","","","","","","","","","","","","","","","","","","","","","","","","","","","","","","","","","","","","","","","","","","","","","","","","","","","","","","","","","","","","","","","","","","","","","","","","","","","","","","","","","","","MET058METAR ENDR 191510Z 02011KT 9999 SCT019 BKN030 11/06 Q1019;","","","","","","","","","",""
"01023199999","2007-06-20T05:40:00","64.35","7.8","0.0","DRAUGEN, NO","FM-15","4","30.09","43","48","","","","","82","FEW:02 18 BKN:07 23","","","7.00","","050","","15","","","","","","","","","","","","","","","","","","","","","","","","","","","","","","","","","","","","","","","","","","","","","","","","","","","","","","","","","","","","","","","","","","","","","","","","","","","","","","","","","","","","","","","","","","","MET058METAR ENDR 200440Z 05013KT 9999 FEW018 BKN023 09/06 Q1019;","","","","","","","","","",""
"01023199999","2007-06-20T06:40:00","64.35","7.8","0.0","DRAUGEN, NO","FM-15","4","30.09","43","48","","","","","82","BKN:07 20","","","7.00","","030","","14","","","","","","","","","","","","","","","","","","","","","","","","","","","","","","","","","","","","","","","","","","","","","","","","","","","","","","","","","","","","","","","","","","","","","","","","","","","","","","","","","","","","","","","","","","","MET051METAR ENDR 200540Z 03012KT 9999 BKN020 09/06 Q1019;","","","","","","","","","",""
"01023199999","2007-06-20T07:10:00","64.35","7.8","0.0","DRAUGEN, NO","FM-15","4","30.06","41","50","","","","","71","BKN:07 22","","","7.00","","020","","15","","","","","","","","","","","","","","","","","","","","","","","","","","","","","","","","","","","","","","","","","","","","","","","","","","","","","","","","","","","","","","","","","","","","","","","","","","","","","","","","","","","","","","","","","","","MET051METAR ENDR 200610Z 02013KT 9999 BKN022 10/05 Q1018;","","","","","","","","","",""
"01023199999","2007-06-20T16:00:00","64.35","7.8","0.0","DRAUGEN, NO","FM-15","4","30.06","41","52","","","","","67","BKN:07 20","","","7.00","","030","","25","","","","","","","","","","","","","","","","","","","","","","","","","","","","","","","","","","","","","","","","","","","","","","","","","","","","","","","","","","","","","","","","","","","","","","","","","","","","","","","","","","","","","","","","","","","MET051METAR ENDR 201500Z 03022KT 9999 BKN020 11/05 Q1018;","","","","","","","","","",""
"01023199999","2007-06-21T09:10:00","64.35","7.8","0.0","DRAUGEN, NO","FM-15","4","29.97","43","52","","","","","72","SCT:04 19","","","7.00","","040","","29","","","","","","","","","","","","","","","","","","","","","","","","","","","","","","","","","","","","","","","","","","","","","","","","","","","","","","","","","","","","","","","","","","","","","","","","","","","","","","","","","","","","","","","","","","","MET051METAR ENDR 210810Z 04025KT 9999 SCT019 11/06 Q1015;","","","","","","","","","",""
"01023199999","2007-06-21T09:50:00","64.35","7.8","0.0","DRAUGEN, NO","FM-15","4","29.97","43","52","","","","","72","SCT:04 18","","","7.00","","040","","28","","","","","","","","","","","","","","","","","","","","","","","","","","","","","","","","","","","","","","","","","","","","","","","","","","","","","","","","","","","","","","","","","","","","","","","","","","","","","","","","","","","","","","","","","","","MET051METAR ENDR 210850Z 04024KT 9999 SCT018 11/06 Q1015;","","","","","","","","","",""
"01023199999","2007-06-21T10:40:00","64.35","7.8","0.0","DRAUGEN, NO","FM-15","4","29.97","43","52","","","","","72","FEW:02 18","","","7.00","","040","","29","","","","","","","","","","","","","","","","","","","","","","","","","","","","","","","","","","","","","","","","","","","","","","","","","","","","","","","","","","","","","","","","","","","","","","","","","","","","","","","","","","","","","","","","","","","MET051METAR ENDR 210940Z 04025KT 9999 FEW018 11/06 Q1015;","","","","","","","","","",""
"01023199999","2007-06-21T13:10:00","64.35","7.8","0.0","DRAUGEN, NO","FM-15","4","29.97","45","54","","","","","72","FEW:02 18","","","7.00","","040","","29","","","","","","","","","","","","","","","","","","","","","","","","","","","","","","","","","","","","","","","","","","","","","","","","","","","","","","","","","","","","","","","","","","","","","","","","","","","","","","","","","","","","","","","","","","","MET051METAR ENDR 211210Z 04025KT 9999 FEW018 12/07 Q1015;","","","","","","","","","",""
"01023199999","2007-06-22T10:10:00","64.35","7.8","0.0","DRAUGEN, NO","FM-15","4","29.80","48","54","","","","","82","SCT:04 8","","","7.00","","010","","22","","","","","","","","","","","","","","","","","","","","","","","","","","","","","","","","","","","","","","","","","","","","","","","","","","","","","","","","","","","","","","","","","","","","","","","","","","","","","","","","","","","","","","","","","","","MET051METAR ENDR 220910Z 01019KT 9999 SCT008 12/09 Q1009;","","","","","","","","","",""
"01023199999","2007-06-22T15:10:00","64.35","7.8","0.0","DRAUGEN, NO","FM-15","4","29.77","50","54","","","","","88","SCT:04 8 BKN:07 79 BKN:07 98","","","7.00","","010","","18","","","","","","","","","","","","","","","","","","","","","","","","","","","","","","","","","","","","","","","","","","","","","","","","","","","","","","","","","","","","","","","","","","","","","","","","","","","","","","","","","","","","","","","","","","","MET065METAR ENDR 221410Z 01016KT 9999 SCT008 BKN080 BKN100 12/10 Q1008;","","","","","","","","","",""
"01023199999","2007-06-22T15:40:00","64.35","7.8","0.0","DRAUGEN, NO","FM-15","4","29.77","50","54","","","","","88","SCT:04 8 BKN:07 79","","","7.00","","010","","23","","","","","","","","","","","","","","","","","","","","","","","","","","","","","","","","","","","","","","","","","","","","","","","","","","","","","","","","","","","","","","","","","","","","","","","","","","","","","","","","","","","","","","","","","","","MET058METAR ENDR 221440Z 01020KT 9999 SCT008 BKN080 12/10 Q1008;","","","","","","","","","",""
"01023199999","2007-06-23T05:40:00","64.35","7.8","0.0","DRAUGEN, NO","FM-15","4","29.59","52","54","","||FG","","","94","SCT:04 3 BKN:07 35","","","1.86","","030","","18","","","","","","","","","","","","","","","","","","","","","","","","","","","","","","","","","","","","","","","","","","","","","","","","","","","","","","","","","","","","","","","","","","","","","","","","","","","","","","","","","","","","","","","","","","","MET063METAR ENDR 230440Z 03016KT 3000 MIFG SCT003 BKN036 12/11 Q1002;","","","","","","","","","",""
"01023199999","2007-06-23T13:10:00","64.35","7.8","0.0","DRAUGEN, NO","FM-15","4","29.59","52","57","","","","","82","BKN:07 98","","","7.00","","110","","3","","","","","","","","","","","","","","","","","","","","","","","","","","","","","","","","","","","","","","","","","","","","","","","","","","","","","","","","","","","","","","","","","","","","","","","","","","","","","","","","","","","","","","","","","","","MET051METAR ENDR 231210Z 11003KT 9999 BKN100 14/11 Q1002;","","","","","","","","","",""
"01023199999","2007-06-23T15:40:00","64.35","7.8","0.0","DRAUGEN, NO","FM-15","4","29.59","52","61","","","","","72","FEW:02 49 BKN:07 79","","","7.00","","000","","0","","","","","","","","","","","","","","","","","","","","","","","","","","","","","","","","","","","","","","","","","","","","","","","","","","","","","","","","","","","","","","","","","","","","","","","","","","","","","","","","","","","","","","","","","","","MET058METAR ENDR 231440Z 00000KT 9999 FEW050 BKN080 16/11 Q1002;","","","","","","","","","",""
"01023199999","2007-06-24T05:40:00","64.35","7.8","0.0","DRAUGEN, NO","FM-15","4","29.71","52","52","","","","","100","OVC:08 5","","","7.00","","000","","0","","","","","","","","","","","","","","","","","","","","","","","","","","","","","","","","","","","","","","","","","","","","","","","","","","","","","","","","","","","","","","","","","","","","","","","","","","","","","","","","","","","","","","","","","","","MET051METAR ENDR 240440Z 00000KT 9999 OVC005 11/11 Q1006;","","","","","","","","","",""
"01023199999","2007-06-24T07:10:00","64.35","7.8","0.0","DRAUGEN, NO","FM-15","4","29.74","52","52","","","","","100","BKN:07 4","","","7.00","","130","","3","","","","","","","","","","","","","","","","","","","","","","","","","","","","","","","","","","","","","","","","","","","","","","","","","","","","","","","","","","","","","","","","","","","","","","","","","","","","","","","","","","","","","","","","","","","MET051METAR ENDR 240610Z 13003KT 9999 BKN004 11/11 Q1007;","","","","","","","","","",""
"01023199999","2007-06-26T06:40:00","64.35","7.8","0.0","DRAUGEN, NO","FM-15","4","29.50","48","52","","","","","88","OVC:08 5","","","7.00","","330","","8","","","","","","","","","","","","","","","","","","","","","","","","","","","","","","","","","","","","","","","","","","","","","","","","","","","","","","","","","","","","","","","","","","","","","","","","","","","","","","","","","","","","","","","","","","","MET051METAR ENDR 260540Z 33007KT 9999 OVC005 11/09 Q0999;","","","","","","","","","",""
"01023199999","2007-06-26T07:40:00","64.35","7.8","0.0","DRAUGEN, NO","FM-15","4","29.47","48","52","","","","","88","OVC:08 7","","","7.00","","320","","11","","","","","","","","","","","","","","","","","","","","","","","","","","","","","","","","","","","","","","","","","","","","","","","","","","","","","","","","","","","","","","","","","","","","","","","","","","","","","","","","","","","","","","","","","","","MET059METAR ENDR 260640Z 32010KT 260V030 9999 OVC007 11/09 Q0998;","","","","","","","","","",""
"01023199999","2007-06-26T13:10:00","64.35","7.8","0.0","DRAUGEN, NO","FM-15","4","29.38","46","55","","","","","72","OVC:08 13","","","7.00","","330","","7","","","","","","","","","","","","","","","","","","","","","","","","","","","","","","","","","","","","","","","","","","","","","","","","","","","","","","","","","","","","","","","","","","","","","","","","","","","","","","","","","","","","","","","","","","","MET059METAR ENDR 261210Z 33006KT 260V020 9999 OVC013 13/08 Q0995;","","","","","","","","","",""
"01023199999","2007-06-26T13:40:00","64.35","7.8","0.0","DRAUGEN, NO","FM-15","4","29.38","46","55","","","","","72","OVC:08 16","","","4.35","","350","","11","","","","","","","","","","","","","","","","","","","","","","","","","","","","","","","","","","","","","","","","","","","","","","","","","","","","","","","","","","","","","","","","","","","","","","","","","","","","","","","","","","","","","","","","","","","MET059METAR ENDR 261240Z 35010KT 280V030 7000 OVC016 13/08 Q0995;","","","","","","","","","",""
"01023199999","2007-06-26T16:10:00","64.35","7.8","0.0","DRAUGEN, NO","FM-15","4","29.35","50","55","","","","","82","BKN:07 9","","","7.00","","330","","7","","","","","","","","","","","","","","","","","","","","","","","","","","","","","","","","","","","","","","","","","","","","","","","","","","","","","","","","","","","","","","","","","","","","","","","","","","","","","","","","","","","","","","","","","","","MET059METAR ENDR 261510Z 33006KT 270V040 9999 BKN009 13/10 Q0994;","","","","","","","","","",""
"01023199999","2007-06-27T07:00:00","64.35","7.8","0.0","DRAUGEN, NO","FM-15","4","29.23","46","48","","","","","94","SCT:04 10 BKN:07 18","","","7.00","","230","","6","","","","","","","","","","","","","","","","","","","","","","","","","","","","","","","","","","","","","","","","","","","","","","","","","","","","","","","","","","","","","","","","","","","","","","","","","","","","","","","","","","","","","","","","","","","MET058METAR ENDR 270600Z 23005KT 9999 SCT010 BKN018 09/08 Q0990;","","","","","","","","","",""
"01023199999","2007-06-27T10:00:00","64.35","7.8","0.0","DRAUGEN, NO","FM-15","4","29.23","46","50","","","","","88","SCT:04 12","","","7.00","","260","","10","","","","","","","","","","","","","","","","","","","","","","","","","","","","","","","","","","","","","","","","","","","","","","","","","","","","","","","","","","","","","","","","","","","","","","","","","","","","","","","","","","","","","","","","","","","MET051METAR ENDR 270900Z 26009KT 9999 SCT012 10/08 Q0990;","","","","","","","","","",""
"01023199999","2007-06-27T16:10:00","64.35","7.8","0.0","DRAUGEN, NO","FM-15","4","29.29","45","50","","","","","82","BKN:07 18","","","7.00","","250","","13","","","","","","","","","","","","","","","","","","","","","","","","","","","","","","","","","","","","","","","","","","","","","","","","","","","","","","","","","","","","","","","","","","","","","","","","","","","","","","","","","","","","","","","","","","","MET051METAR ENDR 271510Z 25011KT 9999 BKN018 10/07 Q0992;","","","","","","","","","",""
"01023199999","2007-06-28T06:40:00","64.35","7.8","0.0","DRAUGEN, NO","FM-15","4","29.32","50","50","","||RA","","","100","BKN:07 9","","","7.00","","230","","19","","","","","","","","","","","","","","","","","","","","","","","","","","","","","","","","","","","","","","","","","","","","","","","","","","","","","","","","","","","","","","","","","","","","","","","","","","","","","","","","","","","","","","","","","","","MET054METAR ENDR 280540Z 23017KT 9999 RA BKN009 10/10 Q0993;","","","","","","","","","",""
"01023199999","2007-06-28T07:20:00","64.35","7.8","0.0","DRAUGEN, NO","FM-15","4","29.32","48","50","","||FG RA","","","94","BKN:07 9 OVC:08 18","","","4.35","","230","","18","","","","","","","","","","","","","","","","","","","","","","","","","","","","","","","","","","","","","","","","","","","","","","","","","","","","","","","","","","","","","","","","","","","","","","","","","","","","","","","","","","","","","","","","","","","MET066METAR ENDR 280620Z 23016KT 7000 RA BCFG BKN009 OVC018 10/09 Q0993;","","","","","","","","","",""
"01023199999","2007-06-28T10:10:00","64.35","7.8","0.0","DRAUGEN, NO","FM-16","4","29.35","50","52","","","","","94","SCT:04 7 BKN:07 18","","","","","300","","5","","","","","","","","","","","","","","","","","","","","","","","","","","","","","","","","","","","","","","","","","","","","","","","","","","","","","","","","","","","","","","","","","","","","","","","","","","","","","","","","","","","","","","","","","","","MET070METAR ENDR 280910Z 30004KT 230V360 -RA BCFG SCT007 BKN018 11/10 Q0994;","","","","","","","","","",""
"01023199999","2007-06-28T12:40:00","64.35","7.8","0.0","DRAUGEN, NO","FM-15","4","29.38","50","54","","","","","88","BKN:07 63 BKN:07 84","","","7.00","","290","","1","","","","","","","","","","","","","","","","","","","","","","","","","","","","","","","","","","","","","","","","","","","","","","","","","","","","","","","","","","","","","","","","","","","","","","","","","","","","","","","","","","","","","","","","","","","MET058METAR ENDR 281140Z 29001KT 9999 BKN064 BKN085 12/10 Q0995;","","","","","","","","","",""
"01023199999","2007-06-28T17:10:00","64.35","7.8","0.0","DRAUGEN, NO","FM-15","4","29.41","52","55","","","","","88","BKN:07 20","","","7.00","","000","","0","","","","","","","","","","","","","","","","","","","","","","","","","","","","","","","","","","","","","","","","","","","","","","","","","","","","","","","","","","","","","","","","","","","","","","","","","","","","","","","","","","","","","","","","","","","MET051METAR ENDR 281610Z 00000KT 9999 BKN020 13/11 Q0996;","","","","","","","","","",""
"01023199999","2007-06-29T07:20:00","64.35","7.8","0.0","DRAUGEN, NO","FM-15","4","29.56","50","52","","||DZ","","","94","SCT:04 6 OVC:08 10","","","4.97","","010","","9","","","","","","","","","","","","","","","","","","","","","","","","","","","","","","","","","","","","","","","","","","","","","","","","","","","","","","","","","","","","","","","","","","","","","","","","","","","","","","","","","","","","","","","","","","","MET061METAR ENDR 290620Z 01008KT 8000 DZ SCT006 OVC010 11/10 Q1001;","","","","","","","","","",""
"01023199999","2007-06-29T10:20:00","64.35","7.8","0.0","DRAUGEN, NO","FM-15","4","29.59","48","54","","","","","82","FEW:02 10 SCT:04 18 BKN:07 30","","","7.00","","010","","6","","","","","","","","","","","","","","","","","","","","","","","","","","","","","","","","","","","","","","","","","","","","","","","","","","","","","","","","","","","","","","","","","","","","","","","","","","","","","","","","","","","","","","","","","","","MET065METAR ENDR 290920Z 01005KT 9999 FEW010 SCT018 BKN030 12/09 Q1002;","","","","","","","","","",""
"01023199999","2007-06-29T13:20:00","64.35","7.8","0.0","DRAUGEN, NO","FM-15","4","29.65","46","54","","","","","77","BKN:07 15 BKN:07 30","","","7.00","","010","","6","","","","","","","","","","","","","","","","","","","","","","","","","","","","","","","","","","","","","","","","","","","","","","","","","","","","","","","","","","","","","","","","","","","","","","","","","","","","","","","","","","","","","","","","","","","MET066METAR ENDR 291220Z 01005KT 260V060 9999 BKN015 BKN030 12/08 Q1004;","","","","","","","","","",""
"01023199999","2007-06-29T16:20:00","64.35","7.8","0.0","DRAUGEN, NO","FM-15","4","29.68","46","54","","","","","77","BKN:07 19","","","7.00","","010","","8","","","","","","","","","","","","","","","","","","","","","","","","","","","","","","","","","","","","","","","","","","","","","","","","","","","","","","","","","","","","","","","","","","","","","","","","","","","","","","","","","","","","","","","","","","","MET051METAR ENDR 291520Z 01007KT 9999 BKN019 12/08 Q1005;","","","","","","","","","",""
"01023199999","2007-06-30T13:20:00","64.35","7.8","0.0","DRAUGEN, NO","FM-15","4","29.80","46","55","","","","","72","BKN:07 17","","","7.00","","040","","26","","","","","","","","","","","","","","","","","","","","","","","","","","","","","","","","","","","","","","","","","","","","","","","","","","","","","","","","","","","","","","","","","","","","","","","","","","","","","","","","","","","","","","","","","","","MET051METAR ENDR 301220Z 04023KT 9999 BKN017 13/08 Q1009;","","","","","","","","","",""
"01023199999","2007-06-30T16:20:00","64.35","7.8","0.0","DRAUGEN, NO","FM-15","4","29.80","46","57","","","","","67","SCT:04 17","","","7.00","","030","","23","","","","","","","","","","","","","","","","","","","","","","","","","","","","","","","","","","","","","","","","","","","","","","","","","","","","","","","","","","","","","","","","","","","","","","","","","","","","","","","","","","","","","","","","","","","MET051METAR ENDR 301520Z 03020KT 9999 SCT017 14/08 Q1009;","","","","","","","","","",""
"01023199999","2007-07-01T07:20:00","64.35","7.8","0.0","DRAUGEN, NO","FM-15","4","29.83","52","57","","","","","82","SCT:04 9","","","7.00","","360","","6","","","","","","","","","","","","","","","","","","","","","","","","","","","","","","","","","","","","","","","","","","","","","","","","","","","","","","","","","","","","","","","","","","","","","","","","","","","","","","","","","","","","","","","","","","","MET059METAR ENDR 010620Z 36005KT 320V040 9999 SCT009 14/11 Q1010;","","","","","","","","","",""
"01023199999","2007-07-01T10:10:00","64.35","7.8","0.0","DRAUGEN, NO","FM-15","4","29.83","52","61","","","","","72","BKN:07 7","","","4.97","","360","","2","","","","","","","","","","","","","","","","","","","","","","","","","","","","","","","","","","","","","","","","","","","","","","","","","","","","","","","","","","","","","","","","","","","","","","","","","","","","","","","","","","","","","","","","","","","MET054METAR ENDR 010910Z 36002KT 8000 BR BKN007 16/11 Q1010;","","","","","","","","","",""
"01023199999","2007-07-01T13:10:00","64.35","7.8","0.0","DRAUGEN, NO","FM-15","4","29.83","59","70","","","","","69","","","","6.15","","360","","3","","","","","","","","","","","","","","","","","","","","","","","","","","","","","","","","","","","","","","","","","","","","","","","","","","","","","","","","","","","","","","","","","","","","","","","","","","","","","","","","","","","","","","","","","","","MET053METAR ENDR 011210Z 36003KT 310V030 CAVOK 21/15 Q1010;","","","","","","","","","",""
"01023199999","2007-07-01T15:20:00","64.35","7.8","0.0","DRAUGEN, NO","FM-15","4","29.83","55","64","","","","","73","","","","6.15","","010","","7","","","","","","","","","","","","","","","","","","","","","","","","","","","","","","","","","","","","","","","","","","","","","","","","","","","","","","","","","","","","","","","","","","","","","","","","","","","","","","","","","","","","","","","","","","","MET045METAR ENDR 011420Z 01006KT CAVOK 18/13 Q1010;","","","","","","","","","",""
"01023199999","2007-07-01T16:20:00","64.35","7.8","0.0","DRAUGEN, NO","FM-15","4","29.83","54","63","","","","","73","","","","6.15","","020","","9","","","","","","","","","","","","","","","","","","","","","","","","","","","","","","","","","","","","","","","","","","","","","","","","","","","","","","","","","","","","","","","","","","","","","","","","","","","","","","","","","","","","","","","","","","","MET045METAR ENDR 011520Z 02008KT CAVOK 17/12 Q1010;","","","","","","","","","",""
"01023199999","2007-07-02T07:20:00","64.35","7.8","0.0","DRAUGEN, NO","FM-15","4","29.71","52","57","","","","","82","","","","6.15","","140","","16","","","","","","","","","","","","","","","","","","","","","","","","","","","","","","","","","","","","","","","","","","","","","","","","","","","","","","","","","","","","","","","","","","","","","","","","","","","","","","","","","","","","","","","","","","","MET045METAR ENDR 020620Z 14014KT CAVOK 14/11 Q1006;","","","","","","","","","",""
"01023199999","2007-07-02T13:20:00","64.35","7.8","0.0","DRAUGEN, NO","FM-15","4","29.74","45","64","","","","","49","","","","6.15","","160","","13","","","","","","","","","","","","","","","","","","","","","","","","","","","","","","","","","","","","","","","","","","","","","","","","","","","","","","","","","","","","","","","","","","","","","","","","","","","","","","","","","","","","","","","","","","","MET045METAR ENDR 021220Z 16011KT CAVOK 18/07 Q1007;","","","","","","","","","",""
"01023199999","2007-07-02T16:10:00","64.35","7.8","0.0","DRAUGEN, NO","FM-15","4","29.74","46","68","","","","","46","","","","6.15","","200","","6","","","","","","","","","","","","","","","","","","","","","","","","","","","","","","","","","","","","","","","","","","","","","","","","","","","","","","","","","","","","","","","","","","","","","","","","","","","","","","","","","","","","","","","","","","","MET045METAR ENDR 021510Z 20005KT CAVOK 20/08 Q1007;","","","","","","","","","",""
"01023199999","2007-07-03T07:20:00","64.35","7.8","0.0","DRAUGEN, NO","FM-15","4","29.65","54","61","","","","","77","","","","6.15","","120","","34","","","","","","","","","","","","","","","","","","","","","","","","","","","","","","","","","","","","","","","","","","","","","","","","","","","","","","","","","","","","","","","","","","","","","","","","","","","","","","","","","","","","","","","","","","","MET045METAR ENDR 030620Z 12030KT CAVOK 16/12 Q1004;","","","","","","","","","",""
"01023199999","2007-07-03T07:40:00","64.35","7.8","0.0","DRAUGEN, NO","FM-15","4","29.62","54","61","","","","","77","","","","6.15","","120","","36","","","","","","","","","","","","","","","","","","","","","","","","","","","","","","","","","","","","","","","","","","","","","","","","","","","","","","","","","","","","","","","","","","","","","","","","","","","","","","","","","","","","","","","","","","","MET045METAR ENDR 030640Z 12031KT CAVOK 16/12 Q1003;","","","","","","","","","",""
"01023199999","2007-07-03T13:20:00","64.35","7.8","0.0","DRAUGEN, NO","FM-15","4","29.59","50","64","","","","","60","","","","6.15","","100","","36","","","","","","","","","","","","","","","","","","","","","","","","","","","","","","","","","","","","","","","","","","","","","","","","","","","","","","","","","","","","","","","","","","","","","","","","","","","","","","","","","","","","","","","","","","","MET045METAR ENDR 031220Z 10031KT CAVOK 18/10 Q1002;","","","","","","","","","",""
"01023199999","2007-07-03T13:50:00","64.35","7.8","0.0","DRAUGEN, NO","FM-15","4","29.59","52","64","","","","","64","","","","6.15","","100","","36","","","","","","","","","","","","","","","","","","","","","","","","","","","","","","","","","","","","","","","","","","","","","","","","","","","","","","","","","","","","","","","","","","","","","","","","","","","","","","","","","","","","","","","","","","","MET045METAR ENDR 031250Z 10031KT CAVOK 18/11 Q1002;","","","","","","","","","",""
"01023199999","2007-07-03T16:20:00","64.35","7.8","0.0","DRAUGEN, NO","FM-15","4","29.59","50","66","","","","","56","","","","6.15","","100","","29","","","","","","","","","","","","","","","","","","","","","","","","","","","","","","","","","","","","","","","","","","","","","","","","","","","","","","","","","","","","","","","","","","","","","","","","","","","","","","","","","","","","","","","","","","","MET045METAR ENDR 031520Z 10025KT CAVOK 19/10 Q1002;","","","","","","","","","",""
"01023199999","2007-07-03T21:40:00","64.35","7.8","0.0","DRAUGEN, NO","FM-15","4","29.59","50","64","","","","","60","","","","6.15","","100","","24","","","","","","","","","","","","","","","","","","","","","","","","","","","","","","","","","","","","","","","","","","","","","","","","","","","","","","","","","","","","","","","","","","","","","","","","","","","","","","","","","","","","","","","","","","","MET045METAR ENDR 032040Z 10021KT CAVOK 18/10 Q1002;","","","","","","","","","",""
"01023199999","2007-07-04T07:50:00","64.35","7.8","0.0","DRAUGEN, NO","FM-15","4","29.65","52","61","","","","","72","","","","6.15","","100","","34","","","","","","","","","","","","","","","","","","","","","","","","","","","","","","","","","","","","","","","","","","","","","","","","","","","","","","","","","","","","","","","","","","","","","","","","","","","","","","","","","","","","","","","","","","","MET045METAR ENDR 040650Z 10030KT CAVOK 16/11 Q1004;","","","","","","","","","",""
"01023199999","2007-07-04T09:20:00","64.35","7.8","0.0","DRAUGEN, NO","FM-15","4","29.65","50","63","","","","","64","","","","6.15","","100","","40","","","","","","","","","","","","","","","","","","","","","","","","","","","","","","","","","","","","","","","","","","","","","","","","","","","","","","","","","","","","","","","","","","","","","","","","","","","","","","","","","","","","","","","","","","","MET045METAR ENDR 040820Z 10035KT CAVOK 17/10 Q1004;","","","","","","","","","",""
"01023199999","2007-07-04T10:20:00","64.35","7.8","0.0","DRAUGEN, NO","FM-15","4","29.65","50","64","","","","","60","","","","6.15","","100","","39","","","","","","","","","","","","","","","","","","","","","","","","","","","","","","","","","","","","","","","","","","","","","","","","","","","","","","","","","","","","","","","","","","","","","","","","","","","","","","","","","","","","","","","","","","","MET045METAR ENDR 040920Z 10034KT CAVOK 18/10 Q1004;","","","","","","","","","",""
"01023199999","2007-07-04T10:40:00","64.35","7.8","0.0","DRAUGEN, NO","FM-15","4","29.68","52","64","","","","","64","","","","6.15","","080","","26","","","","","","","","","","","","","","","","","","","","","","","","","","","","","","","","","","","","","","","","","","","","","","","","","","","","","","","","","","","","","","","","","","","","","","","","","","","","","","","","","","","","","","","","","","","MET045METAR ENDR 040940Z 08023KT CAVOK 18/11 Q1005;","","","","","","","","","",""
"01023199999","2007-07-04T13:20:00","64.35","7.8","0.0","DRAUGEN, NO","FM-15","4","29.65","50","70","","","","","50","","","","6.15","","070","","36","","","","","","","","","","","","","","","","","","","","","","","","","","","","","","","","","","","","","","","","","","","","","","","","","","","","","","","","","","","","","","","","","","","","","","","","","","","","","","","","","","","","","","","","","","","MET045METAR ENDR 041220Z 07031KT CAVOK 21/10 Q1004;","","","","","","","","","",""
"01023199999","2007-07-04T16:20:00","64.35","7.8","0.0","DRAUGEN, NO","FM-15","4","29.62","54","66","","","","","64","","","","6.15","","050","","43","","","","","","","","","","","","","","","","","","","","","","","","","","","","","","","","","","","","","","","","","","","","","","","","","","","","","","","","","","","","","","","","","","","","","","","","","","","","","","","","","","","","","","","","","","","MET045METAR ENDR 041520Z 05037KT CAVOK 19/12 Q1003;","","","","","","","","","",""
"01023199999","2007-07-05T07:20:00","64.35","7.8","0.0","DRAUGEN, NO","FM-15","4","29.71","54","61","","","","","77","","","","6.15","","100","","29","","","","","","","","","","","","","","","","","","","","","","","","","","","","","","","","","","","","","","","","","","","","","","","","","","","","","","","","","","","","","","","","","","","","","","","","","","","","","","","","","","","","","","","","","","","MET045METAR ENDR 050620Z 10025KT CAVOK 16/12 Q1006;","","","","","","","","","",""
"01023199999","2007-07-05T10:20:00","64.35","7.8","0.0","DRAUGEN, NO","FM-15","4","29.74","54","63","","","","","73","","","","6.15","","110","","33","","","","","","","","","","","","","","","","","","","","","","","","","","","","","","","","","","","","","","","","","","","","","","","","","","","","","","","","","","","","","","","","","","","","","","","","","","","","","","","","","","","","","","","","","","","MET045METAR ENDR 050920Z 11029KT CAVOK 17/12 Q1007;","","","","","","","","","",""
"01023199999","2007-07-05T13:20:00","64.35","7.8","0.0","DRAUGEN, NO","FM-15","4","29.77","52","66","","","","","60","","","","6.15","","110","","29","","","","","","","","","","","","","","","","","","","","","","","","","","","","","","","","","","","","","","","","","","","","","","","","","","","","","","","","","","","","","","","","","","","","","","","","","","","","","","","","","","","","","","","","","","","MET045METAR ENDR 051220Z 11025KT CAVOK 19/11 Q1008;","","","","","","","","","",""
"01023199999","2007-07-05T13:50:00","64.35","7.8","0.0","DRAUGEN, NO","FM-15","4","29.77","52","66","","","","","60","","","","6.15","","100","","29","","","","","","","","","","","","","","","","","","","","","","","","","","","","","","","","","","","","","","","","","","","","","","","","","","","","","","","","","","","","","","","","","","","","","","","","","","","","","","","","","","","","","","","","","","","MET045METAR ENDR 051250Z 10025KT CAVOK 19/11 Q1008;","","","","","","","","","",""
"01023199999","2007-07-05T16:40:00","64.35","7.8","0.0","DRAUGEN, NO","FM-15","4","29.77","52","72","","","","","50","","","","6.15","","090","","22","","","","","","","","","","","","","","","","","","","","","","","","","","","","","","","","","","","","","","","","","","","","","","","","","","","","","","","","","","","","","","","","","","","","","","","","","","","","","","","","","","","","","","","","","","","MET045METAR ENDR 051540Z 09019KT CAVOK 22/11 Q1008;","","","","","","","","","",""
"01023199999","2007-07-06T07:20:00","64.35","7.8","0.0","DRAUGEN, NO","FM-15","4","29.74","54","64","","","","","68","","","","6.15","","100","","29","","","","","","","","","","","","","","","","","","","","","","","","","","","","","","","","","","","","","","","","","","","","","","","","","","","","","","","","","","","","","","","","","","","","","","","","","","","","","","","","","","","","","","","","","","","MET045METAR ENDR 060620Z 10025KT CAVOK 18/12 Q1007;","","","","","","","","","",""
"01023199999","2007-07-06T10:10:00","64.35","7.8","0.0","DRAUGEN, NO","FM-15","4","29.71","50","68","","","","","53","","","","6.15","","100","","21","","","","","","","","","","","","","","","","","","","","","","","","","","","","","","","","","","","","","","","","","","","","","","","","","","","","","","","","","","","","","","","","","","","","","","","","","","","","","","","","","","","","","","","","","","","MET045METAR ENDR 060910Z 10018KT CAVOK 20/10 Q1006;","","","","","","","","","",""
"01023199999","2007-07-06T13:10:00","64.35","7.8","0.0","DRAUGEN, NO","FM-15","4","29.68","54","70","","","","","57","","","","6.15","","060","","24","","","","","","","","","","","","","","","","","","","","","","","","","","","","","","","","","","","","","","","","","","","","","","","","","","","","","","","","","","","","","","","","","","","","","","","","","","","","","","","","","","","","","","","","","","","MET045METAR ENDR 061210Z 06021KT CAVOK 21/12 Q1005;","","","","","","","","","",""
"01023199999","2007-07-06T14:40:00","64.35","7.8","0.0","DRAUGEN, NO","FM-15","4","29.65","52","72","","","","","50","","","","6.15","","040","","32","","","","","","","","","","","","","","","","","","","","","","","","","","","","","","","","","","","","","","","","","","","","","","","","","","","","","","","","","","","","","","","","","","","","","","","","","","","","","","","","","","","","","","","","","","","MET045METAR ENDR 061340Z 04028KT CAVOK 22/11 Q1004;","","","","","","","","","",""
"01023199999","2007-07-06T15:10:00","64.35","7.8","0.0","DRAUGEN, NO","FM-15","4","29.65","54","72","","","","","53","","","","6.15","","040","","33","","","","","","","","","","","","","","","","","","","","","","","","","","","","","","","","","","","","","","","","","","","","","","","","","","","","","","","","","","","","","","","","","","","","","","","","","","","","","","","","","","","","","","","","","","","MET045METAR ENDR 061410Z 04029KT CAVOK 22/12 Q1004;","","","","","","","","","",""
"01023199999","2007-07-06T16:20:00","64.35","7.8","0.0","DRAUGEN, NO","FM-15","4","29.65","55","70","","","","","60","","","","6.15","","040","","36","","","","","","","","","","","","","","","","","","","","","","","","","","","","","","","","","","","","","","","","","","","","","","","","","","","","","","","","","","","","","","","","","","","","","","","","","","","","","","","","","","","","","","","","","","","MET045METAR ENDR 061520Z 04031KT CAVOK 21/13 Q1004;","","","","","","","","","",""
"01023199999","2007-07-06T17:40:00","64.35","7.8","0.0","DRAUGEN, NO","FM-15","4","29.62","57","70","","","","","64","","","","6.15","","040","","37","","","","","","","","","","","","","","","","","","","","","","","","","","","","","","","","","","","","","","","","","","","","","","","","","","","","","","","","","","","","","","","","","","","","","","","","","","","","","","","","","","","","","","","","","","","MET045METAR ENDR 061640Z 04032KT CAVOK 21/14 Q1003;","","","","","","","","","",""
"01023199999","2007-07-07T07:10:00","64.35","7.8","0.0","DRAUGEN, NO","FM-15","4","29.56","52","63","","","","","68","","","","6.15","","130","","22","","","","","","","","","","","","","","","","","","","","","","","","","","","","","","","","","","","","","","","","","","","","","","","","","","","","","","","","","","","","","","","","","","","","","","","","","","","","","","","","","","","","","","","","","","","MET045METAR ENDR 070610Z 13019KT CAVOK 17/11 Q1001;","","","","","","","","","",""
"01023199999","2007-07-07T10:20:00","64.35","7.8","0.0","DRAUGEN, NO","FM-15","4","29.59","52","64","","","","","64","","","","6.15","","110","","24","","","","","","","","","","","","","","","","","","","","","","","","","","","","","","","","","","","","","","","","","","","","","","","","","","","","","","","","","","","","","","","","","","","","","","","","","","","","","","","","","","","","","","","","","","","MET045METAR ENDR 070920Z 11021KT CAVOK 18/11 Q1002;","","","","","","","","","",""
"01023199999","2007-07-07T13:20:00","64.35","7.8","0.0","DRAUGEN, NO","FM-15","4","29.59","54","64","","","","","68","","","","6.15","","110","","11","","","","","","","","","","","","","","","","","","","","","","","","","","","","","","","","","","","","","","","","","","","","","","","","","","","","","","","","","","","","","","","","","","","","","","","","","","","","","","","","","","","","","","","","","","","MET045METAR ENDR 071220Z 11010KT CAVOK 18/12 Q1002;","","","","","","","","","",""
"01023199999","2007-07-07T16:20:00","64.35","7.8","0.0","DRAUGEN, NO","FM-15","4","29.59","55","66","","","","","68","","","","6.15","","060","","17","","","","","","","","","","","","","","","","","","","","","","","","","","","","","","","","","","","","","","","","","","","","","","","","","","","","","","","","","","","","","","","","","","","","","","","","","","","","","","","","","","","","","","","","","","","MET045METAR ENDR 071520Z 06015KT CAVOK 19/13 Q1002;","","","","","","","","","",""
"01023199999","2007-07-07T18:40:00","64.35","7.8","0.0","DRAUGEN, NO","FM-15","4","29.59","57","68","","","","","69","","","","6.15","","050","","18","","","","","","","","","","","","","","","","","","","","","","","","","","","","","","","","","","","","","","","","","","","","","","","","","","","","","","","","","","","","","","","","","","","","","","","","","","","","","","","","","","","","","","","","","","","MET045METAR ENDR 071740Z 05016KT CAVOK 20/14 Q1002;","","","","","","","","","",""
"01023199999","2007-07-08T07:20:00","64.35","7.8","0.0","DRAUGEN, NO","FM-15","4","29.59","55","64","","","","","73","","","","6.15","","090","","9","","","","","","","","","","","","","","","","","","","","","","","","","","","","","","","","","","","","","","","","","","","","","","","","","","","","","","","","","","","","","","","","","","","","","","","","","","","","","","","","","","","","","","","","","","","MET045METAR ENDR 080620Z 09008KT CAVOK 18/13 Q1002;","","","","","","","","","",""
"01023199999","2007-07-08T08:40:00","64.35","7.8","0.0","DRAUGEN, NO","FM-15","4","29.59","57","66","","","","","73","","","","6.15","","080","","7","","","","","","","","","","","","","","","","","","","","","","","","","","","","","","","","","","","","","","","","","","","","","","","","","","","","","","","","","","","","","","","","","","","","","","","","","","","","","","","","","","","","","","","","","","","MET045METAR ENDR 080740Z 08006KT CAVOK 19/14 Q1002;","","","","","","","","","",""
"01023199999","2007-07-08T09:10:00","64.35","7.8","0.0","DRAUGEN, NO","FM-15","4","29.59","55","66","","","","","68","","","","6.15","","060","","9","","","","","","","","","","","","","","","","","","","","","","","","","","","","","","","","","","","","","","","","","","","","","","","","","","","","","","","","","","","","","","","","","","","","","","","","","","","","","","","","","","","","","","","","","","","MET045METAR ENDR 080810Z 06008KT CAVOK 19/13 Q1002;","","","","","","","","","",""
"01023199999","2007-07-08T10:20:00","64.35","7.8","0.0","DRAUGEN, NO","FM-15","4","29.62","55","64","","","","","73","","","","6.15","","060","","9","","","","","","","","","","","","","","","","","","","","","","","","","","","","","","","","","","","","","","","","","","","","","","","","","","","","","","","","","","","","","","","","","","","","","","","","","","","","","","","","","","","","","","","","","","","MET045METAR ENDR 080920Z 06008KT CAVOK 18/13 Q1003;","","","","","","","","","",""
"01023199999","2007-07-08T10:40:00","64.35","7.8","0.0","DRAUGEN, NO","FM-15","4","29.62","57","66","","","","","73","","","","6.15","","060","","8","","","","","","","","","","","","","","","","","","","","","","","","","","","","","","","","","","","","","","","","","","","","","","","","","","","","","","","","","","","","","","","","","","","","","","","","","","","","","","","","","","","","","","","","","","","MET045METAR ENDR 080940Z 06007KT CAVOK 19/14 Q1003;","","","","","","","","","",""
"01023199999","2007-07-08T13:10:00","64.35","7.8","0.0","DRAUGEN, NO","FM-15","4","29.62","57","68","","","","","69","","","","6.15","","050","","9","","","","","","","","","","","","","","","","","","","","","","","","","","","","","","","","","","","","","","","","","","","","","","","","","","","","","","","","","","","","","","","","","","","","","","","","","","","","","","","","","","","","","","","","","","","MET045METAR ENDR 081210Z 05008KT CAVOK 20/14 Q1003;","","","","","","","","","",""
"01023199999","2007-07-08T15:20:00","64.35","7.8","0.0","DRAUGEN, NO","FM-15","4","29.62","55","68","","","","","64","","","","6.15","","080","","10","","","","","","","","","","","","","","","","","","","","","","","","","","","","","","","","","","","","","","","","","","","","","","","","","","","","","","","","","","","","","","","","","","","","","","","","","","","","","","","","","","","","","","","","","","","MET045METAR ENDR 081420Z 08009KT CAVOK 20/13 Q1003;","","","","","","","","","",""
"01023199999","2007-07-08T16:20:00","64.35","7.8","0.0","DRAUGEN, NO","FM-15","4","29.62","57","70","","","","","64","","","","6.15","","060","","7","","","","","","","","","","","","","","","","","","","","","","","","","","","","","","","","","","","","","","","","","","","","","","","","","","","","","","","","","","","","","","","","","","","","","","","","","","","","","","","","","","","","","","","","","","","MET045METAR ENDR 081520Z 06006KT CAVOK 21/14 Q1003;","","","","","","","","","",""
"01023199999","2007-07-08T21:20:00","64.35","7.8","0.0","DRAUGEN, NO","FM-15","4","29.65","57","59","","","","","94","","","","","","080","","5","","","","","","","","","","","","","","","","","","","","","","","","","","","","","","","","","","","","","","","","","","","","","","","","","","","","","","","","","","","","","","","","","","","","","","","","","","","","","","","","","","","","","","","","","","","MET042METAR ENDR 082020Z 08004KT FG 15/14 Q1004;","","","","","","","","","",""
"01023199999","2007-07-09T07:20:00","64.35","7.8","0.0","DRAUGEN, NO","FM-15","4","29.62","57","59","","","","","94","BKN:07 5 OVC:08 49","","","7.00","","130","","7","","","","","","","","","","","","","","","","","","","","","","","","","","","","","","","","","","","","","","","","","","","","","","","","","","","","","","","","","","","","","","","","","","","","","","","","","","","","","","","","","","","","","","","","","","","MET058METAR ENDR 090620Z 13006KT 9999 BKN005 OVC050 15/14 Q1003;","","","","","","","","","",""
"01023199999","2007-07-09T07:40:00","64.35","7.8","0.0","DRAUGEN, NO","FM-15","4","29.62","57","59","","","","","94","BKN:07 7 OVC:08 49","","","7.00","","120","","8","","","","","","","","","","","","","","","","","","","","","","","","","","","","","","","","","","","","","","","","","","","","","","","","","","","","","","","","","","","","","","","","","","","","","","","","","","","","","","","","","","","","","","","","","","","MET058METAR ENDR 090640Z 12007KT 9999 BKN007 OVC050 15/14 Q1003;","","","","","","","","","",""
"01023199999","2007-07-09T10:20:00","64.35","7.8","0.0","DRAUGEN, NO","FM-15","4","29.62","57","57","","","","","100","OVC:08 6","","","7.00","","140","","10","","","","","","","","","","","","","","","","","","","","","","","","","","","","","","","","","","","","","","","","","","","","","","","","","","","","","","","","","","","","","","","","","","","","","","","","","","","","","","","","","","","","","","","","","","","MET051METAR ENDR 090920Z 14009KT 9999 OVC006 14/14 Q1003;","","","","","","","","","",""
"01023199999","2007-07-09T10:40:00","64.35","7.8","0.0","DRAUGEN, NO","FM-15","4","29.62","57","57","","","","","100","OVC:08 6","","","7.00","","130","","10","","","","","","","","","","","","","","","","","","","","","","","","","","","","","","","","","","","","","","","","","","","","","","","","","","","","","","","","","","","","","","","","","","","","","","","","","","","","","","","","","","","","","","","","","","","MET051METAR ENDR 090940Z 13009KT 9999 OVC006 14/14 Q1003;","","","","","","","","","",""
"01023199999","2007-07-09T13:20:00","64.35","7.8","0.0","DRAUGEN, NO","FM-15","4","29.65","57","57","","","","","100","OVC:08 6","","","7.00","","140","","3","","","","","","","","","","","","","","","","","","","","","","","","","","","","","","","","","","","","","","","","","","","","","","","","","","","","","","","","","","","","","","","","","","","","","","","","","","","","","","","","","","","","","","","","","","","MET051METAR ENDR 091220Z 14003KT 9999 OVC006 14/14 Q1004;","","","","","","","","","",""
"01023199999","2007-07-09T16:10:00","64.35","7.8","0.0","DRAUGEN, NO","FM-15","4","29.62","57","59","","","","","94","OVC:08 8","","","7.00","","180","","3","","","","","","","","","","","","","","","","","","","","","","","","","","","","","","","","","","","","","","","","","","","","","","","","","","","","","","","","","","","","","","","","","","","","","","","","","","","","","","","","","","","","","","","","","","","MET051METAR ENDR 091510Z 18003KT 9999 OVC008 15/14 Q1003;","","","","","","","","","",""
"01023199999","2007-07-11T07:20:00","64.35","7.8","0.0","DRAUGEN, NO","FM-15","4","29.50","54","57","","","","","88","BKN:07 12","","","7.00","","","","","","","","","","","","","","","","","","","","","","","","","","","","","","","","","","","","","","","","","","","","","","","","","","","","","","","","","","","","","","","","","","","","","","","","","","","","","","","","","","","","","","","","","","","","","","","MET043METAR ENDR 110620Z 9999 BKN012 14/12 Q0999;","","","","","","","","","",""
"01023199999","2007-07-11T08:20:00","64.35","7.8","0.0","DRAUGEN, NO","FM-15","4","29.50","54","57","","","","","88","BKN:07 10","","","7.00","","190","","18","","","","","","","","","","","","","","","","","","","","","","","","","","","","","","","","","","","","","","","","","","","","","","","","","","","","","","","","","","","","","","","","","","","","","","","","","","","","","","","","","","","","","","","","","","","MET051METAR ENDR 110720Z 19016KT 9999 BKN010 14/12 Q0999;","","","","","","","","","",""
"01023199999","2007-07-11T09:20:00","64.35","7.8","0.0","DRAUGEN, NO","FM-15","4","29.50","54","57","","","","","88","BKN:07 11","","","7.00","","200","","17","","","","","","","","","","","","","","","","","","","","","","","","","","","","","","","","","","","","","","","","","","","","","","","","","","","","","","","","","","","","","","","","","","","","","","","","","","","","","","","","","","","","","","","","","","","MET051METAR ENDR 110820Z 20015KT 9999 BKN011 14/12 Q0999;","","","","","","","","","",""
"01023199999","2007-07-11T10:20:00","64.35","7.8","0.0","DRAUGEN, NO","FM-15","4","29.50","54","57","","","","","88","BKN:07 11","","","7.00","","190","","19","","","","","","","","","","","","","","","","","","","","","","","","","","","","","","","","","","","","","","","","","","","","","","","","","","","","","","","","","","","","","","","","","","","","","","","","","","","","","","","","","","","","","","","","","","","MET051METAR ENDR 110920Z 19017KT 9999 BKN011 14/12 Q0999;","","","","","","","","","",""
"01023199999","2007-07-11T10:40:00","64.35","7.8","0.0","DRAUGEN, NO","FM-15","4","29.50","54","57","","","","","88","BKN:07 12","","","7.00","","190","","19","","","","","","","","","","","","","","","","","","","","","","","","","","","","","","","","","","","","","","","","","","","","","","","","","","","","","","","","","","","","","","","","","","","","","","","","","","","","","","","","","","","","","","","","","","","MET051METAR ENDR 110940Z 19017KT 9999 BKN012 14/12 Q0999;","","","","","","","","","",""
"01023199999","2007-07-11T13:20:00","64.35","7.8","0.0","DRAUGEN, NO","FM-15","4","29.50","54","57","","","","","88","BKN:07 11","","","7.00","","170","","17","","","","","","","","","","","","","","","","","","","","","","","","","","","","","","","","","","","","","","","","","","","","","","","","","","","","","","","","","","","","","","","","","","","","","","","","","","","","","","","","","","","","","","","","","","","MET051METAR ENDR 111220Z 17015KT 9999 BKN011 14/12 Q0999;","","","","","","","","","",""
"01023199999","2007-07-11T16:20:00","64.35","7.8","0.0","DRAUGEN, NO","FM-15","4","29.50","54","59","","","","","82","BKN:07 13","","","7.00","","190","","9","","","","","","","","","","","","","","","","","","","","","","","","","","","","","","","","","","","","","","","","","","","","","","","","","","","","","","","","","","","","","","","","","","","","","","","","","","","","","","","","","","","","","","","","","","","MET051METAR ENDR 111520Z 19008KT 9999 BKN013 15/12 Q0999;","","","","","","","","","",""
"01023199999","2007-07-12T07:20:00","64.35","7.8","0.0","DRAUGEN, NO","FM-15","4","29.56","52","57","","","","","82","FEW:02 34","","","7.00","","","","","","","","","","","","","","","","","","","","","","","","","","","","","","","","","","","","","","","","","","","","","","","","","","","","","","","","","","","","","","","","","","","","","","","","","","","","","","","","","","","","","","","","","","","","","","","MET043METAR ENDR 120620Z 9999 FEW035 14/11 Q1001;","","","","","","","","","",""
"01023199999","2007-07-12T10:20:00","64.35","7.8","0.0","DRAUGEN, NO","FM-15","4","29.59","54","64","","","","","68","FEW:02 13","","","7.00","","360","","5","","","","","","","","","","","","","","","","","","","","","","","","","","","","","","","","","","","","","","","","","","","","","","","","","","","","","","","","","","","","","","","","","","","","","","","","","","","","","","","","","","","","","","","","","","","MET059METAR ENDR 120920Z 36004KT 280V030 9999 FEW013 18/12 Q1002;","","","","","","","","","",""
"01023199999","2007-07-12T13:10:00","64.35","7.8","0.0","DRAUGEN, NO","FM-16","4","29.59","52","64","","","","","64","FEW:02 13","","","","","","","","","","","","","","","","","","","","","","","","","","","","","","","","","","","","","","","","","","","","","","","","","","","","","","","","","","","","","","","","","","","","","","","","","","","","","","","","","","","","","","","","","","","","","","","","","","MET038METAR ENDR 121210Z FEW013 18/11 Q1002;","","","","","","","","","",""
"01023199999","2007-07-12T18:40:00","64.35","7.8","0.0","DRAUGEN, NO","FM-15","4","29.62","55","64","","","","","73","FEW:02 17 SCT:04 27","","","7.00","","","","","","","","","","","","","","","","","","","","","","","","","","","","","","","","","","","","","","","","","","","","","","","","","","","","","","","","","","","","","","","","","","","","","","","","","","","","","","","","","","","","","","","","","","","","","","","MET050METAR ENDR 121740Z 9999 FEW017 SCT027 18/13 Q1003;","","","","","","","","","",""
"01023199999","2007-07-13T07:10:00","64.35","7.8","0.0","DRAUGEN, NO","FM-15","4","29.68","55","59","","||SHRA","","","88","BKN:07 10","","","7.00","","","","","","","","","","","","","","","","","","","","","","","","","","","","","","","","","","","","","","","","","","","","","","","","","","","","","","","","","","","","","","","","","","","","","","","","","","","","","","","","","","","","","","","","","","","","","","","MET049METAR ENDR 130610Z 9999 +SHRA BKN010 15/13 Q1005;","","","","","","","","","",""
"01023199999","2007-07-13T10:10:00","64.35","7.8","0.0","DRAUGEN, NO","FM-15","4","29.71","52","63","","","","","68","SCT:04 34 BKN:07 59","","","7.00","","360","","1","","","","","","","","","","","","","","","","","","","","","","","","","","","","","","","","","","","","","","","","","","","","","","","","","","","","","","","","","","","","","","","","","","","","","","","","","","","","","","","","","","","","","","","","","","","MET058METAR ENDR 130910Z 36001KT 9999 SCT035 BKN060 17/11 Q1006;","","","","","","","","","",""
"01023199999","2007-07-13T13:10:00","64.35","7.8","0.0","DRAUGEN, NO","FM-15","4","29.74","54","59","","","","","82","FEW:02 15 BKN:07 39","","","7.00","","250","","16","","","","","","","","","","","","","","","","","","","","","","","","","","","","","","","","","","","","","","","","","","","","","","","","","","","","","","","","","","","","","","","","","","","","","","","","","","","","","","","","","","","","","","","","","","","MET058METAR ENDR 131210Z 25014KT 9999 FEW015 BKN040 15/12 Q1007;","","","","","","","","","",""
"01023199999","2007-07-17T10:00:00","64.35","7.8","0.0","DRAUGEN, NO","FM-15","4","29.80","48","59","","","","","68","FEW:02 18","","","7.00","","030","","31","","","","","","","","","","","","","","","","","","","","","","","","","","","","","","","","","","","","","","","","","","","","","","","","","","","","","","","","","","","","","","","","","","","","","","","","","","","","","","","","","","","","","","","","","","","MET051METAR ENDR 170900Z 03027KT 9999 FEW018 15/09 Q1009;","","","","","","","","","",""
"01023199999","2007-07-20T07:10:00","64.35","7.8","0.0","DRAUGEN, NO","FM-15","4","30.12","45","54","","","","","72","FEW:02 25 SCT:04 43","","","7.00","","270","","13","","","","","","","","","","","","","","","","","","","","","","","","","","","","","","","","","","","","","","","","","","","","","","","","","","","","","","","","","","","","","","","","","","","","","","","","","","","","","","","","","","","","","","","","","","","MET058METAR ENDR 200610Z 27011KT 9999 FEW025 SCT044 12/07 Q1020;","","","","","","","","","",""
"01023199999","2007-07-25T16:10:00","64.35","7.8","0.0","DRAUGEN, NO","FM-15","4","29.62","50","55","","||RA","","","82","BKN:07 0 BKN:07 0","","","7.00","","070","","9","","","","","","","","","","","","","","","","","","","","","","","","","","","","","","","","","","","","","","","","","","","","","","","","","","","","","","","","","","","","","","","","","","","","","","","","","","","","","","","","","","","","","","","","","","","MET061METAR ENDR 251510Z 07008KT 9999 RA BKN000 BKN000 13/10 Q1003;","","","","","","","","","",""
"01023199999","2007-07-26T07:10:00","64.35","7.8","0.0","DRAUGEN, NO","FM-15","4","29.59","48","54","","","","","82","SCT:04 0","","","7.00","","200","","1","","","","","","","","","","","","","","","","","","","","","","","","","","","","","","","","","","","","","","","","","","","","","","","","","","","","","","","","","","","","","","","","","","","","","","","","","","","","","","","","","","","","","","","","","","","MET051METAR ENDR 260610Z 20001KT 9999 SCT000 12/09 Q1002;","","","","","","","","","",""
"01023199999","2007-07-26T10:10:00","64.35","7.8","0.0","DRAUGEN, NO","FM-15","4","29.59","48","59","","","","","68","FEW:02 0 SCT:04 0","","","7.00","","070","","2","","","","","","","","","","","","","","","","","","","","","","","","","","","","","","","","","","","","","","","","","","","","","","","","","","","","","","","","","","","","","","","","","","","","","","","","","","","","","","","","","","","","","","","","","","","MET058METAR ENDR 260910Z 07002KT 9999 FEW000 SCT000 15/09 Q1002;","","","","","","","","","",""
"01023199999","2007-07-27T06:40:00","64.35","7.8","0.0","DRAUGEN, NO","FM-15","4","29.41","50","55","","","","","82","FEW:02 13 BKN:07 98","","","7.00","","040","","37","","","","","","","","","","","","","","","","","","","","","","","","","","","","","","","","","","","","","","","","","","","","","","","","","","","","","","","","","","","","","","","","","","","","","","","","","","","","","","","","","","","","","","","","","","","MET058METAR ENDR 270540Z 04032KT 9999 FEW013 BKN100 13/10 Q0996;","","","","","","","","","",""
"01023199999","2007-07-27T10:10:00","64.35","7.8","0.0","DRAUGEN, NO","FM-15","4","29.35","50","55","","","","","82","FEW:02 15 BKN:07 148","","","7.00","","040","","39","","","","","","","","","","","","","","","","","","","","","","","","","","","","","","","","","","","","","","","","","","","","","","","","","","","","","","","","","","","","","","","","","","","","","","","","","","","","","","","","","","","","","","","","","","","MET058METAR ENDR 270910Z 04034KT 9999 FEW015 BKN150 13/10 Q0994;","","","","","","","","","",""
"01023199999","2007-07-27T13:00:00","64.35","7.8","0.0","DRAUGEN, NO","FM-15","4","29.29","52","57","","","","","82","FEW:02 10 BKN:07 246","","","7.00","","040","","43","","","","","","","","","","","","","","","","","","","","","","","","","","","","","","","","","","","","","","","","","","","","","","","","","","","","","","","","","","","","","","","","","","","","","","","","","","","","","","","","","","","","","","","","","","","MET058METAR ENDR 271200Z 04037KT 9999 FEW010 BKN250 14/11 Q0992;","","","","","","","","","",""
"01023199999","2007-07-28T06:40:00","64.35","7.8","0.0","DRAUGEN, NO","FM-15","4","29.23","55","57","","||RA","","","94","FEW:02 4 OVC:08 45","","","3.73","","060","","6","","","","","","","","","","","","","","","","","","","","","","","","","","","","","","","","","","","","","","","","","","","","","","","","","","","","","","","","","","","","","","","","","","","","","","","","","","","","","","","","","","","","","","","","","","","MET061METAR ENDR 280540Z 06005KT 6000 RA FEW004 OVC046 14/13 Q0990;","","","","","","","","","",""
"01023199999","2007-07-28T09:40:00","64.35","7.8","0.0","DRAUGEN, NO","FM-15","4","29.23","55","55","","","","","100","FEW:02 4 BKN:07 45","","","3.73","","150","","7","","","","","","","","","","","","","","","","","","","","","","","","","","","","","","","","","","","","","","","","","","","","","","","","","","","","","","","","","","","","","","","","","","","","","","","","","","","","","","","","","","","","","","","","","","","MET058METAR ENDR 280840Z 15006KT 6000 FEW004 BKN046 13/13 Q0990;","","","","","","","","","",""
"01023199999","2007-07-28T13:10:00","64.35","7.8","0.0","DRAUGEN, NO","FM-15","4","29.26","54","57","","","","","88","OVC:08 8","","","7.00","","160","","8","","","","","","","","","","","","","","","","","","","","","","","","","","","","","","","","","","","","","","","","","","","","","","","","","","","","","","","","","","","","","","","","","","","","","","","","","","","","","","","","","","","","","","","","","","","MET051METAR ENDR 281210Z 16007KT 9999 OVC008 14/12 Q0991;","","","","","","","","","",""
"01023199999","2007-07-29T07:00:00","64.35","7.8","0.0","DRAUGEN, NO","FM-15","4","29.32","52","55","","","","","88","SCT:04 20","","","7.00","","240","","11","","","","","","","","","","","","","","","","","","","","","","","","","","","","","","","","","","","","","","","","","","","","","","","","","","","","","","","","","","","","","","","","","","","","","","","","","","","","","","","","","","","","","","","","","","","MET051METAR ENDR 290600Z 24010KT 9999 SCT020 13/11 Q0993;","","","","","","","","","",""
"01023199999","2007-07-29T13:10:00","64.35","7.8","0.0","DRAUGEN, NO","FM-15","4","29.29","54","55","","||RA","","","94","SCT:04 7 BKN:07 25 BKN:07 59","","","5.59","","270","","14","","","","","","","","","","","","","","","","","","","","","","","","","","","","","","","","","","","","","","","","","","","","","","","","","","","","","","","","","","","","","","","","","","","","","","","","","","","","","","","","","","","","","","","","","","","MET069METAR ENDR 291210Z 27012KT 9000 -RA SCT007 BKN025 BKN060 13/12 Q0992;","","","","","","","","","",""
"01023199999","2007-07-29T15:40:00","64.35","7.8","0.0","DRAUGEN, NO","FM-15","4","29.29","55","55","","||RA","","","100","SCT:04 4 BKN:07 26","","","2.49","","270","","14","","","","","","","","","","","","","","","","","","","","","","","","","","","","","","","","","","","","","","","","","","","","","","","","","","","","","","","","","","","","","","","","","","","","","","","","","","","","","","","","","","","","","","","","","","","MET062METAR ENDR 291440Z 27012KT 4000 -RA SCT004 BKN026 13/13 Q0992;","","","","","","","","","",""
"01023199999","2007-07-30T06:40:00","64.35","7.8","0.0","DRAUGEN, NO","FM-15","4","29.47","50","54","","","","","88","BKN:07 20","","","7.00","","150","","2","","","","","","","","","","","","","","","","","","","","","","","","","","","","","","","","","","","","","","","","","","","","","","","","","","","","","","","","","","","","","","","","","","","","","","","","","","","","","","","","","","","","","","","","","","","MET051METAR ENDR 300540Z 15002KT 9999 BKN020 12/10 Q0998;","","","","","","","","","",""
"01023199999","2007-07-30T10:00:00","64.35","7.8","0.0","DRAUGEN, NO","FM-15","4","29.50","52","61","","","","","72","BKN:07 69","","","7.00","","360","","2","","","","","","","","","","","","","","","","","","","","","","","","","","","","","","","","","","","","","","","","","","","","","","","","","","","","","","","","","","","","","","","","","","","","","","","","","","","","","","","","","","","","","","","","","","","MET051METAR ENDR 300900Z 36002KT 9999 BKN070 16/11 Q0999;","","","","","","","","","",""
"01023199999","2007-07-30T16:10:00","64.35","7.8","0.0","DRAUGEN, NO","FM-15","4","29.56","52","55","","","","","88","FEW:02 15 BKN:07 24 BKN:07 69","","","7.00","","310","","1","","","","","","","","","","","","","","","","","","","","","","","","","","","","","","","","","","","","","","","","","","","","","","","","","","","","","","","","","","","","","","","","","","","","","","","","","","","","","","","","","","","","","","","","","","","MET065METAR ENDR 301510Z 31001KT 9999 FEW015 BKN024 BKN070 13/11 Q1001;","","","","","","","","","",""
"01023199999","2007-07-31T07:00:00","64.35","7.8","0.0","DRAUGEN, NO","FM-15","4","29.65","54","57","","","","","88","FEW:02 7 BKN:07 26","","","7.00","","350","","14","","","","","","","","","","","","","","","","","","","","","","","","","","","","","","","","","","","","","","","","","","","","","","","","","","","","","","","","","","","","","","","","","","","","","","","","","","","","","","","","","","","","","","","","","","","MET066METAR ENDR 310600Z 35012KT 300V020 9999 FEW007 BKN026 14/12 Q1004;","","","","","","","","","",""
"01023199999","2007-07-31T13:10:00","64.35","7.8","0.0","DRAUGEN, NO","FM-15","4","29.71","52","59","","","","","77","BKN:07 12","","","7.00","","320","","10","","","","","","","","","","","","","","","","","","","","","","","","","","","","","","","","","","","","","","","","","","","","","","","","","","","","","","","","","","","","","","","","","","","","","","","","","","","","","","","","","","","","","","","","","","","MET059METAR ENDR 311210Z 32009KT 230V050 9999 BKN012 15/11 Q1006;","","","","","","","","","",""
"01023199999","2007-07-31T16:10:00","64.35","7.8","0.0","DRAUGEN, NO","FM-15","4","29.74","50","55","","","","","82","BKN:07 15 BKN:07 30","","","7.00","","310","","19","","","","","","","","","","","","","","","","","","","","","","","","","","","","","","","","","","","","","","","","","","","","","","","","","","","","","","","","","","","","","","","","","","","","","","","","","","","","","","","","","","","","","","","","","","","MET058METAR ENDR 311510Z 31017KT 9999 BKN015 BKN030 13/10 Q1007;","","","","","","","","","",""
"01023199999","2007-08-01T09:40:00","64.35","7.8","0.0","DRAUGEN, NO","FM-15","4","29.59","48","52","","","","","88","BKN:07 10 OVC:08 20","","","7.00","","180","","25","","","","","","","","","","","","","","","","","","","","","","","","","","","","","","","","","","","","","","","","","","","","","","","","","","","","","","","","","","","","","","","","","","","","","","","","","","","","","","","","","","","","","","","","","","","MET058METAR ENDR 010840Z 18022KT 9999 BKN010 OVC020 11/09 Q1002;","","","","","","","","","",""
"01023199999","2007-08-01T16:10:00","64.35","7.8","0.0","DRAUGEN, NO","FM-15","4","29.56","52","55","","","","","88","FEW:02 12 SCT:04 20 BKN:07 54","","","7.00","","210","","26","","","","","","","","","","","","","","","","","","","","","","","","","","","","","","","","","","","","","","","","","","","","","","","","","","","","","","","","","","","","","","","","","","","","","","","","","","","","","","","","","","","","","","","","","","","MET065METAR ENDR 011510Z 21023KT 9999 FEW012 SCT020 BKN055 13/11 Q1001;","","","","","","","","","",""
"01023199999","2007-08-02T07:00:00","64.35","7.8","0.0","DRAUGEN, NO","FM-15","4","29.50","48","55","","","","","77","FEW:02 20 SCT:04 69","","","7.00","","200","","33","","","","","","","","","","","","","","","","","","","","","","","","","","","","","","","","","","","","","","","","","","","","","","","","","","","","","","","","","","","","","","","","","","","","","","","","","","","","","","","","","","","","","","","","","","","MET058METAR ENDR 020600Z 20029KT 9999 FEW020 SCT070 13/09 Q0999;","","","","","","","","","",""
"01023199999","2007-08-02T13:00:00","64.35","7.8","0.0","DRAUGEN, NO","FM-15","4","29.50","50","55","","||RA","","","82","SCT:04 49 BKN:07 138","","","7.00","","200","","37","","","","","","","","","","","","","","","","","","","","","","","","","","","","","","","","","","","","","","","","","","","","","","","","","","","","","","","","","","","","","","","","","","","","","","","","","","","","","","","","","","","","","","","","","","","MET062METAR ENDR 021200Z 20032KT 9999 -RA SCT050 BKN140 13/10 Q0999;","","","","","","","","","",""
"01023199999","2007-08-02T16:40:00","64.35","7.8","0.0","DRAUGEN, NO","FM-15","4","29.53","48","55","","","","","77","SCT:04 19 BKN:07 59","","","7.00","","200","","40","","","","","","","","","","","","","","","","","","","","","","","","","","","","","","","","","","","","","","","","","","","","","","","","","","","","","","","","","","","","","","","","","","","","","","","","","","","","","","","","","","","","","","","","","","","MET058METAR ENDR 021540Z 20035KT 9999 SCT019 BKN060 13/09 Q1000;","","","","","","","","","",""
"01023199999","2007-08-03T08:40:00","64.35","7.8","0.0","DRAUGEN, NO","FM-15","4","29.80","48","52","","","","","88","FEW:02 18 SCT:04 25 BKN:07 49","","","7.00","","210","","29","","","","","","","","","","","","","","","","","","","","","","","","","","","","","","","","","","","","","","","","","","","","","","","","","","","","","","","","","","","","","","","","","","","","","","","","","","","","","","","","","","","","","","","","","","","MET065METAR ENDR 030740Z 21025KT 9999 FEW018 SCT025 BKN050 11/09 Q1009;","","","","","","","","","",""
"01023199999","2007-08-03T11:10:00","64.35","7.8","0.0","DRAUGEN, NO","FM-15","4","29.85","48","52","","||FG","","","88","FEW:02 9 SCT:04 11 BKN:07 49","","","3.73","","230","","34","","","","","","","","","","","","","","","","","","","","","","","","","","","","","","","","","","","","","","","","","","","","","","","","","","","","","","","","","","","","","","","","","","","","","","","","","","","","","","","","","","","","","","","","","","","MET070METAR ENDR 031010Z 23030KT 6000 BCFG FEW009 SCT011 BKN050 11/09 Q1011;","","","","","","","","","",""
"01023199999","2007-08-04T06:40:00","64.35","7.8","0.0","DRAUGEN, NO","FM-15","4","29.71","50","55","","||RA","","","82","OVC:08 49","","","7.00","","140","","24","","","","","","","","","","","","","","","","","","","","","","","","","","","","","","","","","","","","","","","","","","","","","","","","","","","","","","","","","","","","","","","","","","","","","","","","","","","","","","","","","","","","","","","","","","","MET055METAR ENDR 040540Z 14021KT 9999 -RA OVC050 13/10 Q1006;","","","","","","","","","",""
"01023199999","2007-08-04T10:10:00","64.35","7.8","0.0","DRAUGEN, NO","FM-15","4","29.59","50","55","","||RA","","","82","OVC:08 79","","","4.97","","130","","41","","","","","","","","","","","","","","","","","","","","","","","","","","","","","","","","","","","","","","","","","","","","","","","","","","","","","","","","","","","","","","","","","","","","","","","","","","","","","","","","","","","","","","","","","","","MET054METAR ENDR 040910Z 13036KT 8000 RA OVC080 13/10 Q1002;","","","","","","","","","",""
"01023199999","2007-08-04T13:10:00","64.35","7.8","0.0","DRAUGEN, NO","FM-15","4","29.62","55","57","","||RA","","","94","BKN:07 7 OVC:08 39","","","3.73","","190","","36","","","","","","","","","","","","","","","","","","","","","","","","","","","","","","","","","","","","","","","","","","","","","","","","","","","","","","","","","","","","","","","","","","","","","","","","","","","","","","","","","","","","","","","","","","","MET062METAR ENDR 041210Z 19031KT 6000 -RA BKN007 OVC040 14/13 Q1003;","","","","","","","","","",""
"01023199999","2007-08-04T15:40:00","64.35","7.8","0.0","DRAUGEN, NO","FM-15","4","29.68","52","55","","","","","88","BKN:07 15","","","5.59","","220","","39","","","","","","","","","","","","","","","","","","","","","","","","","","","","","","","","","","","","","","","","","","","","","","","","","","","","","","","","","","","","","","","","","","","","","","","","","","","","","","","","","","","","","","","","","","","MET051METAR ENDR 041440Z 22034KT 9000 BKN015 13/11 Q1005;","","","","","","","","","",""
"01023199999","2007-08-04T16:10:00","64.35","7.8","0.0","DRAUGEN, NO","FM-15","4","29.68","52","55","","","","","88","SCT:04 14","","","7.00","","220","","36","","","","","","","","","","","","","","","","","","","","","","","","","","","","","","","","","","","","","","","","","","","","","","","","","","","","","","","","","","","","","","","","","","","","","","","","","","","","","","","","","","","","","","","","","","","MET051METAR ENDR 041510Z 22031KT 9999 SCT014 13/11 Q1005;","","","","","","","","","",""
"01023199999","2007-08-04T19:40:00","64.35","7.8","0.0","DRAUGEN, NO","FM-15","4","29.74","54","55","","","","","94","FEW:02 13","","","7.00","","210","","32","","","","","","","","","","","","","","","","","","","","","","","","","","","","","","","","","","","","","","","","","","","","","","","","","","","","","","","","","","","","","","","","","","","","","","","","","","","","","","","","","","","","","","","","","","","MET051METAR ENDR 041840Z 21028KT 9999 FEW013 13/12 Q1007;","","","","","","","","","",""
"01023199999","2007-08-05T07:10:00","64.35","7.8","0.0","DRAUGEN, NO","FM-15","4","29.80","52","57","","","","","82","SCT:04 69","","","7.00","","150","","29","","","","","","","","","","","","","","","","","","","","","","","","","","","","","","","","","","","","","","","","","","","","","","","","","","","","","","","","","","","","","","","","","","","","","","","","","","","","","","","","","","","","","","","","","","","MET051METAR ENDR 050610Z 15025KT 9999 SCT070 14/11 Q1009;","","","","","","","","","",""
"01023199999","2007-08-05T09:40:00","64.35","7.8","0.0","DRAUGEN, NO","FM-15","4","29.80","52","57","","","","","82","BKN:07 79","","","7.00","","150","","29","","","","","","","","","","","","","","","","","","","","","","","","","","","","","","","","","","","","","","","","","","","","","","","","","","","","","","","","","","","","","","","","","","","","","","","","","","","","","","","","","","","","","","","","","","","MET051METAR ENDR 050840Z 15025KT 9999 BKN080 14/11 Q1009;","","","","","","","","","",""
"01023199999","2007-08-05T16:00:00","64.35","7.8","0.0","DRAUGEN, NO","FM-15","4","29.83","52","57","","","","","82","FEW:02 49 SCT:04 59 BKN:07 69","","","7.00","","200","","21","","","","","","","","","","","","","","","","","","","","","","","","","","","","","","","","","","","","","","","","","","","","","","","","","","","","","","","","","","","","","","","","","","","","","","","","","","","","","","","","","","","","","","","","","","","MET065METAR ENDR 051500Z 20018KT 9999 FEW050 SCT060 BKN070 14/11 Q1010;","","","","","","","","","",""
"01023199999","2007-08-06T10:10:00","64.35","7.8","0.0","DRAUGEN, NO","FM-15","4","29.97","54","57","","","","","88","BKN:07 25 BKN:07 41","","","7.00","","180","","10","","","","","","","","","","","","","","","","","","","","","","","","","","","","","","","","","","","","","","","","","","","","","","","","","","","","","","","","","","","","","","","","","","","","","","","","","","","","","","","","","","","","","","","","","","","MET058METAR ENDR 060910Z 18009KT 9999 BKN025 BKN042 14/12 Q1015;","","","","","","","","","",""
"01023199999","2007-08-06T13:00:00","64.35","7.8","0.0","DRAUGEN, NO","FM-15","4","29.97","54","61","","","","","77","SCT:04 49","","","7.00","","050","","1","","","","","","","","","","","","","","","","","","","","","","","","","","","","","","","","","","","","","","","","","","","","","","","","","","","","","","","","","","","","","","","","","","","","","","","","","","","","","","","","","","","","","","","","","","","MET051METAR ENDR 061200Z 05001KT 9999 SCT050 16/12 Q1015;","","","","","","","","","",""
"01023199999","2007-08-06T16:00:00","64.35","7.8","0.0","DRAUGEN, NO","FM-15","4","29.94","54","63","","","","","73","","","","7.00","","030","","19","","","","","","","","","","","","","","","","","","","","","","","","","","","","","","","","","","","","","","","","","","","","","","","","","","","","","","","","","","","","","","","","","","","","","","","","","","","","","","","","","","","","","","","","","","","MET048METAR ENDR 061500Z 03017KT 9999 NSC 17/12 Q1014;","","","","","","","","","",""
"01023199999","2007-08-07T16:10:00","64.35","7.8","0.0","DRAUGEN, NO","FM-15","4","29.91","54","72","","","","","53","SCT:04 84 BKN:07 98","","","7.00","","050","","23","","","","","","","","","","","","","","","","","","","","","","","","","","","","","","","","","","","","","","","","","","","","","","","","","","","","","","","","","","","","","","","","","","","","","","","","","","","","","","","","","","","","","","","","","","","MET058METAR ENDR 071510Z 05020KT 9999 SCT085 BKN100 22/12 Q1013;","","","","","","","","","",""
"01023199999","2007-08-08T06:50:00","64.35","7.8","0.0","DRAUGEN, NO","FM-15","4","30.03","54","57","","","","","88","BKN:07 32","","","7.00","","310","","11","","","","","","","","","","","","","","","","","","","","","","","","","","","","","","","","","","","","","","","","","","","","","","","","","","","","","","","","","","","","","","","","","","","","","","","","","","","","","","","","","","","","","","","","","","","MET051METAR ENDR 080550Z 31010KT 9999 BKN032 14/12 Q1017;","","","","","","","","","",""
"01023199999","2007-08-08T13:40:00","64.35","7.8","0.0","DRAUGEN, NO","FM-15","4","30.00","55","61","","","","","83","FEW:02 6 BKN:07 16 BKN:07 30","","","7.00","","020","","9","","","","","","","","","","","","","","","","","","","","","","","","","","","","","","","","","","","","","","","","","","","","","","","","","","","","","","","","","","","","","","","","","","","","","","","","","","","","","","","","","","","","","","","","","","","MET065METAR ENDR 081240Z 02008KT 9999 FEW006 BKN016 BKN030 16/13 Q1016;","","","","","","","","","",""
"01023199999","2007-08-08T15:40:00","64.35","7.8","0.0","DRAUGEN, NO","FM-16","4","30.00","55","61","","","","","83","FEW:02 6 BKN:07 94","","","","","340","","9","","","","","","","","","","","","","","","","","","","","","","","","","","","","","","","","","","","","","","","","","","","","","","","","","","","","","","","","","","","","","","","","","","","","","","","","","","","","","","","","","","","","","","","","","","","MET061METAR ENDR 081440Z 34008KT 280V020 FEW006 BKN096 16/13 Q1016;","","","","","","","","","",""
"01023199999","2007-08-09T10:10:00","64.35","7.8","0.0","DRAUGEN, NO","FM-15","4","30.09","50","55","","","","","82","BKN:07 12 SCT:04 20 BKN:07 45","","","7.00","","260","","21","","","","","","","","","","","","","","","","","","","","","","","","","","","","","","","","","","","","","","","","","","","","","","","","","","","","","","","","","","","","","","","","","","","","","","","","","","","","","","","","","","","","","","","","","","","MET065METAR ENDR 090910Z 26018KT 9999 BKN012 SCT020 BKN046 13/10 Q1019;","","","","","","","","","",""
"01023199999","2007-08-09T13:10:00","64.35","7.8","0.0","DRAUGEN, NO","FM-15","4","30.12","50","55","","","","","82","BKN:07 39","","","7.00","","260","","17","","","","","","","","","","","","","","","","","","","","","","","","","","","","","","","","","","","","","","","","","","","","","","","","","","","","","","","","","","","","","","","","","","","","","","","","","","","","","","","","","","","","","","","","","","","MET051METAR ENDR 091210Z 26015KT 9999 BKN040 13/10 Q1020;","","","","","","","","","",""
"01023199999","2007-08-10T07:10:00","64.35","7.8","0.0","DRAUGEN, NO","FM-15","4","30.15","50","57","","","","","77","FEW:02 15 BKN:07 24","","","7.00","","050","","26","","","","","","","","","","","","","","","","","","","","","","","","","","","","","","","","","","","","","","","","","","","","","","","","","","","","","","","","","","","","","","","","","","","","","","","","","","","","","","","","","","","","","","","","","","","MET058METAR ENDR 100610Z 05023KT 9999 FEW015 BKN024 14/10 Q1021;","","","","","","","","","",""
"01023199999","2007-08-10T13:20:00","64.35","7.8","0.0","DRAUGEN, NO","FM-15","4","30.09","50","57","","","","","77","","","","7.00","","050","","37","","","","","","","","","","","","","","","","","","","","","","","","","","","","","","","","","","","","","","","","","","","","","","","","","","","","","","","","","","","","","","","","","","","","","","","","","","","","","","","","","","","","","","","","","","","MET048METAR ENDR 101220Z 05032KT 9999 SKC 14/10 Q1019;","","","","","","","","","",""
"01023199999","2007-08-10T16:10:00","64.35","7.8","0.0","DRAUGEN, NO","FM-15","4","30.06","48","57","","","","","72","","","","6.15","","040","","39","","","","","","","","","","","","","","","","","","","","","","","","","","","","","","","","","","","","","","","","","","","","","","","","","","","","","","","","","","","","","","","","","","","","","","","","","","","","","","","","","","","","","","","","","","","MET045METAR ENDR 101510Z 04034KT CAVOK 14/09 Q1018;","","","","","","","","","",""
"01023199999","2007-08-11T07:10:00","64.35","7.8","0.0","DRAUGEN, NO","FM-15","4","29.91","55","57","","","","","94","BKN:07 96 BKN:07 122","","","7.00","","160","","1","","","","","","","","","","","","","","","","","","","","","","","","","","","","","","","","","","","","","","","","","","","","","","","","","","","","","","","","","","","","","","","","","","","","","","","","","","","","","","","","","","","","","","","","","","","MET058METAR ENDR 110610Z 16001KT 9999 BKN098 BKN124 14/13 Q1013;","","","","","","","","","",""
"01023199999","2007-08-11T10:10:00","64.35","7.8","0.0","DRAUGEN, NO","FM-15","4","29.91","55","59","","","","","88","FEW:02 19 BKN:07 108","","","7.00","","270","","6","","","","","","","","","","","","","","","","","","","","","","","","","","","","","","","","","","","","","","","","","","","","","","","","","","","","","","","","","","","","","","","","","","","","","","","","","","","","","","","","","","","","","","","","","","","MET061METAR ENDR 110910Z 27005KT 9999 BR FEW019 BKN110 15/13 Q1013;","","","","","","","","","",""
"01023199999","2007-08-11T13:10:00","64.35","7.8","0.0","DRAUGEN, NO","FM-15","4","29.88","54","55","","","","","94","BKN:07 4","","","7.00","","250","","11","","","","","","","","","","","","","","","","","","","","","","","","","","","","","","","","","","","","","","","","","","","","","","","","","","","","","","","","","","","","","","","","","","","","","","","","","","","","","","","","","","","","","","","","","","","MET062METAR ENDR 111210Z 25010KT 130V260 9999 BR BKN004 13/12 Q1012;","","","","","","","","","",""
"01023199999","2007-08-11T16:10:00","64.35","7.8","0.0","DRAUGEN, NO","FM-15","4","29.85","50","55","","","","","82","FEW:02 10 BKN:07 54 BKN:07 104","","","7.00","","240","","11","","","","","","","","","","","","","","","","","","","","","","","","","","","","","","","","","","","","","","","","","","","","","","","","","","","","","","","","","","","","","","","","","","","","","","","","","","","","","","","","","","","","","","","","","","","MET065METAR ENDR 111510Z 24010KT 9999 FEW010 BKN055 BKN106 13/10 Q1011;","","","","","","","","","",""
"01023199999","2007-08-12T07:10:00","64.35","7.8","0.0","DRAUGEN, NO","FM-15","4","29.80","50","55","","","","","82","SCT:04 18 BKN:07 118","","","7.00","","290","","9","","","","","","","","","","","","","","","","","","","","","","","","","","","","","","","","","","","","","","","","","","","","","","","","","","","","","","","","","","","","","","","","","","","","","","","","","","","","","","","","","","","","","","","","","","","MET058METAR ENDR 120610Z 29008KT 9999 SCT018 BKN120 13/10 Q1009;","","","","","","","","","",""
"01023199999","2007-08-12T10:10:00","64.35","7.8","0.0","DRAUGEN, NO","FM-15","4","29.80","50","55","","","","","82","SCT:04 16 BKN:07 118","","","7.00","","300","","5","","","","","","","","","","","","","","","","","","","","","","","","","","","","","","","","","","","","","","","","","","","","","","","","","","","","","","","","","","","","","","","","","","","","","","","","","","","","","","","","","","","","","","","","","","","MET066METAR ENDR 120910Z 30004KT 260V020 9999 SCT016 BKN120 13/10 Q1009;","","","","","","","","","",""
"01023199999","2007-08-12T16:10:00","64.35","7.8","0.0","DRAUGEN, NO","FM-15","4","29.77","50","61","","","","","68","SCT:04 14 BKN:07 118","","","7.00","","010","","9","","","","","","","","","","","","","","","","","","","","","","","","","","","","","","","","","","","","","","","","","","","","","","","","","","","","","","","","","","","","","","","","","","","","","","","","","","","","","","","","","","","","","","","","","","","MET058METAR ENDR 121510Z 01008KT 9999 SCT014 BKN120 16/10 Q1008;","","","","","","","","","",""
"01023199999","2007-08-13T07:10:00","64.35","7.8","0.0","DRAUGEN, NO","FM-15","4","29.59","54","57","","","","","88","OVC:08 8","","","7.00","","020","","25","","","","","","","","","","","","","","","","","","","","","","","","","","","","","","","","","","","","","","","","","","","","","","","","","","","","","","","","","","","","","","","","","","","","","","","","","","","","","","","","","","","","","","","","","","","MET054METAR ENDR 130610Z 02022KT 9999 BR OVC008 14/12 Q1002;","","","","","","","","","",""
"01023199999","2007-08-13T10:20:00","64.35","7.8","0.0","DRAUGEN, NO","FM-15","4","29.56","57","57","","","","","100","OVC:08 5","","","7.00","","020","","21","","","","","","","","","","","","","","","","","","","","","","","","","","","","","","","","","","","","","","","","","","","","","","","","","","","","","","","","","","","","","","","","","","","","","","","","","","","","","","","","","","","","","","","","","","","MET054METAR ENDR 130920Z 02018KT 9999 BR OVC005 14/14 Q1001;","","","","","","","","","",""
"01023199999","2007-08-13T13:10:00","64.35","7.8","0.0","DRAUGEN, NO","FM-15","4","29.50","55","57","","||RA","","","94","FEW:02 4 OVC:08 56","","","3.11","","130","","6","","","","","","","","","","","","","","","","","","","","","","","","","","","","","","","","","","","","","","","","","","","","","","","","","","","","","","","","","","","","","","","","","","","","","","","","","","","","","","","","","","","","","","","","","","","MET065METAR ENDR 131210Z 13005KT 5000 -RA BR FEW004 OVC057 14/13 Q0999;","","","","","","","","","",""
"01023199999","2007-08-13T16:10:00","64.35","7.8","0.0","DRAUGEN, NO","FM-15","4","29.50","55","55","","","","","100","OVC:08 4","","","7.00","","190","","17","","","","","","","","","","","","","","","","","","","","","","","","","","","","","","","","","","","","","","","","","","","","","","","","","","","","","","","","","","","","","","","","","","","","","","","","","","","","","","","","","","","","","","","","","","","MET051METAR ENDR 131510Z 19015KT 9999 OVC004 13/13 Q0999;","","","","","","","","","",""
"01023199999","2007-08-14T07:10:00","64.35","7.8","0.0","DRAUGEN, NO","FM-15","4","29.65","55","55","","","","","100","FEW:02 20 SCT:04 118","","","7.00","","150","","13","","","","","","","","","","","","","","","","","","","","","","","","","","","","","","","","","","","","","","","","","","","","","","","","","","","","","","","","","","","","","","","","","","","","","","","","","","","","","","","","","","","","","","","","","","","MET058METAR ENDR 140610Z 15011KT 9999 FEW020 SCT120 13/13 Q1004;","","","","","","","","","",""
"01023199999","2007-08-14T10:10:00","64.35","7.8","0.0","DRAUGEN, NO","FM-15","4","29.65","54","57","","","","","88","FEW:02 20 SCT:04 79","","","7.00","","130","","18","","","","","","","","","","","","","","","","","","","","","","","","","","","","","","","","","","","","","","","","","","","","","","","","","","","","","","","","","","","","","","","","","","","","","","","","","","","","","","","","","","","","","","","","","","","MET063METAR ENDR 140910Z 13016KT 9999 VCSH FEW020 SCT080 14/12 Q1004;","","","","","","","","","",""
"01023199999","2007-08-14T13:20:00","64.35","7.8","0.0","DRAUGEN, NO","FM-15","4","29.68","54","57","","","","","88","FEW:02 20 SCT:04 69","","","7.00","","120","","8","","","","","","","","","","","","","","","","","","","","","","","","","","","","","","","","","","","","","","","","","","","","","","","","","","","","","","","","","","","","","","","","","","","","","","","","","","","","","","","","","","","","","","","","","","","MET058METAR ENDR 141220Z 12007KT 9999 FEW020 SCT070 14/12 Q1005;","","","","","","","","","",""
"01023199999","2007-08-14T16:10:00","64.35","7.8","0.0","DRAUGEN, NO","FM-15","4","29.68","50","59","","","","","72","FEW:02 30 SCT:04 79","","","7.00","","130","","8","","","","","","","","","","","","","","","","","","","","","","","","","","","","","","","","","","","","","","","","","","","","","","","","","","","","","","","","","","","","","","","","","","","","","","","","","","","","","","","","","","","","","","","","","","","MET058METAR ENDR 141510Z 13007KT 9999 FEW030 SCT080 15/10 Q1005;","","","","","","","","","",""
"01023199999","2007-08-15T07:10:00","64.35","7.8","0.0","DRAUGEN, NO","FM-15","4","29.38","52","59","","","","","77","BKN:07 118","","","7.00","","100","","34","","","","","","","","","","","","","","","","","","","","","","","","","","","","","","","","","","","","","","","","","","","","","","","","","","","","","","","","","","","","","","","","","","","","","","","","","","","","","","","","","","","","","","","","","","","MET051METAR ENDR 150610Z 10030KT 9999 BKN120 15/11 Q0995;","","","","","","","","","",""
"01023199999","2007-08-15T10:10:00","64.35","7.8","0.0","DRAUGEN, NO","FM-15","4","29.26","52","59","","","","","77","OVC:08 79","","","7.00","","120","","45","","","","","","","","","","","","","","","","","","","","","","","","","","","","","","","","","","","","","","","","","","","","","","","","","","","","","","","","","","","","","","","","","","","","","","","","","","","","","","","","","","","","","","","","","","","MET051METAR ENDR 150910Z 12039KT 9999 OVC080 15/11 Q0991;","","","","","","","","","",""
"01023199999","2007-08-15T13:10:00","64.35","7.8","0.0","DRAUGEN, NO","FM-15","4","29.18","52","61","","","","","72","OVC:08 79","","","7.00","","120","","47","","","","","","","","","","","","","","","","","","","","","","","","","","","","","","","","","","","","","","","","","","","","","","","","","","","","","","","","","","","","","","","","","","","","","","","","","","","","","","","","","","","","","","","","","","","MET051METAR ENDR 151210Z 12041KT 9999 OVC080 16/11 Q0988;","","","","","","","","","",""
"01023199999","2007-08-15T16:10:00","64.35","7.8","0.0","DRAUGEN, NO","FM-15","4","29.06","52","61","","||RA","","","72","FEW:02 42 BKN:07 118","","","7.00","","120","","54","","","","","","","","","","","","","","","","","","","","","","","","","","","","","","","","","","","","","","","","","","","","","","","","","","","","","","","","","","","","","","","","","","","","","","","","","","","","","","","","","","","","","","","","","","","MET062METAR ENDR 151510Z 12047KT 9999 -RA FEW043 BKN120 16/11 Q0984;","","","","","","","","","",""
"01023199999","2007-08-16T07:10:00","64.35","7.8","0.0","DRAUGEN, NO","FM-15","4","29.21","52","57","","","","","82","FEW:02 19 BKN:07 81 BKN:07 118","","","7.00","","190","","9","","","","","","","","","","","","","","","","","","","","","","","","","","","","","","","","","","","","","","","","","","","","","","","","","","","","","","","","","","","","","","","","","","","","","","","","","","","","","","","","","","","","","","","","","","","MET065METAR ENDR 160610Z 19008KT 9999 FEW019 BKN082 BKN120 14/11 Q0989;","","","","","","","","","",""
"01023199999","2007-08-16T10:20:00","64.35","7.8","0.0","DRAUGEN, NO","FM-15","4","29.23","54","55","","","","","94","SCT:04 6 BKN:07 26 BKN:07 83","","","7.00","","120","","15","","","","","","","","","","","","","","","","","","","","","","","","","","","","","","","","","","","","","","","","","","","","","","","","","","","","","","","","","","","","","","","","","","","","","","","","","","","","","","","","","","","","","","","","","","","MET065METAR ENDR 160920Z 12013KT 9999 SCT006 BKN026 BKN084 13/12 Q0990;","","","","","","","","","",""
"01023199999","2007-08-16T13:20:00","64.35","7.8","0.0","DRAUGEN, NO","FM-15","4","29.23","52","57","","","","","82","FEW:02 25 SCT:04 86 BKN:07 118","","","7.00","","100","","22","","","","","","","","","","","","","","","","","","","","","","","","","","","","","","","","","","","","","","","","","","","","","","","","","","","","","","","","","","","","","","","","","","","","","","","","","","","","","","","","","","","","","","","","","","","MET065METAR ENDR 161220Z 10019KT 9999 FEW025 SCT087 BKN120 14/11 Q0990;","","","","","","","","","",""
"01023199999","2007-08-16T16:10:00","64.35","7.8","0.0","DRAUGEN, NO","FM-15","4","29.23","52","61","","","","","72","FEW:02 30 SCT:04 98","","","7.00","","070","","21","","","","","","","","","","","","","","","","","","","","","","","","","","","","","","","","","","","","","","","","","","","","","","","","","","","","","","","","","","","","","","","","","","","","","","","","","","","","","","","","","","","","","","","","","","","MET058METAR ENDR 161510Z 07018KT 9999 FEW030 SCT100 16/11 Q0990;","","","","","","","","","",""
"01023199999","2007-08-17T07:10:00","64.35","7.8","0.0","DRAUGEN, NO","FM-15","4","29.18","54","59","","","","","82","SCT:04 30 BKN:07 83","","","3.73","","080","","13","","","","","","","","","","","","","","","","","","","","","","","","","","","","","","","","","","","","","","","","","","","","","","","","","","","","","","","","","","","","","","","","","","","","","","","","","","","","","","","","","","","","","","","","","","","MET066METAR ENDR 170610Z 08011KT 6000 VCSH SCT030TCU BKN084 15/12 Q0988;","","","","","","","","","",""
"01023199999","2007-08-17T10:20:00","64.35","7.8","0.0","DRAUGEN, NO","FM-15","4","29.26","52","57","","","","","82","BKN:07 27 OVC:08 67","","","7.00","","240","","14","","","","","","","","","","","","","","","","","","","","","","","","","","","","","","","","","","","","","","","","","","","","","","","","","","","","","","","","","","","","","","","","","","","","","","","","","","","","","","","","","","","","","","","","","","","MET071METAR ENDR 170920Z 24012KT 220V290 9999 VCSH BKN027 OVC068 14/11 Q0991;","","","","","","","","","",""
"01023199999","2007-08-17T13:10:00","64.35","7.8","0.0","DRAUGEN, NO","FM-15","4","29.32","50","61","","","","","68","SCT:04 58 BKN:07 92 BKN:07 115","","","7.00","","350","","9","","","","","","","","","","","","","","","","","","","","","","","","","","","","","","","","","","","","","","","","","","","","","","","","","","","","","","","","","","","","","","","","","","","","","","","","","","","","","","","","","","","","","","","","","","","MET073METAR ENDR 171210Z 35008KT 310V030 9999 SCT059 BKN093 BKN117 16/10 Q0993;","","","","","","","","","",""
"01023199999","2007-08-17T16:10:00","64.35","7.8","0.0","DRAUGEN, NO","FM-15","4","29.35","52","59","","","","","77","BKN:07 60 BKN:07 77","","","7.00","","020","","14","","","","","","","","","","","","","","","","","","","","","","","","","","","","","","","","","","","","","","","","","","","","","","","","","","","","","","","","","","","","","","","","","","","","","","","","","","","","","","","","","","","","","","","","","","","MET058METAR ENDR 171510Z 02012KT 9999 BKN061 BKN078 15/11 Q0994;","","","","","","","","","",""
"01023199999","2007-08-18T07:10:00","64.35","7.8","0.0","DRAUGEN, NO","FM-15","4","29.62","52","55","","","","","88","SCT:04 10 BKN:07 62","","","7.00","","210","","9","","","","","","","","","","","","","","","","","","","","","","","","","","","","","","","","","","","","","","","","","","","","","","","","","","","","","","","","","","","","","","","","","","","","","","","","","","","","","","","","","","","","","","","","","","","MET063METAR ENDR 180610Z 21008KT 9999 VCSH SCT010 BKN063 13/11 Q1003;","","","","","","","","","",""
"01023199999","2007-08-18T10:10:00","64.35","7.8","0.0","DRAUGEN, NO","FM-15","4","29.65","54","54","","||RA","","","100","BKN:07 8 OVC:08 62","","","3.11","","240","","21","","","","","","","","","","","","","","","","","","","","","","","","","","","","","","","","","","","","","","","","","","","","","","","","","","","","","","","","","","","","","","","","","","","","","","","","","","","","","","","","","","","","","","","","","","","MET068METAR ENDR 180910Z 24018KT 5000W -RA VCSH BKN008 OVC063 12/12 Q1004;","","","","","","","","","",""
"01023199999","2007-08-18T16:20:00","64.35","7.8","0.0","DRAUGEN, NO","FM-15","4","29.74","50","54","","","","","88","BKN:07 14 BKN:07 46 BKN:07 51","","","3.11","","230","","22","","","","","","","","","","","","","","","","","","","","","","","","","","","","","","","","","","","","","","","","","","","","","","","","","","","","","","","","","","","","","","","","","","","","","","","","","","","","","","","","","","","","","","","","","","","MET071METAR ENDR 181520Z 23019KT 5000N VCSH BKN014 BKN047 BKN052 12/10 Q1007;","","","","","","","","","",""
"01023199999","2007-08-19T07:10:00","64.35","7.8","0.0","DRAUGEN, NO","FM-15","4","29.77","48","54","","","","","82","BKN:07 16 BKN:07 59","","","7.00","","210","","31","","","","","","","","","","","","","","","","","","","","","","","","","","","","","","","","","","","","","","","","","","","","","","","","","","","","","","","","","","","","","","","","","","","","","","","","","","","","","","","","","","","","","","","","","","","MET058METAR ENDR 190610Z 21027KT 9999 BKN016 BKN060 12/09 Q1008;","","","","","","","","","",""
"01023199999","2007-08-19T09:50:00","64.35","7.8","0.0","DRAUGEN, NO","FM-15","4","29.77","48","54","","","","","82","SCT:04 15 BKN:07 104","","","7.00","","210","","32","","","","","","","","","","","","","","","","","","","","","","","","","","","","","","","","","","","","","","","","","","","","","","","","","","","","","","","","","","","","","","","","","","","","","","","","","","","","","","","","","","","","","","","","","","","MET063METAR ENDR 190850Z 21028KT 9999 VCSH SCT015 BKN106 12/09 Q1008;","","","","","","","","","",""
"01023199999","2007-08-19T10:10:00","64.35","7.8","0.0","DRAUGEN, NO","FM-15","4","29.80","48","52","","","","","88","BKN:07 16 BKN:07 98 BKN:07 109","","","7.00","","220","","31","","","","","","","","","","","","","","","","","","","","","","","","","","","","","","","","","","","","","","","","","","","","","","","","","","","","","","","","","","","","","","","","","","","","","","","","","","","","","","","","","","","","","","","","","","","MET070METAR ENDR 190910Z 22027KT 9999 VCSH BKN016 BKN100 BKN111 11/09 Q1009;","","","","","","","","","",""
"01023199999","2007-08-19T13:10:00","64.35","7.8","0.0","DRAUGEN, NO","FM-15","4","29.80","48","54","","","","","82","BKN:07 15","","","7.00","","220","","30","","","","","","","","","","","","","","","","","","","","","","","","","","","","","","","","","","","","","","","","","","","","","","","","","","","","","","","","","","","","","","","","","","","","","","","","","","","","","","","","","","","","","","","","","","","MET051METAR ENDR 191210Z 22026KT 9999 BKN015 12/09 Q1009;","","","","","","","","","",""
"01023199999","2007-08-19T16:10:00","64.35","7.8","0.0","DRAUGEN, NO","FM-15","4","29.85","48","54","","","","","82","SCT:04 17","","","7.00","","290","","13","","","","","","","","","","","","","","","","","","","","","","","","","","","","","","","","","","","","","","","","","","","","","","","","","","","","","","","","","","","","","","","","","","","","","","","","","","","","","","","","","","","","","","","","","","","MET051METAR ENDR 191510Z 29011KT 9999 SCT017 12/09 Q1011;","","","","","","","","","",""
"01023199999","2007-08-20T07:10:00","64.35","7.8","0.0","DRAUGEN, NO","FM-15","4","30.00","45","55","","","","","67","BKN:07 34","","","7.00","","060","","18","","","","","","","","","","","","","","","","","","","","","","","","","","","","","","","","","","","","","","","","","","","","","","","","","","","","","","","","","","","","","","","","","","","","","","","","","","","","","","","","","","","","","","","","","","","MET054METAR ENDR 200610Z 06016KT 9999 BKN035TCU 13/07 Q1016;","","","","","","","","","",""
"01023199999","2007-08-20T10:10:00","64.35","7.8","0.0","DRAUGEN, NO","FM-15","4","30.03","45","55","","","","","67","BKN:07 23","","","7.00","","050","","26","","","","","","","","","","","","","","","","","","","","","","","","","","","","","","","","","","","","","","","","","","","","","","","","","","","","","","","","","","","","","","","","","","","","","","","","","","","","","","","","","","","","","","","","","","","MET051METAR ENDR 200910Z 05023KT 9999 BKN023 13/07 Q1017;","","","","","","","","","",""
"01023199999","2007-08-20T13:10:00","64.35","7.8","0.0","DRAUGEN, NO","FM-15","4","30.06","45","57","","","","","63","FEW:02 24 SCT:04 69","","","7.00","","050","","26","","","","","","","","","","","","","","","","","","","","","","","","","","","","","","","","","","","","","","","","","","","","","","","","","","","","","","","","","","","","","","","","","","","","","","","","","","","","","","","","","","","","","","","","","","","MET058METAR ENDR 201210Z 05023KT 9999 FEW024 SCT070 14/07 Q1018;","","","","","","","","","",""
"01023199999","2007-08-20T16:10:00","64.35","7.8","0.0","DRAUGEN, NO","FM-16","4","30.09","46","57","","","","","67","FEW:02 21 SCT:04 118","","","","","040","","29","","","","","","","","","","","","","","","","","","","","","","","","","","","","","","","","","","","","","","","","","","","","","","","","","","","","","","","","","","","","","","","","","","","","","","","","","","","","","","","","","","","","","","","","","","","MET053METAR ENDR 201510Z 04025KT FEW021 SCT120 14/08 Q1019;","","","","","","","","","",""
"01023199999","2007-08-21T07:10:00","64.35","7.8","0.0","DRAUGEN, NO","FM-15","4","30.24","46","55","","","","","72","FEW:02 22 BKN:07 157","","","7.00","","030","","22","","","","","","","","","","","","","","","","","","","","","","","","","","","","","","","","","","","","","","","","","","","","","","","","","","","","","","","","","","","","","","","","","","","","","","","","","","","","","","","","","","","","","","","","","","","MET058METAR ENDR 210610Z 03019KT 9999 FEW022 BKN159 13/08 Q1024;","","","","","","","","","",""
"01023199999","2007-08-21T10:10:00","64.35","7.8","0.0","DRAUGEN, NO","FM-15","4","30.24","46","55","","","","","72","FEW:02 22 BKN:07 166","","","7.00","","030","","19","","","","","","","","","","","","","","","","","","","","","","","","","","","","","","","","","","","","","","","","","","","","","","","","","","","","","","","","","","","","","","","","","","","","","","","","","","","","","","","","","","","","","","","","","","","MET058METAR ENDR 210910Z 03017KT 9999 FEW022 BKN169 13/08 Q1024;","","","","","","","","","",""
"01023199999","2007-08-21T16:20:00","64.35","7.8","0.0","DRAUGEN, NO","FM-15","4","30.27","45","61","","","","","55","FEW:02 23 SCT:04 167","","","7.00","","030","","15","","","","","","","","","","","","","","","","","","","","","","","","","","","","","","","","","","","","","","","","","","","","","","","","","","","","","","","","","","","","","","","","","","","","","","","","","","","","","","","","","","","","","","","","","","","MET058METAR ENDR 211520Z 03013KT 9999 FEW023 SCT170 16/07 Q1025;","","","","","","","","","",""
"01023199999","2007-08-22T07:10:00","64.35","7.8","0.0","DRAUGEN, NO","FM-15","4","30.24","43","54","","","","","67","SCT:04 29 BKN:07 124","","","7.00","","000","","0","","","","","","","","","","","","","","","","","","","","","","","","","","","","","","","","","","","","","","","","","","","","","","","","","","","","","","","","","","","","","","","","","","","","","","","","","","","","","","","","","","","","","","","","","","","MET058METAR ENDR 220610Z 00000KT 9999 SCT029 BKN126 12/06 Q1024;","","","","","","","","","",""
"01023199999","2007-08-22T10:10:00","64.35","7.8","0.0","DRAUGEN, NO","FM-15","4","30.24","45","54","","","","","72","FEW:02 24 BKN:07 82","","","7.00","","210","","9","","","","","","","","","","","","","","","","","","","","","","","","","","","","","","","","","","","","","","","","","","","","","","","","","","","","","","","","","","","","","","","","","","","","","","","","","","","","","","","","","","","","","","","","","","","MET058METAR ENDR 220910Z 21008KT 9999 FEW024 BKN083 12/07 Q1024;","","","","","","","","","",""
"01023199999","2007-08-23T07:10:00","64.35","7.8","0.0","DRAUGEN, NO","FM-15","4","30.03","50","54","","","","","88","BKN:07 10","","","7.00","","230","","14","","","","","","","","","","","","","","","","","","","","","","","","","","","","","","","","","","","","","","","","","","","","","","","","","","","","","","","","","","","","","","","","","","","","","","","","","","","","","","","","","","","","","","","","","","","MET051METAR ENDR 230610Z 23012KT 9999 BKN010 12/10 Q1017;","","","","","","","","","",""
"01023199999","2007-08-23T13:10:00","64.35","7.8","0.0","DRAUGEN, NO","FM-15","4","30.00","52","54","","||RA","","","94","BKN:07 7 BKN:07 55 OVC:08 64","","","4.97","","230","","23","","","","","","","","","","","","","","","","","","","","","","","","","","","","","","","","","","","","","","","","","","","","","","","","","","","","","","","","","","","","","","","","","","","","","","","","","","","","","","","","","","","","","","","","","","","MET074METAR ENDR 231210Z 23020KT 8000 -RA VCSH BKN007 BKN056 OVC065 12/11 Q1016;","","","","","","","","","",""
"01023199999","2007-08-23T16:20:00","64.35","7.8","0.0","DRAUGEN, NO","FM-15","4","29.94","54","54","","||RA","","","100","OVC:08 6","","","3.11","","230","","26","","","","","","","","","","","","","","","","","","","","","","","","","","","","","","","","","","","","","","","","","","","","","","","","","","","","","","","","","","","","","","","","","","","","","","","","","","","","","","","","","","","","","","","","","","","MET060METAR ENDR 231520Z 23023KT 5000 -RA VCSH OVC006 12/12 Q1014;","","","","","","","","","",""
"01023199999","2007-08-24T07:10:00","64.35","7.8","0.0","DRAUGEN, NO","FM-15","4","30.03","48","54","","","","","82","FEW:02 5 SCT:04 10 BKN:07 34","","","7.00","","250","","23","","","","","","","","","","","","","","","","","","","","","","","","","","","","","","","","","","","","","","","","","","","","","","","","","","","","","","","","","","","","","","","","","","","","","","","","","","","","","","","","","","","","","","","","","","","MET065METAR ENDR 240610Z 25020KT 9999 FEW005 SCT010 BKN035 12/09 Q1017;","","","","","","","","","",""
"01023199999","2007-08-24T10:10:00","64.35","7.8","0.0","DRAUGEN, NO","FM-15","4","30.03","48","54","","","","","82","SCT:04 15 BKN:07 34","","","7.00","","250","","23","","","","","","","","","","","","","","","","","","","","","","","","","","","","","","","","","","","","","","","","","","","","","","","","","","","","","","","","","","","","","","","","","","","","","","","","","","","","","","","","","","","","","","","","","","","MET063METAR ENDR 240910Z 25020KT 9999 VCSH SCT015 BKN035 12/09 Q1017;","","","","","","","","","",""
"01023199999","2007-08-24T16:10:00","64.35","7.8","0.0","DRAUGEN, NO","FM-15","4","29.97","48","54","","","","","82","SCT:04 15 OVC:08 722","","","7.00","","230","","22","","","","","","","","","","","","","","","","","","","","","","","","","","","","","","","","","","","","","","","","","","","","","","","","","","","","","","","","","","","","","","","","","","","","","","","","","","","","","","","","","","","","","","","","","","","MET063METAR ENDR 241510Z 23019KT 9999 VCSH SCT015 OVC900 12/09 Q1015;","","","","","","","","","",""
"01023199999","2007-08-25T07:10:00","64.35","7.8","0.0","DRAUGEN, NO","FM-15","4","29.35","52","54","","||RA","","","94","OVC:08 6","","","4.97","","260","81","67","","","","","","","","","","","","","","","","","","","","","","","","","","","","","","","","","","","","","","","","","","","","","","","","","","","","","","","","","","","","","","","","","","","","","","","","","","","","","","","","","","","","","","","","","","","MET057METAR ENDR 250610Z 26058G70KT 8000 RA OVC006 12/11 Q0994;","","","","","","","","","",""
"01023199999","2007-08-25T10:10:00","64.35","7.8","0.0","DRAUGEN, NO","FM-15","4","29.59","46","52","","","","","82","SCT:04 11 BKN:07 69","","","7.00","","270","","56","","","","","","","","","","","","","","","","","","","","","","","","","","","","","","","","","","","","","","","","","","","","","","","","","","","","","","","","","","","","","","","","","","","","","","","","","","","","","","","","","","","","","","","","","","","MET063METAR ENDR 250910Z 27049KT 9999 VCSH SCT011 BKN070 11/08 Q1002;","","","","","","","","","",""
"01023199999","2007-08-25T13:10:00","64.35","7.8","0.0","DRAUGEN, NO","FM-15","4","29.74s","48","54","","","","","82","FEW:02 12 SCT:04 30 BKN:07 39","","","7.00","","270","","41","","","","","","","","","","","","","","","","","","","","","","","","","","","","","","","","","","","","","","","","","","","","","","","","","","","","","","","","","","","","","","","","","","","","","","","","","","","","","","","","","","","","","","","","","","","MET070METAR ENDR 251210Z 27036KT 9999 VCSH FEW012 SCT030 BKN040 12/09 Q1007;","","","","","","","","","",""
"01023199999","2007-08-26T07:10:00","64.35","7.8","0.0","DRAUGEN, NO","FM-15","4","29.77","45","52","","","","","77","SCT:04 20 BKN:07 89","","","7.00","","290","","8","","","","","","","","","","","","","","","","","","","","","","","","","","","","","","","","","","","","","","","","","","","","","","","","","","","","","","","","","","","","","","","","","","","","","","","","","","","","","","","","","","","","","","","","","","","MET058METAR ENDR 260610Z 29007KT 9999 SCT020 BKN090 11/07 Q1008;","","","","","","","","","",""
"01023199999","2007-08-26T10:10:00","64.35","7.8","0.0","DRAUGEN, NO","FM-15","4","29.80","45","55","","","","","67","SCT:04 20","","","7.00","","270","","13","","","","","","","","","","","","","","","","","","","","","","","","","","","","","","","","","","","","","","","","","","","","","","","","","","","","","","","","","","","","","","","","","","","","","","","","","","","","","","","","","","","","","","","","","","","MET064METAR ENDR 260910Z 27011KT 150V280 9999 VCSH SCT020 13/07 Q1009;","","","","","","","","","",""
"01023199999","2007-08-26T13:10:00","64.35","7.8","0.0","DRAUGEN, NO","FM-15","4","29.83","45","52","","||RA","","","77","FEW:02 20 OVC:08 49","","","7.00","","270","","15","","","","","","","","","","","","","","","","","","","","","","","","","","","","","","","","","","","","","","","","","","","","","","","","","","","","","","","","","","","","","","","","","","","","","","","","","","","","","","","","","","","","","","","","","","","MET062METAR ENDR 261210Z 27013KT 9999 -RA FEW020 OVC050 11/07 Q1010;","","","","","","","","","",""
"01023199999","2007-08-26T16:10:00","64.35","7.8","0.0","DRAUGEN, NO","FM-15","4","29.80","46","52","","","","","82","SCT:04 15 BKN:07 44","","","7.00","","280","","21","","","","","","","","","","","","","","","","","","","","","","","","","","","","","","","","","","","","","","","","","","","","","","","","","","","","","","","","","","","","","","","","","","","","","","","","","","","","","","","","","","","","","","","","","","","MET063METAR ENDR 261510Z 28018KT 9999 VCSH SCT015 BKN045 11/08 Q1009;","","","","","","","","","",""
"01023199999","2007-08-27T07:10:00","64.35","7.8","0.0","DRAUGEN, NO","FM-16","4","29.77","39","50","","","","","67","SCT:04 20","","","","","330","","21","","","","","","","","","","","","","","","","","","","","","","","","","","","","","","","","","","","","","","","","","","","","","","","","","","","","","","","","","","","","","","","","","","","","","","","","","","","","","","","","","","","","","","","","","","","MET059METAR ENDR 270610Z 33018KT 300V010 VCSH SCT020 10/04 Q1008;","","","","","","","","","",""
"01023199999","2007-08-27T10:10:00","64.35","7.8","0.0","DRAUGEN, NO","FM-15","4","29.80","41","52","","||SHRA","","","67","SCT:04 20","","","7.00","","330","","26","","","","","","","","","","","","","","","","","","","","","","","","","","","","","","","","","","","","","","","","","","","","","","","","","","","","","","","","","","","","","","","","","","","","","","","","","","","","","","","","","","","","","","","","","","","MET065METAR ENDR 270910Z 33023KT 290V360 9999 -SHRA SCT020 11/05 Q1009;","","","","","","","","","",""
"01023199999","2007-08-27T13:10:00","64.35","7.8","0.0","DRAUGEN, NO","FM-15","4","29.85","41","52","","||SHRA","","","67","FEW:02 20 SCT:04 34","","","7.00","","340","","29","","","","","","","","","","","","","","","","","","","","","","","","","","","","","","","","","","","","","","","","","","","","","","","","","","","","","","","","","","","","","","","","","","","","","","","","","","","","","","","","","","","","","","","","","","","MET072METAR ENDR 271210Z 34025KT 310V020 9999 -SHRA FEW020 SCT035 11/05 Q1011;","","","","","","","","","",""
"01023199999","2007-08-27T16:10:00","64.35","7.8","0.0","DRAUGEN, NO","FM-15","4","29.85","43","54","","","","","67","SCT:04 22","","","7.00","","330","","26","","","","","","","","","","","","","","","","","","","","","","","","","","","","","","","","","","","","","","","","","","","","","","","","","","","","","","","","","","","","","","","","","","","","","","","","","","","","","","","","","","","","","","","","","","","MET056METAR ENDR 271510Z 33023KT 9999 VCSH SCT022 12/06 Q1011;","","","","","","","","","",""
"01023199999","2007-08-29T07:10:00","64.35","7.8","0.0","DRAUGEN, NO","FM-15","4","29.83","39","50","","","","","67","BKN:07 18 BKN:07 30","","","7.00","","320","","15","","","","","","","","","","","","","","","","","","","","","","","","","","","","","","","","","","","","","","","","","","","","","","","","","","","","","","","","","","","","","","","","","","","","","","","","","","","","","","","","","","","","","","","","","","","MET073METAR ENDR 290610Z 32013KT 260V030 9999 VCSH BKN018CB BKN030 10/04 Q1010;","","","","","","","","","",""
"01023199999","2007-08-29T13:20:00","64.35","7.8","0.0","DRAUGEN, NO","FM-15","4","29.85","34","52","","","","","50","SCT:04 20 FEW:02 39","","","7.00","","330","","19","","","","","","","","","","","","","","","","","","","","","","","","","","","","","","","","","","","","","","","","","","","","","","","","","","","","","","","","","","","","","","","","","","","","","","","","","","","","","","","","","","","","","","","","","","","MET068METAR ENDR 291220Z 33017KT 300V010 9999 FEW040 SCT020CB 11/01 Q1011;","","","","","","","","","",""
"01023199999","2007-08-29T15:20:00","64.35","7.8","0.0","DRAUGEN, NO","FM-15","4","29.85","37","52","","","","","58","SCT:04 25 SCT:04 44","","","7.00","","330","","16","","","","","","","","","","","","","","","","","","","","","","","","","","","","","","","","","","","","","","","","","","","","","","","","","","","","","","","","","","","","","","","","","","","","","","","","","","","","","","","","","","","","","","","","","","","MET073METAR ENDR 291420Z 33014KT 300V010 9999 VCSH SCT025CB SCT045 11/03 Q1011;","","","","","","","","","",""
"01023199999","2007-08-29T16:20:00","64.35","7.8","0.0","DRAUGEN, NO","FM-15","4","29.85","36","54","","","","","51","FEW:02 25 SCT:04 30","","","7.00","","330","","16","","","","","","","","","","","","","","","","","","","","","","","","","","","","","","","","","","","","","","","","","","","","","","","","","","","","","","","","","","","","","","","","","","","","","","","","","","","","","","","","","","","","","","","","","","","MET071METAR ENDR 291520Z 33014KT 300V010 9999 VCSH FEW025 SCT030 12/02 Q1011;","","","","","","","","","",""
"01023199999","2007-08-30T07:20:00","64.35","7.8","0.0","DRAUGEN, NO","FM-15","4","29.80","37","48","","||SHRA","","","66","SCT:04 25 SCT:04 39 BKN:07 59","","","7.00","","250","","26","","","","","","","","","","","","","","","","","","","","","","","","","","","","","","","","","","","","","","","","","","","","","","","","","","","","","","","","","","","","","","","","","","","","","","","","","","","","","","","","","","","","","","","","","","","MET070METAR ENDR 300620Z 25023KT 9999 SHRA SCT025 SCT040 BKN060 09/03 Q1009;","","","","","","","","","",""
"01023199999","2007-08-30T10:20:00","64.35","7.8","0.0","DRAUGEN, NO","FM-15","4","29.77","39","46","","||SHRA","","","76","BKN:07 28","","","7.00","","250","","26","","","","","","","","","","","","","","","","","","","","","","","","","","","","","","","","","","","","","","","","","","","","","","","","","","","","","","","","","","","","","","","","","","","","","","","","","","","","","","","","","","","","","","","","","","","MET056METAR ENDR 300920Z 25023KT 9999 SHRA BKN028 08/04 Q1008;","","","","","","","","","",""
"01023199999","2007-08-30T13:20:00","64.35","7.8","0.0","DRAUGEN, NO","FM-15","4","29.77","37","48","","","","","66","FEW:02 28 SCT:04 39 BKN:07 79","","","7.00","","290","","28","","","","","","","","","","","","","","","","","","","","","","","","","","","","","","","","","","","","","","","","","","","","","","","","","","","","","","","","","","","","","","","","","","","","","","","","","","","","","","","","","","","","","","","","","","","MET070METAR ENDR 301220Z 29024KT 9999 VCSH FEW028 SCT040 BKN080 09/03 Q1008;","","","","","","","","","",""
"01023199999","2007-08-30T17:20:00","64.35","7.8","0.0","DRAUGEN, NO","FM-15","4","29.74","37","50","","||SHRA","","","62","SCT:04 30","","","7.00","","310","","16","","","","","","","","","","","","","","","","","","","","","","","","","","","","","","","","","","","","","","","","","","","","","","","","","","","","","","","","","","","","","","","","","","","","","","","","","","","","","","","","","","","","","","","","","","","MET058METAR ENDR 301620Z 31014KT 9999 SHRA SCT030CB 10/03 Q1007;","","","","","","","","","",""
"01023199999","2007-08-31T07:20:00","64.35","7.8","0.0","DRAUGEN, NO","FM-15","4","29.71","36","48","","","","","62","SCT:04 30","","","7.00","","300","","5","","","","","","","","","","","","","","","","","","","","","","","","","","","","","","","","","","","","","","","","","","","","","","","","","","","","","","","","","","","","","","","","","","","","","","","","","","","","","","","","","","","","","","","","","","","MET064METAR ENDR 310620Z 30004KT 240V030 9999 VCSH SCT030 09/02 Q1006;","","","","","","","","","",""
"01023199999","2007-08-31T10:20:00","64.35","7.8","0.0","DRAUGEN, NO","FM-15","4","29.74","37","50","","","","","62","SCT:04 30","","","7.00","","310","","8","","","","","","","","","","","","","","","","","","","","","","","","","","","","","","","","","","","","","","","","","","","","","","","","","","","","","","","","","","","","","","","","","","","","","","","","","","","","","","","","","","","","","","","","","","","MET064METAR ENDR 310920Z 31007KT 220V070 9999 VCSH SCT030 10/03 Q1007;","","","","","","","","","",""
"01023199999","2007-08-31T13:10:00","64.35","7.8","0.0","DRAUGEN, NO","FM-15","4","29.77","36","52","","","","","54","FEW:02 30 SCT:04 74","","","7.00","","350","","6","","","","","","","","","","","","","","","","","","","","","","","","","","","","","","","","","","","","","","","","","","","","","","","","","","","","","","","","","","","","","","","","","","","","","","","","","","","","","","","","","","","","","","","","","","","MET071METAR ENDR 311210Z 35005KT 240V060 9999 VCSH FEW030 SCT075 11/02 Q1008;","","","","","","","","","",""
"01023199999","2007-08-31T16:20:00","64.35","7.8","0.0","DRAUGEN, NO","FM-15","4","29.77","36","52","","","","","54","SCT:04 30 SCT:04 49","","","7.00","","320","","10","","","","","","","","","","","","","","","","","","","","","","","","","","","","","","","","","","","","","","","","","","","","","","","","","","","","","","","","","","","","","","","","","","","","","","","","","","","","","","","","","","","","","","","","","","","MET071METAR ENDR 311520Z 32009KT 240V020 9999 VCSH SCT030 SCT050 11/02 Q1008;","","","","","","","","","",""
"01023199999","2007-09-01T07:20:00","64.35","7.8","0.0","DRAUGEN, NO","FM-15","4","29.71","37","46","","","","","71","BKN:07 30","","","7.00","","240","","5","","","","","","","","","","","","","","","","","","","","","","","","","","","","","","","","","","","","","","","","","","","","","","","","","","","","","","","","","","","","","","","","","","","","","","","","","","","","","","","","","","","","","","","","","","","MET056METAR ENDR 010620Z 24004KT 9999 VCSH BKN030 08/03 Q1006;","","","","","","","","","",""
"01023199999","2007-09-01T07:50:00","64.35","7.8","0.0","DRAUGEN, NO","FM-15","4","29.68","37","46","","","","","71","SCT:04 30 BKN:07 148","","","7.00","","250","","7","","","","","","","","","","","","","","","","","","","","","","","","","","","","","","","","","","","","","","","","","","","","","","","","","","","","","","","","","","","","","","","","","","","","","","","","","","","","","","","","","","","","","","","","","","","MET063METAR ENDR 010650Z 25006KT 9999 VCSH SCT030 BKN150 08/03 Q1005;","","","","","","","","","",""
"01023199999","2007-09-01T10:10:00","64.35","7.8","0.0","DRAUGEN, NO","FM-15","4","29.65","39","46","","||SHRA","","","76","BKN:07 27 BKN:07 108","","","7.00","","250","","11","","","","","","","","","","","","","","","","","","","","","","","","","","","","","","","","","","","","","","","","","","","","","","","","","","","","","","","","","","","","","","","","","","","","","","","","","","","","","","","","","","","","","","","","","","","MET063METAR ENDR 010910Z 25010KT 9999 SHRA BKN027 BKN110 08/04 Q1004;","","","","","","","","","",""
"01023199999","2007-09-01T13:20:00","64.35","7.8","0.0","DRAUGEN, NO","FM-15","4","29.59","39","48","","||SHRA","","","71","SCT:04 27 BKN:07 69","","","7.00","","200","","13","","","","","","","","","","","","","","","","","","","","","","","","","","","","","","","","","","","","","","","","","","","","","","","","","","","","","","","","","","","","","","","","","","","","","","","","","","","","","","","","","","","","","","","","","","","MET063METAR ENDR 011220Z 20011KT 9999 SHRA SCT027 BKN070 09/04 Q1002;","","","","","","","","","",""
"01023199999","2007-09-02T08:50:00","64.35","7.8","0.0","DRAUGEN, NO","FM-15","4","29.12","48","50","","||SHRA","","","94","SCT:04 15 BKN:07 44","","","7.00","","240","","31","","","","","","","","","","","","","","","","","","","","","","","","","","","","","","","","","","","","","","","","","","","","","","","","","","","","","","","","","","","","","","","","","","","","","","","","","","","","","","","","","","","","","","","","","","","MET063METAR ENDR 020750Z 24027KT 9999 SHRA SCT015 BKN045 10/09 Q0986;","","","","","","","","","",""
"01023199999","2007-09-02T09:20:00","64.35","7.8","0.0","DRAUGEN, NO","FM-15","4","29.12","46","50","","||SHRA","","","88","SCT:04 10 BKN:07 44","","","7.00","","240","","37","","","","","","","","","","","","","","","","","","","","","","","","","","","","","","","","","","","","","","","","","","","","","","","","","","","","","","","","","","","","","","","","","","","","","","","","","","","","","","","","","","","","","","","","","","","MET063METAR ENDR 020820Z 24032KT 9999 SHRA SCT010 BKN045 10/08 Q0986;","","","","","","","","","",""
"01023199999","2007-09-02T10:20:00","64.35","7.8","0.0","DRAUGEN, NO","FM-15","4","29.15","46","48","","||SHRA","","","94","FEW:02 10 BKN:07 20","","","3.73","","240","","26","","","","","","","","","","","","","","","","","","","","","","","","","","","","","","","","","","","","","","","","","","","","","","","","","","","","","","","","","","","","","","","","","","","","","","","","","","","","","","","","","","","","","","","","","","","MET063METAR ENDR 020920Z 24023KT 6000 SHRA FEW010 BKN020 09/08 Q0987;","","","","","","","","","",""
"01023199999","2007-09-02T13:20:00","64.35","7.8","0.0","DRAUGEN, NO","FM-15","4","29.15","46","52","","||SHRA","","","82","SCT:04 12 BKN:07 20 BKN:07 79","","","3.73","","250","","28","","","","","","","","","","","","","","","","","","","","","","","","","","","","","","","","","","","","","","","","","","","","","","","","","","","","","","","","","","","","","","","","","","","","","","","","","","","","","","","","","","","","","","","","","","","MET075METAR ENDR 021220Z 25024KT 6000 SHRA VCSH SCT012 BKN020 BKN080 11/08 Q0987;","","","","","","","","","",""
"01023199999","2007-09-02T16:20:00","64.35","7.8","0.0","DRAUGEN, NO","FM-15","4","29.21","46","54","","||SHRA","","","77","SCT:04 10 BKN:07 20 BKN:07 79","","","7.00","","330","","15","","","","","","","","","","","","","","","","","","","","","","","","","","","","","","","","","","","","","","","","","","","","","","","","","","","","","","","","","","","","","","","","","","","","","","","","","","","","","","","","","","","","","","","","","","","MET078METAR ENDR 021520Z 33013KT 300V360 9999 SHRA SCT010 BKN020 BKN080 12/08 Q0989;","","","","","","","","","",""
"01023199999","2007-09-03T07:20:00","64.35","7.8","0.0","DRAUGEN, NO","FM-15","4","29.35","41","46","","","","","82","FEW:02 15 BKN:07 25 BKN:07 59","","","7.00","","250","","24","","","","","","","","","","","","","","","","","","","","","","","","","","","","","","","","","","","","","","","","","","","","","","","","","","","","","","","","","","","","","","","","","","","","","","","","","","","","","","","","","","","","","","","","","","","MET070METAR ENDR 030620Z 25021KT 9999 VCSH FEW015 BKN025 BKN060 08/05 Q0994;","","","","","","","","","",""
"01023199999","2007-09-03T07:50:00","64.35","7.8","0.0","DRAUGEN, NO","FM-15","4","29.35","41","46","","||SHRA","","","82","FEW:02 15 BKN:07 20","","","3.11","","240","","18","","","","","","","","","","","","","","","","","","","","","","","","","","","","","","","","","","","","","","","","","","","","","","","","","","","","","","","","","","","","","","","","","","","","","","","","","","","","","","","","","","","","","","","","","","","MET063METAR ENDR 030650Z 24016KT 5000 SHRA FEW015 BKN020 08/05 Q0994;","","","","","","","","","",""
"01023199999","2007-09-03T08:50:00","64.35","7.8","0.0","DRAUGEN, NO","FM-15","4","29.38","43","48","","||SHRA","","","82","SCT:04 15 OVC:08 44","","","3.11","","350","","34","","","","","","","","","","","","","","","","","","","","","","","","","","","","","","","","","","","","","","","","","","","","","","","","","","","","","","","","","","","","","","","","","","","","","","","","","","","","","","","","","","","","","","","","","","","MET063METAR ENDR 030750Z 35030KT 5000 SHRA SCT015 OVC045 09/06 Q0995;","","","","","","","","","",""
"01023199999","2007-09-03T10:20:00","64.35","7.8","0.0","DRAUGEN, NO","FM-15","4","29.44","43","48","","||SHRA","","","82","BKN:07 15 OVC:08 30","","","3.11","","350","","34","","","","","","","","","","","","","","","","","","","","","","","","","","","","","","","","","","","","","","","","","","","","","","","","","","","","","","","","","","","","","","","","","","","","","","","","","","","","","","","","","","","","","","","","","","","MET063METAR ENDR 030920Z 35030KT 5000 SHRA BKN015 OVC030 09/06 Q0997;","","","","","","","","","",""
"01023199999","2007-09-03T13:10:00","64.35","7.8","0.0","DRAUGEN, NO","FM-15","4","29.56","39","50","","||SHRA","","","67","SCT:04 15 BKN:07 30","","","3.73","","350","61","46","","","","","","","","","","","","","","","","","","","","","","","","","","","","","","","","","","","","","","","","","","","","","","","","","","","","","","","","","","","","","","","","","","","","","","","","","","","","","","","","","","","","","","","","","","","MET066METAR ENDR 031210Z 35040G53KT 6000 SHRA SCT015 BKN030 10/04 Q1001;","","","","","","","","","",""
"01023199999","2007-09-03T16:20:00","64.35","7.8","0.0","DRAUGEN, NO","FM-15","4","29.71","39","54","","||SHRA","","","58","SCT:04 15 BKN:07 30","","","7.00","","350","","44","","","","","","","","","","","","","","","","","","","","","","","","","","","","","","","","","","","","","","","","","","","","","","","","","","","","","","","","","","","","","","","","","","","","","","","","","","","","","","","","","","","","","","","","","","","MET063METAR ENDR 031520Z 35038KT 9999 SHRA SCT015 BKN030 12/04 Q1006;","","","","","","","","","",""
"01023199999","2007-09-04T07:20:00","64.35","7.8","0.0","DRAUGEN, NO","FM-15","4","30.12","37","50","","","","","62","FEW:02 25","","","7.00","","350","","16","","","","","","","","","","","","","","","","","","","","","","","","","","","","","","","","","","","","","","","","","","","","","","","","","","","","","","","","","","","","","","","","","","","","","","","","","","","","","","","","","","","","","","","","","","","MET051METAR ENDR 040620Z 35014KT 9999 FEW025 10/03 Q1020;","","","","","","","","","",""
"01023199999","2007-09-04T07:50:00","64.35","7.8","0.0","DRAUGEN, NO","FM-15","4","30.12","37","50","","","","","62","SCT:04 30","","","7.00","","350","","16","","","","","","","","","","","","","","","","","","","","","","","","","","","","","","","","","","","","","","","","","","","","","","","","","","","","","","","","","","","","","","","","","","","","","","","","","","","","","","","","","","","","","","","","","","","MET059METAR ENDR 040650Z 35014KT 310V020 9999 SCT030 10/03 Q1020;","","","","","","","","","",""
"01023199999","2007-09-04T10:10:00","64.35","7.8","0.0","DRAUGEN, NO","FM-15","4","30.15","37","55","","","","","51","FEW:02 30","","","7.00","","360","","7","","","","","","","","","","","","","","","","","","","","","","","","","","","","","","","","","","","","","","","","","","","","","","","","","","","","","","","","","","","","","","","","","","","","","","","","","","","","","","","","","","","","","","","","","","","MET051METAR ENDR 040910Z 36006KT 9999 FEW030 13/03 Q1021;","","","","","","","","","",""
"01023199999","2007-09-04T13:20:00","64.35","7.8","0.0","DRAUGEN, NO","FM-15","4","30.12","37","50","","","","","62","SCT:04 30","","","7.00","","210","","5","","","","","","","","","","","","","","","","","","","","","","","","","","","","","","","","","","","","","","","","","","","","","","","","","","","","","","","","","","","","","","","","","","","","","","","","","","","","","","","","","","","","","","","","","","","MET051METAR ENDR 041220Z 21004KT 9999 SCT030 10/03 Q1020;","","","","","","","","","",""
"01023199999","2007-09-04T16:20:00","64.35","7.8","0.0","DRAUGEN, NO","FM-15","4","30.06","39","50","","","","","67","FEW:02 30 BKN:07 98","","","7.00","","190","","16","","","","","","","","","","","","","","","","","","","","","","","","","","","","","","","","","","","","","","","","","","","","","","","","","","","","","","","","","","","","","","","","","","","","","","","","","","","","","","","","","","","","","","","","","","","MET058METAR ENDR 041520Z 19014KT 9999 FEW030 BKN100 10/04 Q1018;","","","","","","","","","",""
"01023199999","2007-09-05T07:20:00","64.35","7.8","0.0","DRAUGEN, NO","FM-15","4","29.80","48","52","","","","","88","SCT:04 15 BKN:07 39 BKN:07 157","","","7.00","","230","","34","","","","","","","","","","","","","","","","","","","","","","","","","","","","","","","","","","","","","","","","","","","","","","","","","","","","","","","","","","","","","","","","","","","","","","","","","","","","","","","","","","","","","","","","","","","MET065METAR ENDR 050620Z 23030KT 9999 SCT015 BKN040 BKN160 11/09 Q1009;","","","","","","","","","",""
"01023199999","2007-09-05T10:20:00","64.35","7.8","0.0","DRAUGEN, NO","FM-15","4","29.80","48","52","","","","","88","SCT:04 15 BKN:07 39","","","7.00","","240","","39","","","","","","","","","","","","","","","","","","","","","","","","","","","","","","","","","","","","","","","","","","","","","","","","","","","","","","","","","","","","","","","","","","","","","","","","","","","","","","","","","","","","","","","","","","","MET058METAR ENDR 050920Z 24034KT 9999 SCT015 BKN040 11/09 Q1009;","","","","","","","","","",""
"01023199999","2007-09-05T10:50:00","64.35","7.8","0.0","DRAUGEN, NO","FM-15","4","29.80","48","52","","","","","88","SCT:04 15 BKN:07 44","","","7.00","","240","","37","","","","","","","","","","","","","","","","","","","","","","","","","","","","","","","","","","","","","","","","","","","","","","","","","","","","","","","","","","","","","","","","","","","","","","","","","","","","","","","","","","","","","","","","","","","MET058METAR ENDR 050950Z 24032KT 9999 SCT015 BKN045 11/09 Q1009;","","","","","","","","","",""
"01023199999","2007-09-05T13:20:00","64.35","7.8","0.0","DRAUGEN, NO","FM-15","4","29.83","46","52","","||SHRA","","","82","BKN:07 18","","","4.97","","240","","40","","","","","","","","","","","","","","","","","","","","","","","","","","","","","","","","","","","","","","","","","","","","","","","","","","","","","","","","","","","","","","","","","","","","","","","","","","","","","","","","","","","","","","","","","","","MET056METAR ENDR 051220Z 24035KT 8000 SHRA BKN018 11/08 Q1010;","","","","","","","","","",""
"01023199999","2007-09-05T16:20:00","64.35","7.8","0.0","DRAUGEN, NO","FM-15","4","29.83","48","52","","||SHRA","","","88","BKN:07 18 OVC:08 39","","","3.11","","240","","37","","","","","","","","","","","","","","","","","","","","","","","","","","","","","","","","","","","","","","","","","","","","","","","","","","","","","","","","","","","","","","","","","","","","","","","","","","","","","","","","","","","","","","","","","","","MET071METAR ENDR 051520Z 24032KT 180V250 5000 SHRA BKN018 OVC040 11/09 Q1010;","","","","","","","","","",""
"01023199999","2007-09-05T16:50:00","64.35","7.8","0.0","DRAUGEN, NO","FM-15","4","29.83","48","50","","||SHRA","","","94","BKN:07 11 OVC:08 39","","","3.11","","250","","39","","","","","","","","","","","","","","","","","","","","","","","","","","","","","","","","","","","","","","","","","","","","","","","","","","","","","","","","","","","","","","","","","","","","","","","","","","","","","","","","","","","","","","","","","","","MET063METAR ENDR 051550Z 25034KT 5000 SHRA BKN011 OVC040 10/09 Q1010;","","","","","","","","","",""
"01023199999","2007-09-06T07:20:00","64.35","7.8","0.0","DRAUGEN, NO","FM-15","4","29.94","39","48","","","","","71","BKN:07 30","","","7.00","","270","","44","","","","","","","","","","","","","","","","","","","","","","","","","","","","","","","","","","","","","","","","","","","","","","","","","","","","","","","","","","","","","","","","","","","","","","","","","","","","","","","","","","","","","","","","","","","MET064METAR ENDR 060620Z 27038KT 150V280 9999 VCSH BKN030 09/04 Q1014;","","","","","","","","","",""
"01023199999","2007-09-06T13:20:00","64.35","7.8","0.0","DRAUGEN, NO","FM-15","4","30.03","41","50","","","","","71","BKN:07 30","","","7.00","","280","","34","","","","","","","","","","","","","","","","","","","","","","","","","","","","","","","","","","","","","","","","","","","","","","","","","","","","","","","","","","","","","","","","","","","","","","","","","","","","","","","","","","","","","","","","","","","MET056METAR ENDR 061220Z 28030KT 9999 VCSH BKN030 10/05 Q1017;","","","","","","","","","",""
"01023199999","2007-09-06T16:10:00","64.35","7.8","0.0","DRAUGEN, NO","FM-15","4","30.06","43","48","","","","","82","BKN:07 30","","","7.00","","270","","29","","","","","","","","","","","","","","","","","","","","","","","","","","","","","","","","","","","","","","","","","","","","","","","","","","","","","","","","","","","","","","","","","","","","","","","","","","","","","","","","","","","","","","","","","","","MET051METAR ENDR 061510Z 27025KT 9999 BKN030 09/06 Q1018;","","","","","","","","","",""
"01023199999","2007-09-06T17:10:00","64.35","7.8","0.0","DRAUGEN, NO","FM-15","4","30.06","43","48","","","","","82","BKN:07 25","","","7.00","","270","","21","","","","","","","","","","","","","","","","","","","","","","","","","","","","","","","","","","","","","","","","","","","","","","","","","","","","","","","","","","","","","","","","","","","","","","","","","","","","","","","","","","","","","","","","","","","MET051METAR ENDR 061610Z 27018KT 9999 BKN025 09/06 Q1018;","","","","","","","","","",""
"01023199999","2007-09-07T07:10:00","64.35","7.8","0.0","DRAUGEN, NO","FM-15","4","29.91","46","48","","||RA","","","94","SCT:04 8 OVC:08 30","","","4.97","","080","","22","","","","","","","","","","","","","","","","","","","","","","","","","","","","","","","","","","","","","","","","","","","","","","","","","","","","","","","","","","","","","","","","","","","","","","","","","","","","","","","","","","","","","","","","","","","MET062METAR ENDR 070610Z 08019KT 8000 -RA SCT008 OVC030 09/08 Q1013;","","","","","","","","","",""
"01023199999","2007-09-07T10:10:00","64.35","7.8","0.0","DRAUGEN, NO","FM-15","4","29.94","45","50","","","","","82","SCT:04 12 BKN:07 59","","","7.00","","080","","18","","","","","","","","","","","","","","","","","","","","","","","","","","","","","","","","","","","","","","","","","","","","","","","","","","","","","","","","","","","","","","","","","","","","","","","","","","","","","","","","","","","","","","","","","","","MET058METAR ENDR 070910Z 08016KT 9999 SCT012 BKN060 10/07 Q1014;","","","","","","","","","",""
"01023199999","2007-09-07T16:40:00","64.35","7.8","0.0","DRAUGEN, NO","FM-15","4","29.91","45","52","","","","","77","BKN:07 10 BKN:07 59","","","7.00","","090","","14","","","","","","","","","","","","","","","","","","","","","","","","","","","","","","","","","","","","","","","","","","","","","","","","","","","","","","","","","","","","","","","","","","","","","","","","","","","","","","","","","","","","","","","","","","","MET058METAR ENDR 071540Z 09012KT 9999 BKN010 BKN060 11/07 Q1013;","","","","","","","","","",""
"01023199999","2007-09-08T06:40:00","64.35","7.8","0.0","DRAUGEN, NO","FM-15","4","29.68","48","50","","","","","94","SCT:04 10 BKN:07 59","","","7.00","","270","","21","","","","","","","","","","","","","","","","","","","","","","","","","","","","","","","","","","","","","","","","","","","","","","","","","","","","","","","","","","","","","","","","","","","","","","","","","","","","","","","","","","","","","","","","","","","MET058METAR ENDR 080540Z 27018KT 9999 SCT010 BKN060 10/09 Q1005;","","","","","","","","","",""
"01023199999","2007-09-08T07:10:00","64.35","7.8","0.0","DRAUGEN, NO","FM-15","4","29.68","48","50","","","","","94","FEW:02 9 SCT:04 25 BKN:07 59","","","7.00","","270","","19","","","","","","","","","","","","","","","","","","","","","","","","","","","","","","","","","","","","","","","","","","","","","","","","","","","","","","","","","","","","","","","","","","","","","","","","","","","","","","","","","","","","","","","","","","","MET065METAR ENDR 080610Z 27017KT 9999 FEW009 SCT025 BKN060 10/09 Q1005;","","","","","","","","","",""
"01023199999","2007-09-08T13:00:00","64.35","7.8","0.0","DRAUGEN, NO","FM-15","4","29.80","48","52","","","","","88","SCT:04 16 BKN:07 49","","","7.00","","300","","10","","","","","","","","","","","","","","","","","","","","","","","","","","","","","","","","","","","","","","","","","","","","","","","","","","","","","","","","","","","","","","","","","","","","","","","","","","","","","","","","","","","","","","","","","","","MET058METAR ENDR 081200Z 30009KT 9999 SCT016 BKN050 11/09 Q1009;","","","","","","","","","",""
"01023199999","2007-09-08T16:00:00","64.35","7.8","0.0","DRAUGEN, NO","FM-15","4","29.88","48","54","","","","","82","BKN:07 30 BKN:07 49","","","7.00","","330","","13","","","","","","","","","","","","","","","","","","","","","","","","","","","","","","","","","","","","","","","","","","","","","","","","","","","","","","","","","","","","","","","","","","","","","","","","","","","","","","","","","","","","","","","","","","","MET066METAR ENDR 081500Z 33011KT 290V360 9999 BKN030 BKN050 12/09 Q1012;","","","","","","","","","",""
"01023199999","2007-09-09T07:00:00","64.35","7.8","0.0","DRAUGEN, NO","FM-15","4","29.91","45","48","","","","","87","FEW:02 11 SCT:04 39","","","7.00","","250","","21","","","","","","","","","","","","","","","","","","","","","","","","","","","","","","","","","","","","","","","","","","","","","","","","","","","","","","","","","","","","","","","","","","","","","","","","","","","","","","","","","","","","","","","","","","","MET058METAR ENDR 090600Z 25018KT 9999 FEW011 SCT040 09/07 Q1013;","","","","","","","","","",""
"01023199999","2007-09-09T10:10:00","64.35","7.8","0.0","DRAUGEN, NO","FM-15","4","29.85","41","48","","","","","76","SCT:04 34","","","7.00","","220","","18","","","","","","","","","","","","","","","","","","","","","","","","","","","","","","","","","","","","","","","","","","","","","","","","","","","","","","","","","","","","","","","","","","","","","","","","","","","","","","","","","","","","","","","","","","","MET051METAR ENDR 090910Z 22016KT 9999 SCT035 09/05 Q1011;","","","","","","","","","",""
"01023199999","2007-09-09T13:10:00","64.35","7.8","0.0","DRAUGEN, NO","FM-15","4","29.80","41","48","","","","","76","SCT:04 19 SCT:04 54 BKN:07 69","","","7.00","","230","","15","","","","","","","","","","","","","","","","","","","","","","","","","","","","","","","","","","","","","","","","","","","","","","","","","","","","","","","","","","","","","","","","","","","","","","","","","","","","","","","","","","","","","","","","","","","MET065METAR ENDR 091210Z 23013KT 9999 SCT019 SCT055 BKN070 09/05 Q1009;","","","","","","","","","",""
"01023199999","2007-09-09T15:40:00","64.35","7.8","0.0","DRAUGEN, NO","FM-15","4","29.68","45","48","","||RA","","","87","BKN:07 17 OVC:08 49","","","7.00","","190","","18","","","","","","","","","","","","","","","","","","","","","","","","","","","","","","","","","","","","","","","","","","","","","","","","","","","","","","","","","","","","","","","","","","","","","","","","","","","","","","","","","","","","","","","","","","","MET061METAR ENDR 091440Z 19016KT 9999 RA BKN017 OVC050 09/07 Q1005;","","","","","","","","","",""
"01023199999","2007-09-10T05:40:00","64.35","7.8","0.0","DRAUGEN, NO","FM-15","4","29.47","46","50","","","","","88","BKN:07 15 OVC:08 59","","","7.00","","030","","16","","","","","","","","","","","","","","","","","","","","","","","","","","","","","","","","","","","","","","","","","","","","","","","","","","","","","","","","","","","","","","","","","","","","","","","","","","","","","","","","","","","","","","","","","","","MET058METAR ENDR 100440Z 03014KT 9999 BKN015 OVC060 10/08 Q0998;","","","","","","","","","",""
"01023199999","2007-09-10T10:10:00","64.35","7.8","0.0","DRAUGEN, NO","FM-16","4","29.65","45","54","","","","","72","FEW:02 17 SCT:04 20","","","","","010","","29","","","","","","","","","","","","","","","","","","","","","","","","","","","","","","","","","","","","","","","","","","","","","","","","","","","","","","","","","","","","","","","","","","","","","","","","","","","","","","","","","","","","","","","","","","","MET053METAR ENDR 100910Z 01025KT FEW017 SCT020 12/07 Q1004;","","","","","","","","","",""
"01023199999","2007-09-11T07:00:00","64.35","7.8","0.0","DRAUGEN, NO","FM-15","4","29.88","39","48","","","","","71","FEW:02 30 BKN:07 177","","","7.00","","230","","18","","","","","","","","","","","","","","","","","","","","","","","","","","","","","","","","","","","","","","","","","","","","","","","","","","","","","","","","","","","","","","","","","","","","","","","","","","","","","","","","","","","","","","","","","","","MET058METAR ENDR 110600Z 23016KT 9999 FEW030 BKN180 09/04 Q1012;","","","","","","","","","",""
"01023199999","2007-09-11T10:10:00","64.35","7.8","0.0","DRAUGEN, NO","FM-15","4","29.83","45","50","","","","","82","BKN:07 15 BKN:07 39 BKN:07 59","","","7.00","","210","","31","","","","","","","","","","","","","","","","","","","","","","","","","","","","","","","","","","","","","","","","","","","","","","","","","","","","","","","","","","","","","","","","","","","","","","","","","","","","","","","","","","","","","","","","","","","MET065METAR ENDR 110910Z 21027KT 9999 BKN015 BKN040 BKN060 10/07 Q1010;","","","","","","","","","",""
"01023199999","2007-09-11T11:40:00","64.35","7.8","0.0","DRAUGEN, NO","FM-15","4","29.77","45","50","","","","","82","BKN:07 16 BKN:07 59","","","7.00","","200","","34","","","","","","","","","","","","","","","","","","","","","","","","","","","","","","","","","","","","","","","","","","","","","","","","","","","","","","","","","","","","","","","","","","","","","","","","","","","","","","","","","","","","","","","","","","","MET058METAR ENDR 111040Z 20030KT 9999 BKN016 BKN060 10/07 Q1008;","","","","","","","","","",""
"01023199999","2007-09-11T13:10:00","64.35","7.8","0.0","DRAUGEN, NO","FM-15","4","29.71","45","50","","","","","82","FEW:02 15 BKN:07 59","","","7.00","","210","","41","","","","","","","","","","","","","","","","","","","","","","","","","","","","","","","","","","","","","","","","","","","","","","","","","","","","","","","","","","","","","","","","","","","","","","","","","","","","","","","","","","","","","","","","","","","MET058METAR ENDR 111210Z 21036KT 9999 FEW015 BKN060 10/07 Q1006;","","","","","","","","","",""
"01023199999","2007-09-11T15:00:00","64.35","7.8","0.0","DRAUGEN, NO","FM-15","4","29.65","46","50","","||RA","","","88","BKN:07 10 OVC:08 20","","","1.24","","210","","48","","","","","","","","","","","","","","","","","","","","","","","","","","","","","","","","","","","","","","","","","","","","","","","","","","","","","","","","","","","","","","","","","","","","","","","","","","","","","","","","","","","","","","","","","","","MET061METAR ENDR 111400Z 21042KT 2000 RA BKN010 OVC020 10/08 Q1004;","","","","","","","","","",""
"01023199999","2007-09-11T16:00:00","64.35","7.8","0.0","DRAUGEN, NO","FM-15","4","29.62","48","50","","||RA","","","94","BKN:07 8 OVC:08 18","","","2.49","","220","","53","","","","","","","","","","","","","","","","","","","","","","","","","","","","","","","","","","","","","","","","","","","","","","","","","","","","","","","","","","","","","","","","","","","","","","","","","","","","","","","","","","","","","","","","","","","MET061METAR ENDR 111500Z 22046KT 4000 RA BKN008 OVC018 10/09 Q1003;","","","","","","","","","",""
"01023199999","2007-09-12T10:10:00","64.35","7.8","0.0","DRAUGEN, NO","FM-15","4","29.71","46","50","","","","","88","FEW:02 10 BKN:07 16","","","7.00","","280","","33","","","","","","","","","","","","","","","","","","","","","","","","","","","","","","","","","","","","","","","","","","","","","","","","","","","","","","","","","","","","","","","","","","","","","","","","","","","","","","","","","","","","","","","","","","","MET063METAR ENDR 120910Z 28029KT 9999 VCSH FEW010 BKN016 10/08 Q1006;","","","","","","","","","",""
"01023199999","2007-09-12T13:10:00","64.35","7.8","0.0","DRAUGEN, NO","FM-15","4","29.88","43","50","","","","","76","FEW:02 18 SCT:04 20 BKN:07 30","","","7.00","","320","","45","","","","","","","","","","","","","","","","","","","","","","","","","","","","","","","","","","","","","","","","","","","","","","","","","","","","","","","","","","","","","","","","","","","","","","","","","","","","","","","","","","","","","","","","","","","MET070METAR ENDR 121210Z 32039KT 9999 VCSH FEW018 SCT020 BKN030 10/06 Q1012;","","","","","","","","","",""
"01023199999","2007-09-13T10:00:00","64.35","7.8","0.0","DRAUGEN, NO","FM-15","4","29.97","45","46","","||RA","","","93","BKN:07 20 BKN:07 30","","","7.00","","200","","17","","","","","","","","","","","","","","","","","","","","","","","","","","","","","","","","","","","","","","","","","","","","","","","","","","","","","","","","","","","","","","","","","","","","","","","","","","","","","","","","","","","","","","","","","","","MET062METAR ENDR 130900Z 20015KT 9999 -RA BKN020 BKN030 08/07 Q1015;","","","","","","","","","",""
"01023199999","2007-09-13T16:00:00","64.35","7.8","0.0","DRAUGEN, NO","FM-15","4","29.77","46","50","","||RA","","","88","BKN:07 15 OVC:08 20","","","5.59","","200","","45","","","","","","","","","","","","","","","","","","","","","","","","","","","","","","","","","","","","","","","","","","","","","","","","","","","","","","","","","","","","","","","","","","","","","","","","","","","","","","","","","","","","","","","","","","","MET062METAR ENDR 131500Z 20039KT 9000 -RA BKN015 OVC020 10/08 Q1008;","","","","","","","","","",""
"01023199999","2007-09-14T07:00:00","64.35","7.8","0.0","DRAUGEN, NO","FM-15","4","29.26","46","48","","","","","94","FEW:02 59 SCT:04 74 BKN:07 89","","","7.00","","180","","21","","","","","","","","","","","","","","","","","","","","","","","","","","","","","","","","","","","","","","","","","","","","","","","","","","","","","","","","","","","","","","","","","","","","","","","","","","","","","","","","","","","","","","","","","","","MET065METAR ENDR 140600Z 18018KT 9999 FEW060 SCT075 BKN090 09/08 Q0991;","","","","","","","","","",""
"01023199999","2007-09-14T10:00:00","64.35","7.8","0.0","DRAUGEN, NO","FM-15","4","29.18","46","50","","","","","88","BKN:07 39","","","7.00","","200","","30","","","","","","","","","","","","","","","","","","","","","","","","","","","","","","","","","","","","","","","","","","","","","","","","","","","","","","","","","","","","","","","","","","","","","","","","","","","","","","","","","","","","","","","","","","","MET051METAR ENDR 140900Z 20026KT 9999 BKN040 10/08 Q0988;","","","","","","","","","",""
"01023199999","2007-09-14T13:00:00","64.35","7.8","0.0","DRAUGEN, NO","FM-15","4","29.12","46","52","","","","","82","FEW:02 20 SCT:04 89","","","7.00","","260","","37","","","","","","","","","","","","","","","","","","","","","","","","","","","","","","","","","","","","","","","","","","","","","","","","","","","","","","","","","","","","","","","","","","","","","","","","","","","","","","","","","","","","","","","","","","","MET061METAR ENDR 141200Z 26032KT 9999 FEW020TCU SCT090 11/08 Q0986;","","","","","","","","","",""
"01023199999","2007-09-14T16:00:00","64.35","7.8","0.0","DRAUGEN, NO","FM-15","4","29.06","43","50","","","","","76","SCT:04 18 SCT:04 89","","","7.00","","210","","39","","","","","","","","","","","","","","","","","","","","","","","","","","","","","","","","","","","","","","","","","","","","","","","","","","","","","","","","","","","","","","","","","","","","","","","","","","","","","","","","","","","","","","","","","","","MET058METAR ENDR 141500Z 21034KT 9999 SCT018 SCT090 10/06 Q0984;","","","","","","","","","",""
"01023199999","2007-09-15T10:00:00","64.35","7.8","0.0","DRAUGEN, NO","FM-15","4","29.59","34","45","","","","","66","SCT:04 28 SCT:04 59 BKN:07 79","","","7.00","","260","","37","","","","","","","","","","","","","","","","","","","","","","","","","","","","","","","","","","","","","","","","","","","","","","","","","","","","","","","","","","","","","","","","","","","","","","","","","","","","","","","","","","","","","","","","","","","MET070METAR ENDR 150900Z 26032KT 9999 VCSH SCT028 SCT060 BKN080 07/01 Q1002;","","","","","","","","","",""
"01023199999","2007-09-15T13:00:00","64.35","7.8","0.0","DRAUGEN, NO","FM-15","4","29.65","32","45","","","","","61","BKN:07 30","","","7.00","","280","","41","","","","","","","","","","","","","","","","","","","","","","","","","","","","","","","","","","","","","","","","","","","","","","","","","","","","","","","","","","","","","","","","","","","","","","","","","","","","","","","","","","","","","","","","","","","MET051METAR ENDR 151200Z 28036KT 9999 BKN030 07/00 Q1004;","","","","","","","","","",""
"01023199999","2007-09-15T16:10:00","64.35","7.8","0.0","DRAUGEN, NO","FM-15","4","29.68","34","45","","","","","66","FEW:02 26 BKN:07 34","","","7.00","","270","","45","","","","","","","","","","","","","","","","","","","","","","","","","","","","","","","","","","","","","","","","","","","","","","","","","","","","","","","","","","","","","","","","","","","","","","","","","","","","","","","","","","","","","","","","","","","MET058METAR ENDR 151510Z 27039KT 9999 FEW026 BKN035 07/01 Q1005;","","","","","","","","","",""
"01023199999","2007-09-16T06:40:00","64.35","7.8","0.0","DRAUGEN, NO","FM-15","4","29.47","30","45","","","","","57","FEW:02 39 OVC:08 98","","","7.00","","130","","14","","","","","","","","","","","","","","","","","","","","","","","","","","","","","","","","","","","","","","","","","","","","","","","","","","","","","","","","","","","","","","","","","","","","","","","","","","","","","","","","","","","","","","","","","","","MET059METAR ENDR 160540Z 13012KT 9999 FEW040 OVC100 07/M01 Q0998;","","","","","","","","","",""
"01023199999","2007-09-16T09:40:00","64.35","7.8","0.0","DRAUGEN, NO","FM-15","4","29.35","30","43","","","","","61","FEW:02 27 OVC:08 39","","","7.00","","100","","32","","","","","","","","","","","","","","","","","","","","","","","","","","","","","","","","","","","","","","","","","","","","","","","","","","","","","","","","","","","","","","","","","","","","","","","","","","","","","","","","","","","","","","","","","","","MET059METAR ENDR 160840Z 10028KT 9999 FEW027 OVC040 06/M01 Q0994;","","","","","","","","","",""
"01023199999","2007-09-16T13:10:00","64.35","7.8","0.0","DRAUGEN, NO","FM-15","4","29.23","39","43","","||RA","","","87","OVC:08 16","","","3.73","","090","","30","","","","","","","","","","","","","","","","","","","","","","","","","","","","","","","","","","","","","","","","","","","","","","","","","","","","","","","","","","","","","","","","","","","","","","","","","","","","","","","","","","","","","","","","","","","MET055METAR ENDR 161210Z 09026KT 6000 -RA OVC016 06/04 Q0990;","","","","","","","","","",""
"01023199999","2007-09-16T16:40:00","64.35","7.8","0.0","DRAUGEN, NO","FM-15","4","29.21","45","46","","||RA","","","93","BKN:07 7 OVC:08 30","","","4.97","","060","","19","","","","","","","","","","","","","","","","","","","","","","","","","","","","","","","","","","","","","","","","","","","","","","","","","","","","","","","","","","","","","","","","","","","","","","","","","","","","","","","","","","","","","","","","","","","MET062METAR ENDR 161540Z 06017KT 8000 -RA BKN007 OVC030 08/07 Q0989;","","","","","","","","","",""
"01023199999","2007-09-17T06:40:00","64.35","7.8","0.0","DRAUGEN, NO","FM-15","4","29.06","45","46","","||RA","","","93","BKN:07 7 OVC:08 20","","","2.49","","350","78","66","","","","","","","","","","","","","","","","","","","","","","","","","","","","","","","","","","","","","","","","","","","","","","","","","","","","","","","","","","","","","","","","","","","","","","","","","","","","","","","","","","","","","","","","","","","MET065METAR ENDR 170540Z 35057G68KT 4000 -RA BKN007 OVC020 08/07 Q0984;","","","","","","","","","",""
"01023199999","2007-09-17T10:10:00","64.35","7.8","0.0","DRAUGEN, NO","FM-15","4","29.29","39","46","","||RA","","","76","BKN:07 18 OVC:08 30","","","3.73","","330","55","43","","","","","","","","","","","","","","","","","","","","","","","","","","","","","","","","","","","","","","","","","","","","","","","","","","","","","","","","","","","","","","","","","","","","","","","","","","","","","","","","","","","","","","","","","","","MET065METAR ENDR 170910Z 33037G48KT 6000 -RA BKN018 OVC030 08/04 Q0992;","","","","","","","","","",""
"01023199999","2007-09-17T15:40:00","64.35","7.8","0.0","DRAUGEN, NO","FM-15","4","29.47","41","48","","||RA","","","76","BKN:07 28 OVC:08 39","","","7.00","","320","","33","","","","","","","","","","","","","","","","","","","","","","","","","","","","","","","","","","","","","","","","","","","","","","","","","","","","","","","","","","","","","","","","","","","","","","","","","","","","","","","","","","","","","","","","","","","MET062METAR ENDR 171440Z 32029KT 9999 -RA BKN028 OVC040 09/05 Q0998;","","","","","","","","","",""
"01023199999","2007-09-18T06:40:00","64.35","7.8","0.0","DRAUGEN, NO","FM-15","4","29.68","34","45","","","","","66","BKN:07 49","","","7.00","","300","","25","","","","","","","","","","","","","","","","","","","","","","","","","","","","","","","","","","","","","","","","","","","","","","","","","","","","","","","","","","","","","","","","","","","","","","","","","","","","","","","","","","","","","","","","","","","MET051METAR ENDR 180540Z 30022KT 9999 BKN050 07/01 Q1005;","","","","","","","","","",""
"01023199999","2007-09-18T10:10:00","64.35","7.8","0.0","DRAUGEN, NO","FM-15","4","29.71","36","45","","","","","71","SCT:04 27 SCT:04 39","","","7.00","","270","","21","","","","","","","","","","","","","","","","","","","","","","","","","","","","","","","","","","","","","","","","","","","","","","","","","","","","","","","","","","","","","","","","","","","","","","","","","","","","","","","","","","","","","","","","","","","MET063METAR ENDR 180910Z 27018KT 9999 VCSH SCT027 SCT040 07/02 Q1006;","","","","","","","","","",""
"01023199999","2007-09-18T12:40:00","64.35","7.8","0.0","DRAUGEN, NO","FM-15","4","29.74","37","41","","","","","87","FEW:02 10 SCT:04 24","","","7.00","","280","","7","","","","","","","","","","","","","","","","","","","","","","","","","","","","","","","","","","","","","","","","","","","","","","","","","","","","","","","","","","","","","","","","","","","","","","","","","","","","","","","","","","","","","","","","","","","MET058METAR ENDR 181140Z 28006KT 9999 FEW010 SCT024 05/03 Q1007;","","","","","","","","","",""
"01023199999","2007-09-18T15:40:00","64.35","7.8","0.0","DRAUGEN, NO","FM-15","4","29.77","34","43","","","","","71","SCT:04 55","","","7.00","","270","","16","","","","","","","","","","","","","","","","","","","","","","","","","","","","","","","","","","","","","","","","","","","","","","","","","","","","","","","","","","","","","","","","","","","","","","","","","","","","","","","","","","","","","","","","","","","MET051METAR ENDR 181440Z 27014KT 9999 SCT056 06/01 Q1008;","","","","","","","","","",""
"01023199999","2007-09-19T06:50:00","64.35","7.8","0.0","DRAUGEN, NO","FM-15","4","29.59","36","45","","","","","71","FEW:02 25 SCT:04 118","","","7.00","","160","","18","","","","","","","","","","","","","","","","","","","","","","","","","","","","","","","","","","","","","","","","","","","","","","","","","","","","","","","","","","","","","","","","","","","","","","","","","","","","","","","","","","","","","","","","","","","MET058METAR ENDR 190550Z 16016KT 9999 FEW025 SCT120 07/02 Q1002;","","","","","","","","","",""
"01023199999","2007-09-19T07:00:00","64.35","7.8","0.0","DRAUGEN, NO","FM-15","4","29.59","36","45","","","","","71","FEW:02 25 BKN:07 98","","","7.00","","150","","19","","","","","","","","","","","","","","","","","","","","","","","","","","","","","","","","","","","","","","","","","","","","","","","","","","","","","","","","","","","","","","","","","","","","","","","","","","","","","","","","","","","","","","","","","","","MET058METAR ENDR 190600Z 15017KT 9999 FEW025 BKN100 07/02 Q1002;","","","","","","","","","",""
"01023199999","2007-09-19T10:10:00","64.35","7.8","0.0","DRAUGEN, NO","FM-15","4","29.53","34","46","","","","","62","BKN:07 89","","","7.00","","140","","31","","","","","","","","","","","","","","","","","","","","","","","","","","","","","","","","","","","","","","","","","","","","","","","","","","","","","","","","","","","","","","","","","","","","","","","","","","","","","","","","","","","","","","","","","","","MET051METAR ENDR 190910Z 14027KT 9999 BKN090 08/01 Q1000;","","","","","","","","","",""
"01023199999","2007-09-20T16:40:00","64.35","7.8","0.0","DRAUGEN, NO","FM-15","4","29.35","45","48","","||RA","","","87","SCT:04 15 SCT:04 39","","","7.00","","210","","25","","","","","","","","","","","","","","","","","","","","","","","","","","","","","","","","","","","","","","","","","","","","","","","","","","","","","","","","","","","","","","","","","","","","","","","","","","","","","","","","","","","","","","","","","","","MET062METAR ENDR 201540Z 21022KT 9999 -RA SCT015 SCT040 09/07 Q0994;","","","","","","","","","",""
"01023199999","2007-09-21T07:10:00","64.35","7.8","0.0","DRAUGEN, NO","FM-15","4","29.32","41","48","","||RA","","","76","BKN:07 20 OVC:08 49","","","7.00","","260","","37","","","","","","","","","","","","","","","","","","","","","","","","","","","","","","","","","","","","","","","","","","","","","","","","","","","","","","","","","","","","","","","","","","","","","","","","","","","","","","","","","","","","","","","","","","","MET062METAR ENDR 210610Z 26032KT 9999 -RA BKN020 OVC050 09/05 Q0993;","","","","","","","","","",""
"01023199999","2007-09-21T10:10:00","64.35","7.8","0.0","DRAUGEN, NO","FM-15","4","29.41","39","48","","","","","71","BKN:07 20 BKN:07 79","","","7.00","","260","","37","","","","","","","","","","","","","","","","","","","","","","","","","","","","","","","","","","","","","","","","","","","","","","","","","","","","","","","","","","","","","","","","","","","","","","","","","","","","","","","","","","","","","","","","","","","MET065METAR ENDR 210910Z 26032KT 9999 VCSH BKN020CB BKN080 09/04 Q0996;","","","","","","","","","",""
"01023199999","2007-09-21T13:10:00","64.35","7.8","0.0","DRAUGEN, NO","FM-15","4","29.44","43","46","","","","","87","OVC:08 37","","","7.00","","260","","37","","","","","","","","","","","","","","","","","","","","","","","","","","","","","","","","","","","","","","","","","","","","","","","","","","","","","","","","","","","","","","","","","","","","","","","","","","","","","","","","","","","","","","","","","","","MET056METAR ENDR 211210Z 26032KT 9999 VCSH OVC038 08/06 Q0997;","","","","","","","","","",""
"01023199999","2007-09-21T16:20:00","64.35","7.8","0.0","DRAUGEN, NO","FM-15","4","29.44","41","48","","||RA","","","76","OVC:08 20","","","7.00","","260","","37","","","","","","","","","","","","","","","","","","","","","","","","","","","","","","","","","","","","","","","","","","","","","","","","","","","","","","","","","","","","","","","","","","","","","","","","","","","","","","","","","","","","","","","","","","","MET060METAR ENDR 211520Z 26032KT 9999 -RA VCSH OVC020 09/05 Q0997;","","","","","","","","","",""
"01023199999","2007-09-22T07:10:00","64.35","7.8","0.0","DRAUGEN, NO","FM-15","4","29.38","43","46","","","","","87","FEW:02 17 SCT:04 20 BKN:07 110","","","7.00","","260","","37","","","","","","","","","","","","","","","","","","","","","","","","","","","","","","","","","","","","","","","","","","","","","","","","","","","","","","","","","","","","","","","","","","","","","","","","","","","","","","","","","","","","","","","","","","","MET072METAR ENDR 220610Z 26032KT 9999 VCSH FEW017 SCT020CB BKN112 08/06 Q0995;","","","","","","","","","",""
"01023199999","2007-09-29T07:10:00","64.35","7.8","0.0","DRAUGEN, NO","FM-15","4","30.18","34","48","","","","","58","","","","6.15","","090","","40","","","","","","","","","","","","","","","","","","","","","","","","","","","","","","","","","","","","","","","","","","","","","","","","","","","","","","","","","","","","","","","","","","","","","","","","","","","","","","","","","","","","","","","","","","","MET053METAR ENDR 290610Z 09035KT 360V130 CAVOK 09/01 Q1022;","","","","","","","","","",""
"01023199999","2007-09-29T10:10:00","64.35","7.8","0.0","DRAUGEN, NO","FM-15","4","30.21","34","48","","","","","58","","","","6.15","","110","","31","","","","","","","","","","","","","","","","","","","","","","","","","","","","","","","","","","","","","","","","","","","","","","","","","","","","","","","","","","","","","","","","","","","","","","","","","","","","","","","","","","","","","","","","","","","MET045METAR ENDR 290910Z 11027KT CAVOK 09/01 Q1023;","","","","","","","","","",""
"01023199999","2007-09-29T13:10:00","64.35","7.8","0.0","DRAUGEN, NO","FM-15","4","30.18","36","48","","","","","62","","","","6.15","","110","","23","","","","","","","","","","","","","","","","","","","","","","","","","","","","","","","","","","","","","","","","","","","","","","","","","","","","","","","","","","","","","","","","","","","","","","","","","","","","","","","","","","","","","","","","","","","MET045METAR ENDR 291210Z 11020KT CAVOK 09/02 Q1022;","","","","","","","","","",""
"01023199999","2007-09-30T07:10:00","64.35","7.8","0.0","DRAUGEN, NO","FM-15","4","29.97","46","52","","","","","82","SCT:04 167","","","7.00","","120","","40","","","","","","","","","","","","","","","","","","","","","","","","","","","","","","","","","","","","","","","","","","","","","","","","","","","","","","","","","","","","","","","","","","","","","","","","","","","","","","","","","","","","","","","","","","","MET056METAR ENDR 300610Z 12035KT 9999 VCSH SCT170 11/08 Q1015;","","","","","","","","","",""
"01023199999","2007-09-30T10:10:00","64.35","7.8","0.0","DRAUGEN, NO","FM-15","4","29.97","46","52","","","","","82","FEW:02 20 BKN:07 138","","","7.00","","130","","36","","","","","","","","","","","","","","","","","","","","","","","","","","","","","","","","","","","","","","","","","","","","","","","","","","","","","","","","","","","","","","","","","","","","","","","","","","","","","","","","","","","","","","","","","","","MET058METAR ENDR 300910Z 13031KT 9999 FEW020 BKN140 11/08 Q1015;","","","","","","","","","",""
"01023199999","2007-09-30T13:10:00","64.35","7.8","0.0","DRAUGEN, NO","FM-15","4","29.94","46","54","","","","","77","SCT:04 118","","","7.00","","130","","32","","","","","","","","","","","","","","","","","","","","","","","","","","","","","","","","","","","","","","","","","","","","","","","","","","","","","","","","","","","","","","","","","","","","","","","","","","","","","","","","","","","","","","","","","","","MET051METAR ENDR 301210Z 13028KT 9999 SCT120 12/08 Q1014;","","","","","","","","","",""
"01023199999","2007-09-30T16:40:00","64.35","7.8","0.0","DRAUGEN, NO","FM-15","4","29.94","48","55","","","","","77","SCT:04 79 BKN:07 119","","","7.00","","130","","24","","","","","","","","","","","","","","","","","","","","","","","","","","","","","","","","","","","","","","","","","","","","","","","","","","","","","","","","","","","","","","","","","","","","","","","","","","","","","","","","","","","","","","","","","","","MET058METAR ENDR 301540Z 13021KT 9999 SCT080 BKN121 13/09 Q1014;","","","","","","","","","",""
"01023199999","2007-10-01T07:10:00","64.35","7.8","0.0","DRAUGEN, NO","FM-15","4","30.06","41","48","","","","","76","OVC:08 20","","","7.00","","300","","17","","","","","","","","","","","","","","","","","","","","","","","","","","","","","","","","","","","","","","","","","","","","","","","","","","","","","","","","","","","","","","","","","","","","","","","","","","","","","","","","","","","","","","","","","","","MET051METAR ENDR 010610Z 30015KT 9999 OVC020 09/05 Q1018;","","","","","","","","","",""
"01023199999","2007-10-01T10:10:00","64.35","7.8","0.0","DRAUGEN, NO","FM-15","4","30.09","43","46","","","","","87","FEW:02 13 BKN:07 26 BKN:07 61","","","7.00","","250","","17","","","","","","","","","","","","","","","","","","","","","","","","","","","","","","","","","","","","","","","","","","","","","","","","","","","","","","","","","","","","","","","","","","","","","","","","","","","","","","","","","","","","","","","","","","","MET065METAR ENDR 010910Z 25015KT 9999 FEW013 BKN026 BKN062 08/06 Q1019;","","","","","","","","","",""
"01023199999","2007-10-01T13:10:00","64.35","7.8","0.0","DRAUGEN, NO","FM-15","4","30.12","45","48","","","","","87","BKN:07 16 OVC:08 94","","","7.00","","230","","19","","","","","","","","","","","","","","","","","","","","","","","","","","","","","","","","","","","","","","","","","","","","","","","","","","","","","","","","","","","","","","","","","","","","","","","","","","","","","","","","","","","","","","","","","","","MET058METAR ENDR 011210Z 23017KT 9999 BKN016 OVC096 09/07 Q1020;","","","","","","","","","",""
"01023199999","2007-10-01T16:20:00","64.35","7.8","0.0","DRAUGEN, NO","FM-15","4","30.12","48","48","","","","","100","OVC:08 11","","","7.00","","220","","19","","","","","","","","","","","","","","","","","","","","","","","","","","","","","","","","","","","","","","","","","","","","","","","","","","","","","","","","","","","","","","","","","","","","","","","","","","","","","","","","","","","","","","","","","","","MET051METAR ENDR 011520Z 22017KT 9999 OVC011 09/09 Q1020;","","","","","","","","","",""
"01023199999","2007-10-02T07:10:00","64.35","7.8","0.0","DRAUGEN, NO","FM-16","4","30.09","","50","","","","","","SCT:04 8 BKN:07 69","","","7.00","","220","","31","","","","","","","","","","","","","","","","","","","","","","","","","","","","","","","","","","","","","","","","","","","","","","","","","","","","","","","","","","","","","","","","","","","","","","","","","","","","","","","","","","","","","","","","","","","MET056METAR ENDR 020610Z 22027KT 9999 SCT008 BKN070 10/ Q1019;","","","","","","","","","",""
"01023199999","2007-10-02T10:10:00","64.35","7.8","0.0","DRAUGEN, NO","FM-16","4","30.09","","50","","||FG","","","","BKN:07 73","","","7.00","","220","","30","","","","","","","","","","","","","","","","","","","","","","","","","","","","","","","","","","","","","","","","","","","","","","","","","","","","","","","","","","","","","","","","","","","","","","","","","","","","","","","","","","","","","","","","","","","MET054METAR ENDR 020910Z 22026KT 9999 VCFG BKN074 10/ Q1019;","","","","","","","","","",""
"01023199999","2007-10-02T13:10:00","64.35","7.8","0.0","DRAUGEN, NO","FM-16","4","30.09","","50","","||FG","","","","BKN:07 40 BKN:07 74","","","7.00","","210","","29","","","","","","","","","","","","","","","","","","","","","","","","","","","","","","","","","","","","","","","","","","","","","","","","","","","","","","","","","","","","","","","","","","","","","","","","","","","","","","","","","","","","","","","","","","","MET061METAR ENDR 021210Z 21025KT 9999 VCFG BKN041 BKN075 10/ Q1019;","","","","","","","","","",""
"01023199999","2007-10-02T16:10:00","64.35","7.8","0.0","DRAUGEN, NO","FM-15","4","30.06","46","50","","","","","88","BKN:07 59 BKN:07 143","","","7.00","","210","","31","","","","","","","","","","","","","","","","","","","","","","","","","","","","","","","","","","","","","","","","","","","","","","","","","","","","","","","","","","","","","","","","","","","","","","","","","","","","","","","","","","","","","","","","","","","MET058METAR ENDR 021510Z 21027KT 9999 BKN060 BKN145 10/08 Q1018;","","","","","","","","","",""
"01023199999","2007-10-03T07:10:00","64.35","7.8","0.0","DRAUGEN, NO","FM-15","4","29.97","48","50","","","","","94","BKN:07 10 BKN:07 110","","","7.00","","210","","33","","","","","","","","","","","","","","","","","","","","","","","","","","","","","","","","","","","","","","","","","","","","","","","","","","","","","","","","","","","","","","","","","","","","","","","","","","","","","","","","","","","","","","","","","","","MET058METAR ENDR 030610Z 21029KT 9999 BKN010 BKN112 10/09 Q1015;","","","","","","","","","",""
"01023199999","2007-10-03T10:10:00","64.35","7.8","0.0","DRAUGEN, NO","FM-15","4","30.00","48","50","","||RA","","","94","OVC:08 9","","","3.11","","210","","36","","","","","","","","","","","","","","","","","","","","","","","","","","","","","","","","","","","","","","","","","","","","","","","","","","","","","","","","","","","","","","","","","","","","","","","","","","","","","","","","","","","","","","","","","","","MET058METAR ENDR 030910Z 21031KT 5000 -RA BR OVC009 10/09 Q1016;","","","","","","","","","",""
"01023199999","2007-10-03T13:10:00","64.35","7.8","0.0","DRAUGEN, NO","FM-15","4","30.03","48","50","","||RA","","","94","OVC:08 7","","","0.99","","230","","34","","","","","","","","","","","","","","","","","","","","","","","","","","","","","","","","","","","","","","","","","","","","","","","","","","","","","","","","","","","","","","","","","","","","","","","","","","","","","","","","","","","","","","","","","","","MET058METAR ENDR 031210Z 23030KT 1600 -RA BR OVC007 10/09 Q1017;","","","","","","","","","",""
"01023199999","2007-10-03T16:10:00","64.35","7.8","0.0","DRAUGEN, NO","FM-15","4","30.06","50","50","","||DZ","","","100","OVC:08 7","","","1.43","","230","","26","","","","","","","","","","","","","","","","","","","","","","","","","","","","","","","","","","","","","","","","","","","","","","","","","","","","","","","","","","","","","","","","","","","","","","","","","","","","","","","","","","","","","","","","","","","MET058METAR ENDR 031510Z 23023KT 2300 -DZ BR OVC007 10/10 Q1018;","","","","","","","","","",""
"01023199999","2007-10-04T07:10:00","64.35","7.8","0.0","DRAUGEN, NO","FM-15","4","30.15","48","50","","","","","94","","","","6.15","","150","","5","","","","","","","","","","","","","","","","","","","","","","","","","","","","","","","","","","","","","","","","","","","","","","","","","","","","","","","","","","","","","","","","","","","","","","","","","","","","","","","","","","","","","","","","","","","MET045METAR ENDR 040610Z 15004KT CAVOK 10/09 Q1021;","","","","","","","","","",""
"01023199999","2007-10-04T10:10:00","64.35","7.8","0.0","DRAUGEN, NO","FM-15","4","30.15","46","52","","","","","82","","","","6.15","","000","","0","","","","","","","","","","","","","","","","","","","","","","","","","","","","","","","","","","","","","","","","","","","","","","","","","","","","","","","","","","","","","","","","","","","","","","","","","","","","","","","","","","","","","","","","","","","MET045METAR ENDR 040910Z 00000KT CAVOK 11/08 Q1021;","","","","","","","","","",""
"01023199999","2007-10-04T13:10:00","64.35","7.8","0.0","DRAUGEN, NO","FM-15","4","30.15","48","55","","||FG","","","77","SCT:04 125 SCT:04 162 BKN:07 211","","","4.35","","050","","8","","","","","","","","","","","","","","","","","","","","","","","","","","","","","","","","","","","","","","","","","","","","","","","","","","","","","","","","","","","","","","","","","","","","","","","","","","","","","","","","","","","","","","","","","","","MET070METAR ENDR 041210Z 05007KT 7000 VCFG SCT127 SCT165 BKN214 13/09 Q1021;","","","","","","","","","",""
"01023199999","2007-10-04T16:10:00","64.35","7.8","0.0","DRAUGEN, NO","FM-15","4","30.15","48","52","","||FG","","","88","BKN:07 126","","","3.73","","040","","15","","","","","","","","","","","","","","","","","","","","","","","","","","","","","","","","","","","","","","","","","","","","","","","","","","","","","","","","","","","","","","","","","","","","","","","","","","","","","","","","","","","","","","","","","","","MET056METAR ENDR 041510Z 04013KT 6000 VCFG BKN128 11/09 Q1021;","","","","","","","","","",""
"01023199999","2007-10-05T07:10:00","64.35","7.8","0.0","DRAUGEN, NO","FM-16","4","30.30","48","48","","","","","100","","","","6.15","","000","","0","","","","","","","","","","","","","","","","","","","","","","","","","","","","","","","","","","","","","","","","","","","","","","","","","","","","","","","","","","","","","","","","","","","","","","","","","","","","","","","","","","","","","","","","","","","MET048METAR ENDR 050610Z 00000KT BR CAVOK 09/09 Q1026;","","","","","","","","","",""
"01023199999","2007-10-05T13:10:00","64.35","7.8","0.0","DRAUGEN, NO","FM-15","4","30.33","46","46","","||FG","","","100","VV:09 3","","","0.31","","210","","5","","","","","","","","","","","","","","","","","","","","","","","","","","","","","","","","","","","","","","","","","","","","","","","","","","","","","","","","","","","","","","","","","","","","","","","","","","","","","","","","","","","","","","","","","","","MET053METAR ENDR 051210Z 21004KT 0500 FG VV003 08/08 Q1027;","","","","","","","","","",""
"01023199999","2007-10-05T16:10:00","64.35","7.8","0.0","DRAUGEN, NO","FM-15","4","30.33","45","45","","","","","100","VV:09 2","","","1.24","","180","","5","","","","","","","","","","","","","","","","","","","","","","","","","","","","","","","","","","","","","","","","","","","","","","","","","","","","","","","","","","","","","","","","","","","","","","","","","","","","","","","","","","","","","","","","","","","MET061METAR ENDR 051510Z 18004KT 160V220 2000 BR VV002 07/07 Q1027;","","","","","","","","","",""
"01023199999","2007-10-06T10:10:00","64.35","7.8","0.0","DRAUGEN, NO","FM-15","4","30.12","46","50","","","","","88","SCT:04 59 BKN:07 89","","","7.00","","170","","16","","","","","","","","","","","","","","","","","","","","","","","","","","","","","","","","","","","","","","","","","","","","","","","","","","","","","","","","","","","","","","","","","","","","","","","","","","","","","","","","","","","","","","","","","","","MET058METAR ENDR 060910Z 17014KT 9999 SCT060 BKN090 10/08 Q1020;","","","","","","","","","",""
"01023199999","2007-10-06T16:10:00","64.35","7.8","0.0","DRAUGEN, NO","FM-15","4","30.00","46","52","","||RA","","","82","OVC:08 34","","","7.00","","140","","26","","","","","","","","","","","","","","","","","","","","","","","","","","","","","","","","","","","","","","","","","","","","","","","","","","","","","","","","","","","","","","","","","","","","","","","","","","","","","","","","","","","","","","","","","","","MET055METAR ENDR 061510Z 14023KT 9999 -RA OVC035 11/08 Q1016;","","","","","","","","","",""
"01023199999","2007-10-07T07:10:00","64.35","7.8","0.0","DRAUGEN, NO","FM-15","4","29.65","43","46","","||RA","","","87","BKN:07 15 OVC:08 64","","","7.00","","190","","37","","","","","","","","","","","","","","","","","","","","","","","","","","","","","","","","","","","","","","","","","","","","","","","","","","","","","","","","","","","","","","","","","","","","","","","","","","","","","","","","","","","","","","","","","","","MET061METAR ENDR 070610Z 19032KT 9999 RA BKN015 OVC065 08/06 Q1004;","","","","","","","","","",""
"01023199999","2007-10-07T16:00:00","64.35","7.8","0.0","DRAUGEN, NO","FM-15","4","29.62","39","46","","","","","76","SCT:04 20","","","7.00","","290","","41","","","","","","","","","","","","","","","","","","","","","","","","","","","","","","","","","","","","","","","","","","","","","","","","","","","","","","","","","","","","","","","","","","","","","","","","","","","","","","","","","","","","","","","","","","","MET056METAR ENDR 071500Z 29036KT 9999 VCSH SCT020 08/04 Q1003;","","","","","","","","","",""
"01023199999","2007-10-09T16:10:00","64.35","7.8","0.0","DRAUGEN, NO","FM-15","4","30.12","39","46","","","","","76","BKN:07 20","","","7.00","","320","","22","","","","","","","","","","","","","","","","","","","","","","","","","","","","","","","","","","","","","","","","","","","","","","","","","","","","","","","","","","","","","","","","","","","","","","","","","","","","","","","","","","","","","","","","","","","MET056METAR ENDR 091510Z 32019KT 9999 VCSH BKN020 08/04 Q1020;","","","","","","","","","",""
"01023199999","2007-10-10T10:10:00","64.35","7.8","0.0","DRAUGEN, NO","FM-16","4","30.24","28","43","","","","","57","SCT:04 15","","","","","320","","17","","","","","","","","","","","","","","","","","","","","","","","","","","","","","","","","","","","","","","","","","","","","","","","","","","","","","","","","","","","","","","","","","","","","","","","","","","","","","","","","","","","","","","","","","","","MET060METAR ENDR 100910Z 32015KT 280V360 VCSH SCT015 06/M02 Q1024;","","","","","","","","","",""
"01023199999","2007-10-10T13:10:00","64.35","7.8","0.0","DRAUGEN, NO","FM-15","4","30.27","28","39","","","","","65","SCT:04 24","","","7.00","","300","","11","","","","","","","","","","","","","","","","","","","","","","","","","","","","","","","","","","","","","","","","","","","","","","","","","","","","","","","","","","","","","","","","","","","","","","","","","","","","","","","","","","","","","","","","","","","MET057METAR ENDR 101210Z 30010KT 9999 VCSH SCT024 04/M02 Q1025;","","","","","","","","","",""
"01023199999","2007-10-10T16:10:00","64.35","7.8","0.0","DRAUGEN, NO","FM-15","4","30.27","27","43","","","","","53","BKN:07 34","","","7.00","","330","","10","","","","","","","","","","","","","","","","","","","","","","","","","","","","","","","","","","","","","","","","","","","","","","","","","","","","","","","","","","","","","","","","","","","","","","","","","","","","","","","","","","","","","","","","","","","MET065METAR ENDR 101510Z 33009KT 260V030 9999 VCSH BKN035 06/M03 Q1025;","","","","","","","","","",""
"01023199999","2007-10-11T07:10:00","64.35","7.8","0.0","DRAUGEN, NO","FM-15","4","29.85","34","37","","||RA","","","87","OVC:08 15","","","7.00","","130","","28","","","","","","","","","","","","","","","","","","","","","","","","","","","","","","","","","","","","","","","","","","","","","","","","","","","","","","","","","","","","","","","","","","","","","","","","","","","","","","","","","","","","","","","","","","","MET054METAR ENDR 110610Z 13024KT 9999 RA OVC015 03/01 Q1011;","","","","","","","","","",""
"01023199999","2007-10-11T10:10:00","64.35","7.8","0.0","DRAUGEN, NO","FM-15","4","29.62","37","37","","||RA","","","100","OVC:08 9","","","2.49","","100","","48","","","","","","","","","","","","","","","","","","","","","","","","","","","","","","","","","","","","","","","","","","","","","","","","","","","","","","","","","","","","","","","","","","","","","","","","","","","","","","","","","","","","","","","","","","","MET054METAR ENDR 110910Z 10042KT 4000 RA OVC009 03/03 Q1003;","","","","","","","","","",""
"01023199999","2007-10-11T13:10:00","64.35","7.8","0.0","DRAUGEN, NO","FM-15","4","29.50","39","39","","||RA","","","100","OVC:08 9","","","2.49","","090","","40","","","","","","","","","","","","","","","","","","","","","","","","","","","","","","","","","","","","","","","","","","","","","","","","","","","","","","","","","","","","","","","","","","","","","","","","","","","","","","","","","","","","","","","","","","","MET063METAR ENDR 111210Z 09035KT 270V100 4000 +RA OVC009 04/04 Q0999;","","","","","","","","","",""
"01023199999","2007-10-12T07:10:00","64.35","7.8","0.0","DRAUGEN, NO","FM-15","4","30.15","32","41","","","","","70","FEW:02 20 BKN:07 59","","","7.00","","010","","17","","","","","","","","","","","","","","","","","","","","","","","","","","","","","","","","","","","","","","","","","","","","","","","","","","","","","","","","","","","","","","","","","","","","","","","","","","","","","","","","","","","","","","","","","","","MET064METAR ENDR 120610Z 01015KT 9999 VCSH FEW020 BKN060 05/M00 Q1021;","","","","","","","","","",""
"01023199999","2007-10-12T10:10:00","64.35","7.8","0.0","DRAUGEN, NO","FM-15","4","30.24","32","46","","","","","57","FEW:02 20 SCT:04 54","","","7.00","","020","","13","","","","","","","","","","","","","","","","","","","","","","","","","","","","","","","","","","","","","","","","","","","","","","","","","","","","","","","","","","","","","","","","","","","","","","","","","","","","","","","","","","","","","","","","","","","MET063METAR ENDR 120910Z 02011KT 9999 VCSH FEW020 SCT055 08/00 Q1024;","","","","","","","","","",""
"01023199999","2007-10-13T10:20:00","64.35","7.8","0.0","DRAUGEN, NO","FM-15","4","29.94","48","48","","||RA","","","100","OVC:08 5","","","1.86","","210","","44","","","","","","","","","","","","","","","","","","","","","","","","","","","","","","","","","","","","","","","","","","","","","","","","","","","","","","","","","","","","","","","","","","","","","","","","","","","","","","","","","","","","","","","","","","","MET054METAR ENDR 130920Z 21038KT 3000 RA OVC005 09/09 Q1014;","","","","","","","","","",""
"01023199999","2007-10-16T16:10:00","64.35","7.8","0.0","DRAUGEN, NO","FM-15","4","29.23","45","46","","||SHRA","","","93","SCT:04 15 BKN:07 25","","","5.59","","210","","38","","","","","","","","","","","","","","","","","","","","","","","","","","","","","","","","","","","","","","","","","","","","","","","","","","","","","","","","","","","","","","","","","","","","","","","","","","","","","","","","","","","","","","","","","","","MET066METAR ENDR 161510Z 21033KT 9000 SHRA SCT015TCU BKN025 08/07 Q0990;","","","","","","","","","",""
"01023199999","2007-10-17T07:10:00","64.35","7.8","0.0","DRAUGEN, NO","FM-15","4","29.23","39","46","","","","","76","BKN:07 17","","","7.00","","270","","53","","","","","","","","","","","","","","","","","","","","","","","","","","","","","","","","","","","","","","","","","","","","","","","","","","","","","","","","","","","","","","","","","","","","","","","","","","","","","","","","","","","","","","","","","","","MET056METAR ENDR 170610Z 27046KT 9999 VCSH BKN017 08/04 Q0990;","","","","","","","","","",""
"01023199999","2007-10-17T10:10:00","64.35","7.8","0.0","DRAUGEN, NO","FM-15","4","29.38","39","45","","||SHRA","","","81","BKN:07 17","","","7.00","","280","","46","","","","","","","","","","","","","","","","","","","","","","","","","","","","","","","","","","","","","","","","","","","","","","","","","","","","","","","","","","","","","","","","","","","","","","","","","","","","","","","","","","","","","","","","","","","MET062METAR ENDR 170910Z 28040KT 9999 -SHRA VCSH BKN017 07/04 Q0995;","","","","","","","","","",""
"01023199999","2007-10-17T13:00:00","64.35","7.8","0.0","DRAUGEN, NO","FM-15","4","29.47","39","43","","||SHRA","","","87","BKN:07 14","","","7.00","","290","59","46","","","","","","","","","","","","","","","","","","","","","","","","","","","","","","","","","","","","","","","","","","","","","","","","","","","","","","","","","","","","","","","","","","","","","","","","","","","","","","","","","","","","","","","","","","","MET061METAR ENDR 171200Z 29040G51KT 9999 SHRA BKN014CB 06/04 Q0998;","","","","","","","","","",""
"01023199999","2007-10-19T13:10:00","64.35","7.8","0.0","DRAUGEN, NO","FM-15","4","30.45","32","43","","","","","66","BKN:07 32","","","7.00","","230","","17","","","","","","","","","","","","","","","","","","","","","","","","","","","","","","","","","","","","","","","","","","","","","","","","","","","","","","","","","","","","","","","","","","","","","","","","","","","","","","","","","","","","","","","","","","","MET054METAR ENDR 191210Z 23015KT 9999 BKN033CB 06/M00 Q1031;","","","","","","","","","",""
"01023199999","2007-10-19T16:00:00","64.35","7.8","0.0","DRAUGEN, NO","FM-15","4","30.42","36","43","","","","","76","BKN:07 25 BKN:07 44","","","","","220","","21","","","","","","","","","","","","","","","","","","","","","","","","","","","","","","","","","","","","","","","","","","","","","","","","","","","","","","","","","","","","","","","","","","","","","","","","","","","","","","","","","","","","","","","","","","","MET057METAR ENDR 191500Z 22018KT -RA BKN025 BKN045 06/02 Q1030;","","","","","","","","","",""
"01023199999","2007-10-21T07:00:00","64.35","7.8","0.0","DRAUGEN, NO","FM-15","4","30.30","48","48","","","","","100","OVC:08 6","","","4.97","","220","","28","","","","","","","","","","","","","","","","","","","","","","","","","","","","","","","","","","","","","","","","","","","","","","","","","","","","","","","","","","","","","","","","","","","","","","","","","","","","","","","","","","","","","","","","","","","MET051METAR ENDR 210600Z 22024KT 8000 OVC006 09/09 Q1026;","","","","","","","","","",""
"01023199999","2007-10-21T10:00:00","64.35","7.8","0.0","DRAUGEN, NO","FM-15","4","30.30","48","48","","","","","100","SCT:04 6 BKN:07 39 OVC:08 64","","","4.35","","200","","22","","","","","","","","","","","","","","","","","","","","","","","","","","","","","","","","","","","","","","","","","","","","","","","","","","","","","","","","","","","","","","","","","","","","","","","","","","","","","","","","","","","","","","","","","","","MET065METAR ENDR 210900Z 20019KT 7000 SCT006 BKN040 OVC065 09/09 Q1026;","","","","","","","","","",""
"01023199999","2007-10-21T13:10:00","64.35","7.8","0.0","DRAUGEN, NO","FM-15","4","30.27","48","48","","||FG","","","100","SCT:04 5 OVC:08 30","","","4.97","","200","","24","","","","","","","","","","","","","","","","","","","","","","","","","","","","","","","","","","","","","","","","","","","","","","","","","","","","","","","","","","","","","","","","","","","","","","","","","","","","","","","","","","","","","","","","","","","MET063METAR ENDR 211210Z 20021KT 8000 BCFG SCT005 OVC030 09/09 Q1025;","","","","","","","","","",""
"01023199999","2007-10-21T16:10:00","64.35","7.8","0.0","DRAUGEN, NO","FM-15","4","30.24","48","48","","||FG","","","100","FEW:02 9 OVC:08 30","","","4.97","","180","","22","","","","","","","","","","","","","","","","","","","","","","","","","","","","","","","","","","","","","","","","","","","","","","","","","","","","","","","","","","","","","","","","","","","","","","","","","","","","","","","","","","","","","","","","","","","MET063METAR ENDR 211510Z 18019KT 8000 BCFG FEW009 OVC030 09/09 Q1024;","","","","","","","","","",""
"01023199999","2007-10-22T06:40:00","64.35","7.8","0.0","DRAUGEN, NO","FM-15","4","30.09","45","50","","","","","82","OVC:08 39","","","7.00","","180","","30","","","","","","","","","","","","","","","","","","","","","","","","","","","","","","","","","","","","","","","","","","","","","","","","","","","","","","","","","","","","","","","","","","","","","","","","","","","","","","","","","","","","","","","","","","","MET051METAR ENDR 220540Z 18026KT 9999 OVC040 10/07 Q1019;","","","","","","","","","",""
"01023199999","2007-10-22T16:10:00","64.35","7.8","0.0","DRAUGEN, NO","FM-15","4","30.09","46","50","","||RA","","","88","FEW:02 20 BKN:07 39","","","7.00","","210","","43","","","","","","","","","","","","","","","","","","","","","","","","","","","","","","","","","","","","","","","","","","","","","","","","","","","","","","","","","","","","","","","","","","","","","","","","","","","","","","","","","","","","","","","","","","","MET062METAR ENDR 221510Z 21037KT 9999 -RA FEW020 BKN040 10/08 Q1019;","","","","","","","","","",""
"01023199999","2007-10-23T07:00:00","64.35","7.8","0.0","DRAUGEN, NO","FM-15","4","30.21","41","52","","","","","67","BKN:07 44","","","7.00","","200","","37","","","","","","","","","","","","","","","","","","","","","","","","","","","","","","","","","","","","","","","","","","","","","","","","","","","","","","","","","","","","","","","","","","","","","","","","","","","","","","","","","","","","","","","","","","","MET051METAR ENDR 230600Z 20032KT 9999 BKN045 11/05 Q1023;","","","","","","","","","",""
"01023199999","2007-10-23T10:00:00","64.35","7.8","0.0","DRAUGEN, NO","FM-15","4","30.27","41","52","","","","","67","SCT:04 44 BKN:07 246","","","7.00","","190","","32","","","","","","","","","","","","","","","","","","","","","","","","","","","","","","","","","","","","","","","","","","","","","","","","","","","","","","","","","","","","","","","","","","","","","","","","","","","","","","","","","","","","","","","","","","","MET058METAR ENDR 230900Z 19028KT 9999 SCT045 BKN250 11/05 Q1025;","","","","","","","","","",""
"01023199999","2007-10-23T17:40:00","64.35","7.8","0.0","DRAUGEN, NO","FM-15","4","30.21","41","50","","","","","71","SCT:04 89 BKN:07 177 BKN:07 207","","","7.00","","200","","40","","","","","","","","","","","","","","","","","","","","","","","","","","","","","","","","","","","","","","","","","","","","","","","","","","","","","","","","","","","","","","","","","","","","","","","","","","","","","","","","","","","","","","","","","","","MET065METAR ENDR 231640Z 20035KT 9999 SCT090 BKN180 BKN210 10/05 Q1023;","","","","","","","","","",""
"01023199999","2007-10-24T06:40:00","64.35","7.8","0.0","DRAUGEN, NO","FM-15","4","30.21","45","50","","","","","82","BKN:07 24","","","5.59","","220","","51","","","","","","","","","","","","","","","","","","","","","","","","","","","","","","","","","","","","","","","","","","","","","","","","","","","","","","","","","","","","","","","","","","","","","","","","","","","","","","","","","","","","","","","","","","","MET051METAR ENDR 240540Z 22044KT 9000 BKN024 10/07 Q1023;","","","","","","","","","",""
"01023199999","2007-10-24T08:40:00","64.35","7.8","0.0","DRAUGEN, NO","FM-15","4","30.21","45","50","","","","","82","FEW:02 16 BKN:07 26","","","5.59","","220","","51","","","","","","","","","","","","","","","","","","","","","","","","","","","","","","","","","","","","","","","","","","","","","","","","","","","","","","","","","","","","","","","","","","","","","","","","","","","","","","","","","","","","","","","","","","","MET058METAR ENDR 240740Z 22044KT 9000 FEW016 BKN026 10/07 Q1023;","","","","","","","","","",""
"01023199999","2007-10-24T10:00:00","64.35","7.8","0.0","DRAUGEN, NO","FM-15","4","30.21","45","50","","","","","82","FEW:02 19 BKN:07 26 OVC:08 39","","","5.59","","220","","53","","","","","","","","","","","","","","","","","","","","","","","","","","","","","","","","","","","","","","","","","","","","","","","","","","","","","","","","","","","","","","","","","","","","","","","","","","","","","","","","","","","","","","","","","","","MET065METAR ENDR 240900Z 22046KT 9000 FEW019 BKN026 OVC040 10/07 Q1023;","","","","","","","","","",""
"01023199999","2007-10-24T16:00:00","64.35","7.8","0.0","DRAUGEN, NO","FM-15","4","30.27","46","48","","||RA","","","94","SCT:04 12 SCT:04 25 BKN:07 49","","","3.11","","220","","44","","","","","","","","","","","","","","","","","","","","","","","","","","","","","","","","","","","","","","","","","","","","","","","","","","","","","","","","","","","","","","","","","","","","","","","","","","","","","","","","","","","","","","","","","","","MET068METAR ENDR 241500Z 22038KT 5000 RA SCT012 SCT025 BKN050 09/08 Q1025;","","","","","","","","","",""
"01023199999","2007-10-25T10:00:00","64.35","7.8","0.0","DRAUGEN, NO","FM-15","4","30.27","43","48","","","","","82","FEW:02 18 SCT:04 59 BKN:07 79","","","7.00","","220","","36","","","","","","","","","","","","","","","","","","","","","","","","","","","","","","","","","","","","","","","","","","","","","","","","","","","","","","","","","","","","","","","","","","","","","","","","","","","","","","","","","","","","","","","","","","","MET065METAR ENDR 250900Z 22031KT 9999 FEW018 SCT060 BKN080 09/06 Q1025;","","","","","","","","","",""
"01023199999","2007-10-25T13:00:00","64.35","7.8","0.0","DRAUGEN, NO","FM-15","4","30.24","43","48","","","","","82","FEW:02 20","","","7.00","","220","","36","","","","","","","","","","","","","","","","","","","","","","","","","","","","","","","","","","","","","","","","","","","","","","","","","","","","","","","","","","","","","","","","","","","","","","","","","","","","","","","","","","","","","","","","","","","MET051METAR ENDR 251200Z 22031KT 9999 FEW020 09/06 Q1024;","","","","","","","","","",""
"01023199999","2007-10-25T16:40:00","64.35","7.8","0.0","DRAUGEN, NO","FM-15","4","30.24","43","48","","","","","82","FEW:02 20","","","7.00","","210","","30","","","","","","","","","","","","","","","","","","","","","","","","","","","","","","","","","","","","","","","","","","","","","","","","","","","","","","","","","","","","","","","","","","","","","","","","","","","","","","","","","","","","","","","","","","","MET051METAR ENDR 251540Z 21026KT 9999 FEW020 09/06 Q1024;","","","","","","","","","",""
"01023199999","2007-10-26T06:40:00","64.35","7.8","0.0","DRAUGEN, NO","FM-15","4","30.03","43","50","","","","","76","","","","7.00","","210","","31","","","","","","","","","","","","","","","","","","","","","","","","","","","","","","","","","","","","","","","","","","","","","","","","","","","","","","","","","","","","","","","","","","","","","","","","","","","","","","","","","","","","","","","","","","","MET048METAR ENDR 260540Z 21027KT 9999 NSC 10/06 Q1017;","","","","","","","","","",""
"01023199999","2007-10-26T07:10:00","64.35","7.8","0.0","DRAUGEN, NO","FM-15","4","30.00","43","50","","","","","76","","","","7.00","","210","","34","","","","","","","","","","","","","","","","","","","","","","","","","","","","","","","","","","","","","","","","","","","","","","","","","","","","","","","","","","","","","","","","","","","","","","","","","","","","","","","","","","","","","","","","","","","MET048METAR ENDR 260610Z 21030KT 9999 NSC 10/06 Q1016;","","","","","","","","","",""
"01023199999","2007-10-26T13:00:00","64.35","7.8","0.0","DRAUGEN, NO","FM-15","4","29.97","43","48","","","","","82","","","","7.00","","150","","17","","","","","","","","","","","","","","","","","","","","","","","","","","","","","","","","","","","","","","","","","","","","","","","","","","","","","","","","","","","","","","","","","","","","","","","","","","","","","","","","","","","","","","","","","","","MET048METAR ENDR 261200Z 15015KT 9999 NSC 09/06 Q1015;","","","","","","","","","",""
"01023199999","2007-10-26T16:10:00","64.35","7.8","0.0","DRAUGEN, NO","FM-15","4","29.94","41","50","","","","","71","FEW:02 30 SCT:04 89","","","7.00","","190","","25","","","","","","","","","","","","","","","","","","","","","","","","","","","","","","","","","","","","","","","","","","","","","","","","","","","","","","","","","","","","","","","","","","","","","","","","","","","","","","","","","","","","","","","","","","","MET058METAR ENDR 261510Z 19022KT 9999 FEW030 SCT090 10/05 Q1014;","","","","","","","","","",""
"01023199999","2007-10-27T06:50:00","64.35","7.8","0.0","DRAUGEN, NO","FM-15","4","29.80","43","48","","","","","82","BKN:07 69 BKN:07 167","","","7.00","","200","","30","","","","","","","","","","","","","","","","","","","","","","","","","","","","","","","","","","","","","","","","","","","","","","","","","","","","","","","","","","","","","","","","","","","","","","","","","","","","","","","","","","","","","","","","","","","MET058METAR ENDR 270550Z 20026KT 9999 BKN070 BKN170 09/06 Q1009;","","","","","","","","","",""
"01023199999","2007-10-27T10:10:00","64.35","7.8","0.0","DRAUGEN, NO","FM-15","4","29.80","46","48","","","","","94","FEW:02 20 SCT:04 79 BKN:07 157","","","7.00","","200","","32","","","","","","","","","","","","","","","","","","","","","","","","","","","","","","","","","","","","","","","","","","","","","","","","","","","","","","","","","","","","","","","","","","","","","","","","","","","","","","","","","","","","","","","","","","","MET065METAR ENDR 270910Z 20028KT 9999 FEW020 SCT080 BKN160 09/08 Q1009;","","","","","","","","","",""
"01023199999","2007-10-27T13:10:00","64.35","7.8","0.0","DRAUGEN, NO","FM-15","4","29.77","45","48","","","","","87","FEW:02 64 BKN:07 148","","","7.00","","190","","38","","","","","","","","","","","","","","","","","","","","","","","","","","","","","","","","","","","","","","","","","","","","","","","","","","","","","","","","","","","","","","","","","","","","","","","","","","","","","","","","","","","","","","","","","","","MET058METAR ENDR 271210Z 19033KT 9999 FEW065 BKN150 09/07 Q1008;","","","","","","","","","",""
"01023199999","2007-10-28T07:10:00","64.35","7.8","0.0","DRAUGEN, NO","FM-15","4","29.29","46","50","","||RA","","","88","BKN:07 17 OVC:08 30","","","3.73","","160","","33","","","","","","","","","","","","","","","","","","","","","","","","","","","","","","","","","","","","","","","","","","","","","","","","","","","","","","","","","","","","","","","","","","","","","","","","","","","","","","","","","","","","","","","","","","","MET061METAR ENDR 280610Z 16029KT 6000 RA BKN017 OVC030 10/08 Q0992;","","","","","","","","","",""
"01023199999","2007-10-29T07:00:00","64.35","7.8","0.0","DRAUGEN, NO","FM-15","4","29.44","43","45","","","","","93","FEW:02 39 SCT:04 138 BKN:07 167","","","7.00","","150","","9","","","","","","","","","","","","","","","","","","","","","","","","","","","","","","","","","","","","","","","","","","","","","","","","","","","","","","","","","","","","","","","","","","","","","","","","","","","","","","","","","","","","","","","","","","","MET065METAR ENDR 290600Z 15008KT 9999 FEW040 SCT140 BKN170 07/06 Q0997;","","","","","","","","","",""
"01023199999","2007-10-29T10:00:00","64.35","7.8","0.0","DRAUGEN, NO","FM-15","4","29.35","43","48","","","","","82","BKN:07 197","","","7.00","","120","","21","","","","","","","","","","","","","","","","","","","","","","","","","","","","","","","","","","","","","","","","","","","","","","","","","","","","","","","","","","","","","","","","","","","","","","","","","","","","","","","","","","","","","","","","","","","MET051METAR ENDR 290900Z 12018KT 9999 BKN200 09/06 Q0994;","","","","","","","","","",""
"01023199999","2007-10-29T13:00:00","64.35","7.8","0.0","DRAUGEN, NO","FM-15","4","29.26","43","46","","","","","87","BKN:07 108","","","7.00","","110","","22","","","","","","","","","","","","","","","","","","","","","","","","","","","","","","","","","","","","","","","","","","","","","","","","","","","","","","","","","","","","","","","","","","","","","","","","","","","","","","","","","","","","","","","","","","","MET051METAR ENDR 291200Z 11019KT 9999 BKN110 08/06 Q0991;","","","","","","","","","",""
"01023199999","2007-10-29T16:00:00","64.35","7.8","0.0","DRAUGEN, NO","FM-15","4","29.23","45","46","","||SHRA","","","93","BKN:07 12 BKN:07 25","","","7.00","","210","49","37","","","","","","","","","","","","","","","","","","","","","","","","","","","","","","","","","","","","","","","","","","","","","","","","","","","","","","","","","","","","","","","","","","","","","","","","","","","","","","","","","","","","","","","","","","","MET066METAR ENDR 291500Z 21032G43KT 9999 SHRA BKN012 BKN025 08/07 Q0990;","","","","","","","","","",""
"01023199999","2007-10-30T07:10:00","64.35","7.8","0.0","DRAUGEN, NO","FM-15","4","29.35","37","43","","","","","81","FEW:02 15 BKN:07 49","","","7.00","","240","","19","","","","","","","","","","","","","","","","","","","","","","","","","","","","","","","","","","","","","","","","","","","","","","","","","","","","","","","","","","","","","","","","","","","","","","","","","","","","","","","","","","","","","","","","","","","MET058METAR ENDR 300610Z 24017KT 9999 FEW015 BKN050 06/03 Q0994;","","","","","","","","","",""
"01023199999","2007-10-30T10:10:00","64.35","7.8","0.0","DRAUGEN, NO","FM-15","4","29.44","34","45","","","","","66","FEW:02 15 BKN:07 30","","","7.00","","290","","26","","","","","","","","","","","","","","","","","","","","","","","","","","","","","","","","","","","","","","","","","","","","","","","","","","","","","","","","","","","","","","","","","","","","","","","","","","","","","","","","","","","","","","","","","","","MET058METAR ENDR 300910Z 29023KT 9999 FEW015 BKN030 07/01 Q0997;","","","","","","","","","",""
"01023199999","2007-10-30T13:10:00","64.35","7.8","0.0","DRAUGEN, NO","FM-15","4","29.53","32","43","","","","","66","FEW:02 30 BKN:07 98","","","7.00","","290","","33","","","","","","","","","","","","","","","","","","","","","","","","","","","","","","","","","","","","","","","","","","","","","","","","","","","","","","","","","","","","","","","","","","","","","","","","","","","","","","","","","","","","","","","","","","","MET059METAR ENDR 301210Z 29029KT 9999 FEW030 BKN100 06/M00 Q1000;","","","","","","","","","",""
"01023199999","2007-10-30T16:00:00","64.35","7.8","0.0","DRAUGEN, NO","FM-15","4","29.62","32","41","","","","","70","FEW:02 25 SCT:04 39 BKN:07 138","","","7.00","","280","","36","","","","","","","","","","","","","","","","","","","","","","","","","","","","","","","","","","","","","","","","","","","","","","","","","","","","","","","","","","","","","","","","","","","","","","","","","","","","","","","","","","","","","","","","","","","MET079METAR ENDR 301500Z 28031KT 150V290 9999 VCSH FEW025 SCT040 BKN140 05/M00 Q1003;","","","","","","","","","",""
"01023199999","2007-10-31T07:00:00","64.35","7.8","0.0","DRAUGEN, NO","FM-15","4","29.59","36","43","","||RA","","","76","BKN:07 22","","","7.00","","190","","36","","","","","","","","","","","","","","","","","","","","","","","","","","","","","","","","","","","","","","","","","","","","","","","","","","","","","","","","","","","","","","","","","","","","","","","","","","","","","","","","","","","","","","","","","","","MET055METAR ENDR 310600Z 19031KT 9999 -RA BKN022 06/02 Q1002;","","","","","","","","","",""
"01023199999","2007-10-31T10:10:00","64.35","7.8","0.0","DRAUGEN, NO","FM-15","4","29.38","34","36","","||RA","","","93","BKN:07 7","","","3.73","","140","","49","","","","","","","","","","","","","","","","","","","","","","","","","","","","","","","","","","","","","","","","","","","","","","","","","","","","","","","","","","","","","","","","","","","","","","","","","","","","","","","","","","","","","","","","","","","MET060METAR ENDR 310910Z 14043KT 6000 -RA VCSH BKN007 02/01 Q0995;","","","","","","","","","",""
"01023199999","2007-10-31T11:40:00","64.35","7.8","0.0","DRAUGEN, NO","FM-15","4","29.32","41","41","","||RA","","","100","BKN:07 7","","","1.24","","170","","45","","","","","","","","","","","","","","","","","","","","","","","","","","","","","","","","","","","","","","","","","","","","","","","","","","","","","","","","","","","","","","","","","","","","","","","","","","","","","","","","","","","","","","","","","","","MET054METAR ENDR 311040Z 17039KT 2000 RA BKN007 05/05 Q0993;","","","","","","","","","",""
"01023199999","2007-10-31T13:10:00","64.35","7.8","0.0","DRAUGEN, NO","FM-15","4","29.26","48","48","","","","","100","FEW:02 10 BKN:07 44","","","7.00","","240","","39","","","","","","","","","","","","","","","","","","","","","","","","","","","","","","","","","","","","","","","","","","","","","","","","","","","","","","","","","","","","","","","","","","","","","","","","","","","","","","","","","","","","","","","","","","","MET063METAR ENDR 311210Z 24034KT 9999 FEW010 BKN045 09/09 Q0991 RERA;","","","","","","","","","",""
"01023199999","2007-10-31T16:10:00","64.35","7.8","0.0","DRAUGEN, NO","FM-15","4","29.29","43","48","","","","","82","FEW:02 25 BKN:07 30","","","5.59","","250","","37","","","","","","","","","","","","","","","","","","","","","","","","","","","","","","","","","","","","","","","","","","","","","","","","","","","","","","","","","","","","","","","","","","","","","","","","","","","","","","","","","","","","","","","","","","","MET063METAR ENDR 311510Z 25032KT 9000 VCSH FEW025 BKN030 09/06 Q0992;","","","","","","","","","",""
"01023199999","2007-11-01T10:10:00","64.35","7.8","0.0","DRAUGEN, NO","FM-15","4","29.83","34","41","","||SHRA","","","76","SCT:04 23 BKN:07 30","","","7.00","","310","57","45","","","","","","","","","","","","","","","","","","","","","","","","","","","","","","","","","","","","","","","","","","","","","","","","","","","","","","","","","","","","","","","","","","","","","","","","","","","","","","","","","","","","","","","","","","","MET066METAR ENDR 010910Z 31039G50KT 9999 SHRA SCT023 BKN030 05/01 Q1010;","","","","","","","","","",""
"01023199999","2007-11-01T13:10:00","64.35","7.8","0.0","DRAUGEN, NO","FM-15","4","29.94","34","41","","","","","76","SCT:04 30","","","7.00","","290","","40","","","","","","","","","","","","","","","","","","","","","","","","","","","","","","","","","","","","","","","","","","","","","","","","","","","","","","","","","","","","","","","","","","","","","","","","","","","","","","","","","","","","","","","","","","","MET056METAR ENDR 011210Z 29035KT 9999 VCSH SCT030 05/01 Q1014;","","","","","","","","","",""
"01023199999","2007-11-01T17:50:00","64.35","7.8","0.0","DRAUGEN, NO","FM-15","4","30.12","30","41","","","","","66","SCT:04 30","","","7.00","","290","","37","","","","","","","","","","","","","","","","","","","","","","","","","","","","","","","","","","","","","","","","","","","","","","","","","","","","","","","","","","","","","","","","","","","","","","","","","","","","","","","","","","","","","","","","","","","MET052METAR ENDR 011650Z 29032KT 9999 SCT030 05/M01 Q1020;","","","","","","","","","",""
"01023199999","2007-11-02T07:10:00","64.35","7.8","0.0","DRAUGEN, NO","FM-15","4","30.30","27","39","","","","","61","BKN:07 37","","","7.00","","280","","13","","","","","","","","","","","","","","","","","","","","","","","","","","","","","","","","","","","","","","","","","","","","","","","","","","","","","","","","","","","","","","","","","","","","","","","","","","","","","","","","","","","","","","","","","","","MET060METAR ENDR 020610Z 28011KT 240V310 9999 BKN038 04/M03 Q1026;","","","","","","","","","",""
"01023199999","2007-11-02T10:10:00","64.35","7.8","0.0","DRAUGEN, NO","FM-15","4","30.24","27","39","","","","","61","FEW:02 25 SCT:04 69 OVC:08 223","","","7.00","","210","","11","","","","","","","","","","","","","","","","","","","","","","","","","","","","","","","","","","","","","","","","","","","","","","","","","","","","","","","","","","","","","","","","","","","","","","","","","","","","","","","","","","","","","","","","","","","MET066METAR ENDR 020910Z 21010KT 9999 FEW025 SCT070 OVC227 04/M03 Q1024;","","","","","","","","","",""
"01023199999","2007-11-02T13:10:00","64.35","7.8","0.0","DRAUGEN, NO","FM-15","4","30.12","34","39","","","","","81","BKN:07 21 OVC:08 89","","","7.00","","160","","22","","","","","","","","","","","","","","","","","","","","","","","","","","","","","","","","","","","","","","","","","","","","","","","","","","","","","","","","","","","","","","","","","","","","","","","","","","","","","","","","","","","","","","","","","","","MET058METAR ENDR 021210Z 16019KT 9999 BKN021 OVC090 04/01 Q1020;","","","","","","","","","",""
"01023199999","2007-11-03T07:10:00","64.35","7.8","0.0","DRAUGEN, NO","FM-15","4","29.56","43","46","","","","","87","FEW:02 11 BKN:07 24","","","7.00","","290","","29","","","","","","","","","","","","","","","","","","","","","","","","","","","","","","","","","","","","","","","","","","","","","","","","","","","","","","","","","","","","","","","","","","","","","","","","","","","","","","","","","","","","","","","","","","","MET058METAR ENDR 030610Z 29025KT 9999 FEW011 BKN024 08/06 Q1001;","","","","","","","","","",""
"01023199999","2007-11-03T16:10:00","64.35","7.8","0.0","DRAUGEN, NO","FM-15","4","29.88","37","45","","","","","76","BKN:07 31","","","7.00","","310","","45","","","","","","","","","","","","","","","","","","","","","","","","","","","","","","","","","","","","","","","","","","","","","","","","","","","","","","","","","","","","","","","","","","","","","","","","","","","","","","","","","","","","","","","","","","","MET056METAR ENDR 031510Z 31039KT 9999 VCSH BKN031 07/03 Q1012;","","","","","","","","","",""
"01023199999","2007-11-04T07:10:00","64.35","7.8","0.0","DRAUGEN, NO","FM-15","4","30.21","34","41","","","","","76","BKN:07 29 BKN:07 45","","","7.00","","260","","21","","","","","","","","","","","","","","","","","","","","","","","","","","","","","","","","","","","","","","","","","","","","","","","","","","","","","","","","","","","","","","","","","","","","","","","","","","","","","","","","","","","","","","","","","","","MET058METAR ENDR 040610Z 26018KT 9999 BKN029 BKN046 05/01 Q1023;","","","","","","","","","",""
"01023199999","2007-11-04T10:10:00","64.35","7.8","0.0","DRAUGEN, NO","FM-15","4","30.24","36","41","","||RA","","","81","BKN:07 18 BKN:07 31 OVC:08 48","","","3.11","","260","","21","","","","","","","","","","","","","","","","","","","","","","","","","","","","","","","","","","","","","","","","","","","","","","","","","","","","","","","","","","","","","","","","","","","","","","","","","","","","","","","","","","","","","","","","","","","MET076METAR ENDR 040910Z 26018KT 5000NW -RA VCSH BKN018 BKN031 OVC049 05/02 Q1024;","","","","","","","","","",""
"01023199999","2007-11-04T13:10:00","64.35","7.8","0.0","DRAUGEN, NO","FM-15","4","30.21","34","43","","","","","71","SCT:04 31 OVC:08 98","","","7.00","","230","","23","","","","","","","","","","","","","","","","","","","","","","","","","","","","","","","","","","","","","","","","","","","","","","","","","","","","","","","","","","","","","","","","","","","","","","","","","","","","","","","","","","","","","","","","","","","MET063METAR ENDR 041210Z 23020KT 9999 VCSH SCT031 OVC100 06/01 Q1023;","","","","","","","","","",""
"01023199999","2007-11-04T16:10:00","64.35","7.8","0.0","DRAUGEN, NO","FM-15","4","30.15","32","41","","","","","70","BKN:07 23 BKN:07 42","","","7.00","","220","","26","","","","","","","","","","","","","","","","","","","","","","","","","","","","","","","","","","","","","","","","","","","","","","","","","","","","","","","","","","","","","","","","","","","","","","","","","","","","","","","","","","","","","","","","","","","MET063METAR ENDR 041510Z 22023KT 9999 VCSH BKN023 BKN043 05/00 Q1021;","","","","","","","","","",""
"01023199999","2007-11-05T07:10:00","64.35","7.8","0.0","DRAUGEN, NO","FM-15","4","29.62","39","43","","||RA","","","87","OVC:08 24","","","4.35","","170","","43","","","","","","","","","","","","","","","","","","","","","","","","","","","","","","","","","","","","","","","","","","","","","","","","","","","","","","","","","","","","","","","","","","","","","","","","","","","","","","","","","","","","","","","","","","","MET060METAR ENDR 050610Z 17037KT 7000 -RA VCSH OVC024 06/04 Q1003;","","","","","","","","","",""
"01023199999","2007-11-05T10:10:00","64.35","7.8","0.0","DRAUGEN, NO","FM-15","4","29.50","43","46","","||RA","","","87","OVC:08 20","","","7.00","","200","","48","","","","","","","","","","","","","","","","","","","","","","","","","","","","","","","","","","","","","","","","","","","","","","","","","","","","","","","","","","","","","","","","","","","","","","","","","","","","","","","","","","","","","","","","","","","MET060METAR ENDR 050910Z 20042KT 9999 -RA VCSH OVC020 08/06 Q0999;","","","","","","","","","",""
"01023199999","2007-11-05T10:40:00","64.35","7.8","0.0","DRAUGEN, NO","FM-16","4","29.47","43","46","","","","","87","OVC:08 20","","","","","210","","54","","","","","","","","","","","","","","","","","","","","","","","","","","","","","","","","","","","","","","","","","","","","","","","","","","","","","","","","","","","","","","","","","","","","","","","","","","","","","","","","","","","","","","","","","","","MET055METAR ENDR 050940Z 21047KT -RA VCSH OVC020 08/06 Q0998;","","","","","","","","","",""
"01023199999","2007-11-05T13:10:00","64.35","7.8","0.0","DRAUGEN, NO","FM-15","4","29.50","43","45","","||RA","","","93","OVC:08 11","","","7.00","","270","","22","","","","","","","","","","","","","","","","","","","","","","","","","","","","","","","","","","","","","","","","","","","","","","","","","","","","","","","","","","","","","","","","","","","","","","","","","","","","","","","","","","","","","","","","","","","MET060METAR ENDR 051210Z 27019KT 9999 -RA VCSH OVC011 07/06 Q0999;","","","","","","","","","",""
"01023199999","2007-11-05T16:20:00","64.35","7.8","0.0","DRAUGEN, NO","FM-15","4","29.47","36","45","","","","","71","BKN:07 35 BKN:07 101","","","7.00","","260","","25","","","","","","","","","","","","","","","","","","","","","","","","","","","","","","","","","","","","","","","","","","","","","","","","","","","","","","","","","","","","","","","","","","","","","","","","","","","","","","","","","","","","","","","","","","","MET058METAR ENDR 051520Z 26022KT 9999 BKN036 BKN103 07/02 Q0998;","","","","","","","","","",""
"01023199999","2007-11-06T07:10:00","64.35","7.8","0.0","DRAUGEN, NO","FM-15","4","29.68","28","41","","","","","61","FEW:02 32 BKN:07 39 BKN:07 94","","","7.00","","320","","40","","","","","","","","","","","","","","","","","","","","","","","","","","","","","","","","","","","","","","","","","","","","","","","","","","","","","","","","","","","","","","","","","","","","","","","","","","","","","","","","","","","","","","","","","","","MET066METAR ENDR 060610Z 32035KT 9999 FEW032 BKN040 BKN096 05/M02 Q1005;","","","","","","","","","",""
"01023199999","2007-11-06T10:10:00","64.35","7.8","0.0","DRAUGEN, NO","FM-15","4","29.77","32","37","","","","","81","FEW:02 31 SCT:04 62","","","7.00","","310","","38","","","","","","","","","","","","","","","","","","","","","","","","","","","","","","","","","","","","","","","","","","","","","","","","","","","","","","","","","","","","","","","","","","","","","","","","","","","","","","","","","","","","","","","","","","","MET071METAR ENDR 060910Z 31033KT 9999 -SN VCSH FEW031TCU SCT063 03/M00 Q1008;","","","","","","","","","",""
"01023199999","2007-11-06T13:10:00","64.35","7.8","0.0","DRAUGEN, NO","FM-15","4","29.74","21","37","","","","","52","FEW:02 41 SCT:04 60","","","7.00","","280","","25","","","","","","","","","","","","","","","","","","","","","","","","","","","","","","","","","","","","","","","","","","","","","","","","","","","","","","","","","","","","","","","","","","","","","","","","","","","","","","","","","","","","","","","","","","","MET066METAR ENDR 061210Z 28022KT 9999 VCSH FEW042CB SCT061 03/M06 Q1007;","","","","","","","","","",""
"01023199999","2007-11-06T16:10:00","64.35","7.8","0.0","DRAUGEN, NO","FM-15","4","29.65","27","36","","","","","70","FEW:02 32 SCT:04 42 BKN:07 98","","","7.00","","230","","21","","","","","","","","","","","","","","","","","","","","","","","","","","","","","","","","","","","","","","","","","","","","","","","","","","","","","","","","","","","","","","","","","","","","","","","","","","","","","","","","","","","","","","","","","","","MET071METAR ENDR 061510Z 23018KT 9999 VCSH FEW032 SCT043 BKN100 02/M03 Q1004;","","","","","","","","","",""
"01023199999","2007-11-07T07:10:00","64.35","7.8","0.0","DRAUGEN, NO","FM-15","4","29.09","41","45","","","","","87","BKN:07 14 OVC:08 39","","","7.00","","280","","37","","","","","","","","","","","","","","","","","","","","","","","","","","","","","","","","","","","","","","","","","","","","","","","","","","","","","","","","","","","","","","","","","","","","","","","","","","","","","","","","","","","","","","","","","","","MET058METAR ENDR 070610Z 28032KT 9999 BKN014 OVC040 07/05 Q0985;","","","","","","","","","",""
"01023199999","2007-11-07T11:10:00","64.35","7.8","0.0","DRAUGEN, NO","FM-15","4","29.21","39","45","","","","","81","BKN:07 14","","","7.00","","330","","31","","","","","","","","","","","","","","","","","","","","","","","","","","","","","","","","","","","","","","","","","","","","","","","","","","","","","","","","","","","","","","","","","","","","","","","","","","","","","","","","","","","","","","","","","","","MET059METAR ENDR 071010Z 33027KT 290V360 9999 BKN014 07/04 Q0989;","","","","","","","","","",""
"01023199999","2007-11-07T13:10:00","64.35","7.8","0.0","DRAUGEN, NO","FM-15","4","29.29","37","43","","","","","81","BKN:07 20","","","3.73","","350","","33","","","","","","","","","","","","","","","","","","","","","","","","","","","","","","","","","","","","","","","","","","","","","","","","","","","","","","","","","","","","","","","","","","","","","","","","","","","","","","","","","","","","","","","","","","","MET064METAR ENDR 071210Z 35029KT 320V020 6000 VCSH BKN020 06/03 Q0992;","","","","","","","","","",""
"01023199999","2007-11-07T16:10:00","64.35","7.8","0.0","DRAUGEN, NO","FM-15","4","29.41","36","45","","","","","71","BKN:07 25 BKN:07 98","","","7.00","","330","","11","","","","","","","","","","","","","","","","","","","","","","","","","","","","","","","","","","","","","","","","","","","","","","","","","","","","","","","","","","","","","","","","","","","","","","","","","","","","","","","","","","","","","","","","","","","MET071METAR ENDR 071510Z 33010KT 270V030 9999 VCSH BKN025 BKN100 07/02 Q0996;","","","","","","","","","",""
"01023199999","2007-11-08T07:10:00","64.35","7.8","0.0","DRAUGEN, NO","FM-15","4","29.23","32","36","","||RA","","","87","FEW:02 21 OVC:08 35","","","7.00","","230","","14","","","","","","","","","","","","","","","","","","","","","","","","","","","","","","","","","","","","","","","","","","","","","","","","","","","","","","","","","","","","","","","","","","","","","","","","","","","","","","","","","","","","","","","","","","","MET062METAR ENDR 080610Z 23012KT 9999 -RA FEW021 OVC036 02/00 Q0990;","","","","","","","","","",""
"01023199999","2007-11-08T10:10:00","64.35","7.8","0.0","DRAUGEN, NO","FM-15","4","29.12","34","37","","","","","87","OVC:08 10","","","3.11","","070","","21","","","","","","","","","","","","","","","","","","","","","","","","","","","","","","","","","","","","","","","","","","","","","","","","","","","","","","","","","","","","","","","","","","","","","","","","","","","","","","","","","","","","","","","","","","","MET060METAR ENDR 080910Z 07018KT 5000 -SN VCSH OVC010 03/01 Q0986;","","","","","","","","","",""
"01023199999","2007-11-08T13:10:00","64.35","7.8","0.0","DRAUGEN, NO","FM-15","4","28.97","36","39","","||RA","","","87","OVC:08 10","","","4.35","","060","","33","","","","","","","","","","","","","","","","","","","","","","","","","","","","","","","","","","","","","","","","","","","","","","","","","","","","","","","","","","","","","","","","","","","","","","","","","","","","","","","","","","","","","","","","","","","MET060METAR ENDR 081210Z 06029KT 7000 -RA VCSH OVC010 04/02 Q0981;","","","","","","","","","",""
"01023199999","2007-11-08T16:10:00","64.35","7.8","0.0","DRAUGEN, NO","FM-15","4","28.97","36","37","","||RA","","","93","OVC:08 10","","","7.00","","020","","43","","","","","","","","","","","","","","","","","","","","","","","","","","","","","","","","","","","","","","","","","","","","","","","","","","","","","","","","","","","","","","","","","","","","","","","","","","","","","","","","","","","","","","","","","","","MET060METAR ENDR 081510Z 02037KT 9999 -RA VCSH OVC010 03/02 Q0981;","","","","","","","","","",""
"01023199999","2007-11-09T07:10:00","64.35","7.8","0.0","DRAUGEN, NO","FM-15","4","29.35","25","39","","","","","56","OVC:08 20","","","7.00","","320","","44","","","","","","","","","","","","","","","","","","","","","","","","","","","","","","","","","","","","","","","","","","","","","","","","","","","","","","","","","","","","","","","","","","","","","","","","","","","","","","","","","","","","","","","","","","","MET052METAR ENDR 090610Z 32038KT 9999 OVC020 04/M04 Q0994;","","","","","","","","","",""
"01023199999","2007-11-09T10:10:00","64.35","7.8","0.0","DRAUGEN, NO","FM-15","4","29.38","28","37","","","","","70","BKN:07 26 BKN:07 98","","","3.11","","340","","31","","","","","","","","","","","","","","","","","","","","","","","","","","","","","","","","","","","","","","","","","","","","","","","","","","","","","","","","","","","","","","","","","","","","","","","","","","","","","","","","","","","","","","","","","","","MET073METAR ENDR 090910Z 34027KT 310V010 5000W VCSH BKN026 BKN100 03/M02 Q0995;","","","","","","","","","",""
"01023199999","2007-11-09T13:10:00","64.35","7.8","0.0","DRAUGEN, NO","FM-15","4","29.38","30","37","","||SH","","","75","FEW:02 19 SCT:04 29 BKN:07 39","","","4.35","","200","","29","","","","","","","","","","","","","","","","","","","","","","","","","","","","","","","","","","","","","","","","","","","","","","","","","","","","","","","","","","","","","","","","","","","","","","","","","","","","","","","","","","","","","","","","","","","MET075METAR ENDR 091210Z 20025KT 7000 -GS VCSH FEW019 SCT029 BKN040 03/M01 Q0995;","","","","","","","","","",""
"01023199999","2007-11-09T16:10:00","64.35","7.8","0.0","DRAUGEN, NO","FM-15","4","29.38","27","39","","","","","61","FEW:02 29 BKN:07 59","","","7.00","","310","","26","","","","","","","","","","","","","","","","","","","","","","","","","","","","","","","","","","","","","","","","","","","","","","","","","","","","","","","","","","","","","","","","","","","","","","","","","","","","","","","","","","","","","","","","","","","MET074METAR ENDR 091510Z 31023KT 300V360 9999 VCSH FEW029CB BKN060 04/M03 Q0995;","","","","","","","","","",""
"01023199999","2007-11-10T07:10:00","64.35","7.8","0.0","DRAUGEN, NO","FM-15","4","29.44","32","39","","||RA","","","75","BKN:07 17 BKN:07 36 OVC:08 77","","","7.00","","340","","46","","","","","","","","","","","","","","","","","","","","","","","","","","","","","","","","","","","","","","","","","","","","","","","","","","","","","","","","","","","","","","","","","","","","","","","","","","","","","","","","","","","","","","","","","","","MET070METAR ENDR 100610Z 34040KT 9999 -RA BKN017 BKN037 OVC078 04/M00 Q0997;","","","","","","","","","",""
"01023199999","2007-11-10T10:10:00","64.35","7.8","0.0","DRAUGEN, NO","FM-15","4","29.47","25","43","","","","","49","SCT:04 39","","","7.00","","","","","","","","","","","","","","","","","","","","","","","","","","","","","","","","","","","","","","","","","","","","","","","","","","","","","","","","","","","","","","","","","","","","","","","","","","","","","","","","","","","","","","","","","","","","","","","MET052METAR ENDR 100910Z 9999 VCSH SCT040TCU 06/M04 Q0998;","","","","","","","","","",""
"01023199999","2007-11-10T13:10:00","64.35","7.8","0.0","DRAUGEN, NO","FM-15","4","29.47","27","43","","","","","53","SCT:04 40","","","7.00","","320","","40","","","","","","","","","","","","","","","","","","","","","","","","","","","","","","","","","","","","","","","","","","","","","","","","","","","","","","","","","","","","","","","","","","","","","","","","","","","","","","","","","","","","","","","","","","","MET060METAR ENDR 101210Z 32035KT 9999 VCSH SCT041TCU 06/M03 Q0998;","","","","","","","","","",""
"01023199999","2007-11-10T16:10:00","64.35","7.8","0.0","DRAUGEN, NO","FM-15","4","29.47","25","41","","","","","53","BKN:07 35","","","7.00","","310","","37","","","","","","","","","","","","","","","","","","","","","","","","","","","","","","","","","","","","","","","","","","","","","","","","","","","","","","","","","","","","","","","","","","","","","","","","","","","","","","","","","","","","","","","","","","","MET059METAR ENDR 101510Z 31032KT 9999 VCSH BKN036CB 05/M04 Q0998;","","","","","","","","","",""
"01023199999","2007-11-11T07:10:00","64.35","7.8","0.0","DRAUGEN, NO","FM-15","4","29.32","36","43","","","","","76","OVC:08 20","","","7.00","","300","","40","","","","","","","","","","","","","","","","","","","","","","","","","","","","","","","","","","","","","","","","","","","","","","","","","","","","","","","","","","","","","","","","","","","","","","","","","","","","","","","","","","","","","","","","","","","MET051METAR ENDR 110610Z 30035KT 9999 OVC020 06/02 Q0993;","","","","","","","","","",""
"01023199999","2007-11-11T10:10:00","64.35","7.8","0.0","DRAUGEN, NO","FM-15","4","29.35","36","41","","","","","81","BKN:07 18 BKN:07 177","","","7.00","","360","","22","","","","","","","","","","","","","","","","","","","","","","","","","","","","","","","","","","","","","","","","","","","","","","","","","","","","","","","","","","","","","","","","","","","","","","","","","","","","","","","","","","","","","","","","","","","MET074METAR ENDR 110910Z 36019KT 310V030 9999 VCSH BKN018TCU BKN180 05/02 Q0994;","","","","","","","","","",""
"01023199999","2007-11-11T13:10:00","64.35","7.8","0.0","DRAUGEN, NO","FM-15","4","29.38","34","41","","","","","76","BKN:07 26 BKN:07 69","","","7.00","","360","","23","","","","","","","","","","","","","","","","","","","","","","","","","","","","","","","","","","","","","","","","","","","","","","","","","","","","","","","","","","","","","","","","","","","","","","","","","","","","","","","","","","","","","","","","","","","MET065METAR ENDR 111210Z 36020KT 9999 VCSH BKN026CB BKN070 05/01 Q0995;","","","","","","","","","",""
"01023199999","2007-11-11T16:10:00","64.35","7.8","0.0","DRAUGEN, NO","FM-15","4","29.50","28","41","","","","","61","BKN:07 33 BKN:07 69","","","7.00","","","","","","","","","","","","","","","","","","","","","","","","","","","","","","","","","","","","","","","","","","","","","","","","","","","","","","","","","","","","","","","","","","","","","","","","","","","","","","","","","","","","","","","","","","","","","","","MET054METAR ENDR 111510Z 9999 BKN034TCU BKN070 05/M02 Q0999;","","","","","","","","","",""
"01023199999","2007-11-12T07:10:00","64.35","7.8","0.0","DRAUGEN, NO","FM-15","4","29.80","37","45","","","","","76","FEW:02 20 BKN:07 85","","","7.00","","350","","25","","","","","","","","","","","","","","","","","","","","","","","","","","","","","","","","","","","","","","","","","","","","","","","","","","","","","","","","","","","","","","","","","","","","","","","","","","","","","","","","","","","","","","","","","","","MET058METAR ENDR 120610Z 35022KT 9999 FEW020 BKN086 07/03 Q1009;","","","","","","","","","",""
"01023199999","2007-11-12T10:20:00","64.35","7.8","0.0","DRAUGEN, NO","FM-15","4","29.85","37","45","","","","","76","FEW:02 17 SCT:04 39 BKN:07 80","","","7.00","","350","","25","","","","","","","","","","","","","","","","","","","","","","","","","","","","","","","","","","","","","","","","","","","","","","","","","","","","","","","","","","","","","","","","","","","","","","","","","","","","","","","","","","","","","","","","","","","MET065METAR ENDR 120920Z 35022KT 9999 FEW017 SCT040 BKN081 07/03 Q1011;","","","","","","","","","",""
"01023199999","2007-11-12T13:10:00","64.35","7.8","0.0","DRAUGEN, NO","FM-15","4","29.88","39","45","","","","","81","FEW:02 17 BKN:07 39","","","3.11","","350","","28","","","","","","","","","","","","","","","","","","","","","","","","","","","","","","","","","","","","","","","","","","","","","","","","","","","","","","","","","","","","","","","","","","","","","","","","","","","","","","","","","","","","","","","","","","","MET063METAR ENDR 121210Z 35024KT 5000 VCSH FEW017 BKN040 07/04 Q1012;","","","","","","","","","",""
"01023199999","2007-11-12T16:10:00","64.35","7.8","0.0","DRAUGEN, NO","FM-15","4","29.94","39","43","","","","","87","BKN:07 24 BKN:07 37","","","7.00","","010","","10","","","","","","","","","","","","","","","","","","","","","","","","","","","","","","","","","","","","","","","","","","","","","","","","","","","","","","","","","","","","","","","","","","","","","","","","","","","","","","","","","","","","","","","","","","","MET063METAR ENDR 121510Z 01009KT 9999 VCSH BKN024 BKN038 06/04 Q1014;","","","","","","","","","",""
"01023199999","2007-11-13T07:10:00","64.35","7.8","0.0","DRAUGEN, NO","FM-15","4","29.94","32","39","","","","","75","FEW:02 17","","","7.00","","100","","18","","","","","","","","","","","","","","","","","","","","","","","","","","","","","","","","","","","","","","","","","","","","","","","","","","","","","","","","","","","","","","","","","","","","","","","","","","","","","","","","","","","","","","","","","","","MET052METAR ENDR 130610Z 10016KT 9999 FEW017 04/M00 Q1014;","","","","","","","","","",""
"01023199999","2007-11-13T10:10:00","64.35","7.8","0.0","DRAUGEN, NO","FM-15","4","29.94","28","39","","","","","65","","","","6.15","","090","","21","","","","","","","","","","","","","","","","","","","","","","","","","","","","","","","","","","","","","","","","","","","","","","","","","","","","","","","","","","","","","","","","","","","","","","","","","","","","","","","","","","","","","","","","","","","MET046METAR ENDR 130910Z 09018KT CAVOK 04/M02 Q1014;","","","","","","","","","",""
"01023199999","2007-11-13T13:10:00","64.35","7.8","0.0","DRAUGEN, NO","FM-15","4","29.94","28","39","","","","","65","","","","6.15","","090","","28","","","","","","","","","","","","","","","","","","","","","","","","","","","","","","","","","","","","","","","","","","","","","","","","","","","","","","","","","","","","","","","","","","","","","","","","","","","","","","","","","","","","","","","","","","","MET046METAR ENDR 131210Z 09024KT CAVOK 04/M02 Q1014;","","","","","","","","","",""
"01023199999","2007-11-14T07:10:00","64.35","7.8","0.0","DRAUGEN, NO","FM-15","4","30.00","34","39","","","","","81","BKN:07 20","","","7.00","","130","","13","","","","","","","","","","","","","","","","","","","","","","","","","","","","","","","","","","","","","","","","","","","","","","","","","","","","","","","","","","","","","","","","","","","","","","","","","","","","","","","","","","","","","","","","","","","MET051METAR ENDR 140610Z 13011KT 9999 BKN020 04/01 Q1016;","","","","","","","","","",""
"01023199999","2007-11-14T10:10:00","64.35","7.8","0.0","DRAUGEN, NO","FM-15","4","30.00","30","41","","","","","66","SCT:04 30","","","7.00","","180","","9","","","","","","","","","","","","","","","","","","","","","","","","","","","","","","","","","","","","","","","","","","","","","","","","","","","","","","","","","","","","","","","","","","","","","","","","","","","","","","","","","","","","","","","","","","","MET052METAR ENDR 140910Z 18008KT 9999 SCT030 05/M01 Q1016;","","","","","","","","","",""
"01023199999","2007-11-14T11:10:00","64.35","7.8","0.0","DRAUGEN, NO","FM-15","4","30.00","30","41","","","","","66","BKN:07 30","","","7.00","","220","","9","","","","","","","","","","","","","","","","","","","","","","","","","","","","","","","","","","","","","","","","","","","","","","","","","","","","","","","","","","","","","","","","","","","","","","","","","","","","","","","","","","","","","","","","","","","MET052METAR ENDR 141010Z 22008KT 9999 BKN030 05/M01 Q1016;","","","","","","","","","",""
"01023199999","2007-11-14T13:10:00","64.35","7.8","0.0","DRAUGEN, NO","FM-15","4","30.03","32","39","","||RA","","","75","FEW:02 17 BKN:07 24","","","7.00","","300","","17","","","","","","","","","","","","","","","","","","","","","","","","","","","","","","","","","","","","","","","","","","","","","","","","","","","","","","","","","","","","","","","","","","","","","","","","","","","","","","","","","","","","","","","","","","","MET071METAR ENDR 141210Z 30015KT 270V060 9999 -RA FEW017 BKN024 04/M00 Q1017;","","","","","","","","","",""
"01023199999","2007-11-14T16:10:00","64.35","7.8","0.0","DRAUGEN, NO","FM-15","4","30.06","25","43","","","","","49","OVC:08 40","","","7.00","","300","","17","","","","","","","","","","","","","","","","","","","","","","","","","","","","","","","","","","","","","","","","","","","","","","","","","","","","","","","","","","","","","","","","","","","","","","","","","","","","","","","","","","","","","","","","","","","MET052METAR ENDR 141510Z 30015KT 9999 OVC041 06/M04 Q1018;","","","","","","","","","",""
"01023199999","2007-11-15T10:10:00","64.35","7.8","0.0","DRAUGEN, NO","FM-15","4","29.97","28","39","","","","","65","OVC:08 38","","","7.00","","280","","30","","","","","","","","","","","","","","","","","","","","","","","","","","","","","","","","","","","","","","","","","","","","","","","","","","","","","","","","","","","","","","","","","","","","","","","","","","","","","","","","","","","","","","","","","","","MET057METAR ENDR 150910Z 28026KT 9999 VCSH OVC039 04/M02 Q1015;","","","","","","","","","",""
"01023199999","2007-11-15T13:10:00","64.35","7.8","0.0","DRAUGEN, NO","FM-15","4","29.94","25","39","","","","","56","OVC:08 39","","","7.00","","280","","38","","","","","","","","","","","","","","","","","","","","","","","","","","","","","","","","","","","","","","","","","","","","","","","","","","","","","","","","","","","","","","","","","","","","","","","","","","","","","","","","","","","","","","","","","","","MET057METAR ENDR 151210Z 28033KT 9999 VCSH OVC040 04/M04 Q1014;","","","","","","","","","",""
"01023199999","2007-11-15T16:50:00","64.35","7.8","0.0","DRAUGEN, NO","FM-15","4","29.94","32","39","","","","","75","BKN:07 26","","","7.00","","230","","34","","","","","","","","","","","","","","","","","","","","","","","","","","","","","","","","","","","","","","","","","","","","","","","","","","","","","","","","","","","","","","","","","","","","","","","","","","","","","","","","","","","","","","","","","","","MET052METAR ENDR 151550Z 23030KT 9999 BKN026 04/M00 Q1014;","","","","","","","","","",""
"01023199999","2007-11-16T07:20:00","64.35","7.8","0.0","DRAUGEN, NO","FM-15","4","29.80","45","45","","||RA","","","100","BKN:07 6 BKN:07 30","","","7.00","","290","","16","","","","","","","","","","","","","","","","","","","","","","","","","","","","","","","","","","","","","","","","","","","","","","","","","","","","","","","","","","","","","","","","","","","","","","","","","","","","","","","","","","","","","","","","","","","MET069METAR ENDR 160620Z 29014KT 200V360 9999 RA BKN006 BKN030 07/07 Q1009;","","","","","","","","","",""
"01023199999","2007-11-16T10:20:00","64.35","7.8","0.0","DRAUGEN, NO","FM-15","4","29.80","45","46","","||RA","","","93","BKN:07 7 BKN:07 25","","","7.00","","270","","29","","","","","","","","","","","","","","","","","","","","","","","","","","","","","","","","","","","","","","","","","","","","","","","","","","","","","","","","","","","","","","","","","","","","","","","","","","","","","","","","","","","","","","","","","","","MET062METAR ENDR 160920Z 27025KT 9999 -RA BKN007 BKN025 08/07 Q1009;","","","","","","","","","",""
"01023199999","2007-11-16T13:20:00","64.35","7.8","0.0","DRAUGEN, NO","FM-15","4","29.83","45","45","","||DZ RA","","","100","BKN:07 8 OVC:08 30","","","3.11","","270","","29","","","","","","","","","","","","","","","","","","","","","","","","","","","","","","","","","","","","","","","","","","","","","","","","","","","","","","","","","","","","","","","","","","","","","","","","","","","","","","","","","","","","","","","","","","","MET067METAR ENDR 161220Z 27025KT 5000 -RADZ BR BKN008 OVC030 07/07 Q1010;","","","","","","","","","",""
"01023199999","2007-11-16T16:20:00","64.35","7.8","0.0","DRAUGEN, NO","FM-15","4","29.83","43","45","","","","","93","SCT:04 12 BKN:07 69","","","7.00","","320","","24","","","","","","","","","","","","","","","","","","","","","","","","","","","","","","","","","","","","","","","","","","","","","","","","","","","","","","","","","","","","","","","","","","","","","","","","","","","","","","","","","","","","","","","","","","","MET063METAR ENDR 161520Z 32021KT 9999 VCSH SCT012 BKN070 07/06 Q1010;","","","","","","","","","",""
"01023199999","2007-11-17T07:20:00","64.35","7.8","0.0","DRAUGEN, NO","FM-15","4","29.74","46","46","","||RA","","","100","BKN:07 10 BKN:07 49","","","7.00","","220","","34","","","","","","","","","","","","","","","","","","","","","","","","","","","","","","","","","","","","","","","","","","","","","","","","","","","","","","","","","","","","","","","","","","","","","","","","","","","","","","","","","","","","","","","","","","","MET062METAR ENDR 170620Z 22030KT 9999 -RA BKN010 BKN050 08/08 Q1007;","","","","","","","","","",""
"01023199999","2007-11-17T11:20:00","64.35","7.8","0.0","DRAUGEN, NO","FM-15","4","29.68","45","48","","||DZ","","","87","SCT:04 12 BKN:07 30","","","7.00","","220","","44","","","","","","","","","","","","","","","","","","","","","","","","","","","","","","","","","","","","","","","","","","","","","","","","","","","","","","","","","","","","","","","","","","","","","","","","","","","","","","","","","","","","","","","","","","","MET061METAR ENDR 171020Z 22038KT 9999 DZ SCT012 BKN030 09/07 Q1005;","","","","","","","","","",""
"01023199999","2007-11-17T13:20:00","64.35","7.8","0.0","DRAUGEN, NO","FM-15","4","29.68","43","48","","","","","82","FEW:02 15 SCT:04 30 BKN:07 54","","","7.00","","210","","40","","","","","","","","","","","","","","","","","","","","","","","","","","","","","","","","","","","","","","","","","","","","","","","","","","","","","","","","","","","","","","","","","","","","","","","","","","","","","","","","","","","","","","","","","","","MET065METAR ENDR 171220Z 21035KT 9999 FEW015 SCT030 BKN055 09/06 Q1005;","","","","","","","","","",""
"01023199999","2007-11-17T16:20:00","64.35","7.8","0.0","DRAUGEN, NO","FM-15","4","29.68","43","48","","","","","82","","","","6.15","","210","","32","","","","","","","","","","","","","","","","","","","","","","","","","","","","","","","","","","","","","","","","","","","","","","","","","","","","","","","","","","","","","","","","","","","","","","","","","","","","","","","","","","","","","","","","","","","MET045METAR ENDR 171520Z 21028KT CAVOK 09/06 Q1005;","","","","","","","","","",""
"01023199999","2007-11-18T08:40:00","64.35","7.8","0.0","DRAUGEN, NO","FM-15","4","29.68","41","48","","","","","76","","","","6.15","","160","","22","","","","","","","","","","","","","","","","","","","","","","","","","","","","","","","","","","","","","","","","","","","","","","","","","","","","","","","","","","","","","","","","","","","","","","","","","","","","","","","","","","","","","","","","","","","MET045METAR ENDR 180740Z 16019KT CAVOK 09/05 Q1005;","","","","","","","","","",""
"01023199999","2007-11-18T10:20:00","64.35","7.8","0.0","DRAUGEN, NO","FM-15","4","29.71","41","48","","||RA","","","76","OVC:08 46","","","7.00","","190","","25","","","","","","","","","","","","","","","","","","","","","","","","","","","","","","","","","","","","","","","","","","","","","","","","","","","","","","","","","","","","","","","","","","","","","","","","","","","","","","","","","","","","","","","","","","","MET055METAR ENDR 180920Z 19022KT 9999 -RA OVC047 09/05 Q1006;","","","","","","","","","",""
"01023199999","2007-11-18T13:20:00","64.35","7.8","0.0","DRAUGEN, NO","FM-15","4","29.71","41","48","","||RA","","","76","BKN:07 30","","","7.00","","210","","32","","","","","","","","","","","","","","","","","","","","","","","","","","","","","","","","","","","","","","","","","","","","","","","","","","","","","","","","","","","","","","","","","","","","","","","","","","","","","","","","","","","","","","","","","","","MET055METAR ENDR 181220Z 21028KT 9999 -RA BKN030 09/05 Q1006;","","","","","","","","","",""
"01023199999","2007-11-19T07:20:00","64.35","7.8","0.0","DRAUGEN, NO","FM-15","4","30.09","45","46","","","","","93","FEW:02 25 BKN:07 44","","","7.00","","280","","19","","","","","","","","","","","","","","","","","","","","","","","","","","","","","","","","","","","","","","","","","","","","","","","","","","","","","","","","","","","","","","","","","","","","","","","","","","","","","","","","","","","","","","","","","","","MET058METAR ENDR 190620Z 28017KT 9999 FEW025 BKN045 08/07 Q1019;","","","","","","","","","",""
"01023199999","2007-11-19T08:20:00","64.35","7.8","0.0","DRAUGEN, NO","FM-15","4","30.15","45","46","","||RA","","","93","BKN:07 15","","","7.00","","010","","7","","","","","","","","","","","","","","","","","","","","","","","","","","","","","","","","","","","","","","","","","","","","","","","","","","","","","","","","","","","","","","","","","","","","","","","","","","","","","","","","","","","","","","","","","","","MET054METAR ENDR 190720Z 01006KT 9999 RA BKN015 08/07 Q1021;","","","","","","","","","",""
"01023199999","2007-11-19T10:20:00","64.35","7.8","0.0","DRAUGEN, NO","FM-15","4","30.15","45","45","","","","","100","FEW:02 30 BKN:07 49","","","7.00","","010","","7","","","","","","","","","","","","","","","","","","","","","","","","","","","","","","","","","","","","","","","","","","","","","","","","","","","","","","","","","","","","","","","","","","","","","","","","","","","","","","","","","","","","","","","","","","","MET058METAR ENDR 190920Z 01006KT 9999 FEW030 BKN050 07/07 Q1021;","","","","","","","","","",""
"01023199999","2007-11-19T13:20:00","64.35","7.8","0.0","DRAUGEN, NO","FM-15","4","30.12","45","46","","","","","93","","","","6.15","","010","","7","","","","","","","","","","","","","","","","","","","","","","","","","","","","","","","","","","","","","","","","","","","","","","","","","","","","","","","","","","","","","","","","","","","","","","","","","","","","","","","","","","","","","","","","","","","MET045METAR ENDR 191220Z 01006KT CAVOK 08/07 Q1020;","","","","","","","","","",""
"01023199999","2007-11-22T13:20:00","64.35","7.8","0.0","DRAUGEN, NO","FM-15","4","29.47","30","37","","||RA","","","75","FEW:02 12 SCT:04 25 BKN:07 39","","","7.00","","360","33","19","","","","","","","","","","","","","","","","","","","","","","","","","","","","","","","","","","","","","","","","","","","","","","","","","","","","","","","","","","","","","","","","","","","","","","","","","","","","","","","","","","","","","","","","","","","MET073METAR ENDR 221220Z 36017G29KT 9999 -RA FEW012 SCT025 BKN040 03/M01 Q0998;","","","","","","","","","",""
"01023199999","2007-11-22T16:20:00","64.35","7.8","0.0","DRAUGEN, NO","FM-15","4","29.50","30","39","","||SHRA","","","70","BKN:07 30","","","7.00","","350","39","26","","","","","","","","","","","","","","","","","","","","","","","","","","","","","","","","","","","","","","","","","","","","","","","","","","","","","","","","","","","","","","","","","","","","","","","","","","","","","","","","","","","","","","","","","","","MET060METAR ENDR 221520Z 35023G34KT 9999 SHRA BKN030 04/M01 Q0999;","","","","","","","","","",""
"01023199999","2007-11-22T18:20:00","64.35","7.8","0.0","DRAUGEN, NO","FM-15","4","29.53","32","37","","||SH","","","81","FEW:02 8 BKN:07 30","","","3.11","","350","","47","","","","","","","","","","","","","","","","","","","","","","","","","","","","","","","","","","","","","","","","","","","","","","","","","","","","","","","","","","","","","","","","","","","","","","","","","","","","","","","","","","","","","","","","","","","MET064METAR ENDR 221720Z 35041KT 5000 SHGR FEW008 BKN030 03/M00 Q1000;","","","","","","","","","",""
"01023199999","2007-11-23T07:20:00","64.35","7.8","0.0","DRAUGEN, NO","FM-15","4","29.71","30","36","","","","","81","FEW:02 30 SCT:04 39","","","7.00","","350","","47","","","","","","","","","","","","","","","","","","","","","","","","","","","","","","","","","","","","","","","","","","","","","","","","","","","","","","","","","","","","","","","","","","","","","","","","","","","","","","","","","","","","","","","","","","","MET059METAR ENDR 230620Z 35041KT 9999 FEW030 SCT040 02/M01 Q1006;","","","","","","","","","",""
"01023199999","2007-11-23T08:40:00","64.35","7.8","0.0","DRAUGEN, NO","FM-15","4","29.74","23","37","","||SHRASN","","","56","FEW:02 20 SCT:04 44","","","7.00","","310","","33","","","","","","","","","","","","","","","","","","","","","","","","","","","","","","","","","","","","","","","","","","","","","","","","","","","","","","","","","","","","","","","","","","","","","","","","","","","","","","","","","","","","","","","","","","","MET066METAR ENDR 230740Z 31029KT 9999 SHRASN FEW020 SCT045 03/M05 Q1007;","","","","","","","","","",""
"01023199999","2007-11-23T10:20:00","64.35","7.8","0.0","DRAUGEN, NO","FM-15","4","29.77","18","39","","||SHRASN","","","42","FEW:02 20 BKN:07 49","","","7.00","","320","","31","","","","","","","","","","","","","","","","","","","","","","","","","","","","","","","","","","","","","","","","","","","","","","","","","","","","","","","","","","","","","","","","","","","","","","","","","","","","","","","","","","","","","","","","","","","MET066METAR ENDR 230920Z 32027KT 9999 SHRASN FEW020 BKN050 04/M08 Q1008;","","","","","","","","","",""
"01023199999","2007-11-23T13:20:00","64.35","7.8","0.0","DRAUGEN, NO","FM-15","4","29.83","27","37","","||SHRA","","","65","SCT:04 20 BKN:07 49","","","7.00","","290","","33","","","","","","","","","","","","","","","","","","","","","","","","","","","","","","","","","","","","","","","","","","","","","","","","","","","","","","","","","","","","","","","","","","","","","","","","","","","","","","","","","","","","","","","","","","","MET066METAR ENDR 231220Z 29029KT 9999 SHSNRA SCT020 BKN050 03/M03 Q1010;","","","","","","","","","",""
"01023199999","2007-11-24T07:20:00","64.35","7.8","0.0","DRAUGEN, NO","FM-15","4","29.41","34","39","","||SHRA","","","81","OVC:08 20","","","3.73","","180","","49","","","","","","","","","","","","","","","","","","","","","","","","","","","","","","","","","","","","","","","","","","","","","","","","","","","","","","","","","","","","","","","","","","","","","","","","","","","","","","","","","","","","","","","","","","","MET056METAR ENDR 240620Z 18043KT 6000 SHRA OVC020 04/01 Q0996;","","","","","","","","","",""
"01023199999","2007-11-24T10:20:00","64.35","7.8","0.0","DRAUGEN, NO","FM-15","4","29.26","36","41","","||RA","","","81","OVC:08 20","","","3.11","","190","","54","","","","","","","","","","","","","","","","","","","","","","","","","","","","","","","","","","","","","","","","","","","","","","","","","","","","","","","","","","","","","","","","","","","","","","","","","","","","","","","","","","","","","","","","","","","MET055METAR ENDR 240920Z 19047KT 5000 -RA OVC020 05/02 Q0991;","","","","","","","","","",""
"01023199999","2007-11-24T13:20:00","64.35","7.8","0.0","DRAUGEN, NO","FM-15","4","29.15","37","41","","||RA","","","87","OVC:08 17","","","3.11","","210","","60","","","","","","","","","","","","","","","","","","","","","","","","","","","","","","","","","","","","","","","","","","","","","","","","","","","","","","","","","","","","","","","","","","","","","","","","","","","","","","","","","","","","","","","","","","","MET055METAR ENDR 241220Z 21052KT 5000 -RA OVC017 05/03 Q0987;","","","","","","","","","",""
"01023199999","2007-11-24T16:20:00","64.35","7.8","0.0","DRAUGEN, NO","FM-15","4","29.12","37","41","","||SHRA","","","87","FEW:02 14 BKN:07 16","","","7.00","","210","","41","","","","","","","","","","","","","","","","","","","","","","","","","","","","","","","","","","","","","","","","","","","","","","","","","","","","","","","","","","","","","","","","","","","","","","","","","","","","","","","","","","","","","","","","","","","MET063METAR ENDR 241520Z 21036KT 9999 SHRA FEW014 BKN016 05/03 Q0986;","","","","","","","","","",""
"01023199999","2007-11-25T07:20:00","64.35","7.8","0.0","DRAUGEN, NO","FM-15","4","29.18","36","41","","||SHRA","","","81","FEW:02 18 SCT:04 30 BKN:07 98","","","7.00","","330","","44","","","","","","","","","","","","","","","","","","","","","","","","","","","","","","","","","","","","","","","","","","","","","","","","","","","","","","","","","","","","","","","","","","","","","","","","","","","","","","","","","","","","","","","","","","","MET070METAR ENDR 250620Z 33038KT 9999 SHRA FEW018 SCT030 BKN100 05/02 Q0988;","","","","","","","","","",""
"01023199999","2007-11-25T10:20:00","64.35","7.8","0.0","DRAUGEN, NO","FM-15","4","29.32","21","37","","||SHRA","","","52","SCT:04 20 BKN:07 30","","","7.00","","320","","57","","","","","","","","","","","","","","","","","","","","","","","","","","","","","","","","","","","","","","","","","","","","","","","","","","","","","","","","","","","","","","","","","","","","","","","","","","","","","","","","","","","","","","","","","","","MET072METAR ENDR 250920Z 32050KT 290V350 9999 SHRA SCT020 BKN030 03/M06 Q0993;","","","","","","","","","",""
"01023199999","2007-11-25T13:20:00","64.35","7.8","0.0","DRAUGEN, NO","FM-15","4","29.44","28","32","","||SH","","","87","SCT:04 10 BKN:07 39","","","3.11","","300","","29","","","","","","","","","","","","","","","","","","","","","","","","","","","","","","","","","","","","","","","","","","","","","","","","","","","","","","","","","","","","","","","","","","","","","","","","","","","","","","","","","","","","","","","","","","","MET069METAR ENDR 251220Z 30025KT 5000 SHGRSN SCT010TCU BKN040 00/M02 Q0997;","","","","","","","","","",""
"01023199999","2007-11-25T16:20:00","64.35","7.8","0.0","DRAUGEN, NO","FM-15","4","29.44","32","32","","||SH","","","100","BKN:07 10","","","0.62","","320","59","38","","","","","","","","","","","","","","","","","","","","","","","","","","","","","","","","","","","","","","","","","","","","","","","","","","","","","","","","","","","","","","","","","","","","","","","","","","","","","","","","","","","","","","","","","","","MET073METAR ENDR 251520Z 32033G51KT 290V360 1000 SHGRSN BKN010TCU 00/M00 Q0997;","","","","","","","","","",""
"01023199999","2007-11-26T07:20:00","64.35","7.8","0.0","DRAUGEN, NO","FM-15","4","29.88","30","36","","||SHSN","","","81","BKN:07 18","","","3.11","","350","","49","","","","","","","","","","","","","","","","","","","","","","","","","","","","","","","","","","","","","","","","","","","","","","","","","","","","","","","","","","","","","","","","","","","","","","","","","","","","","","","","","","","","","","","","","","","MET057METAR ENDR 260620Z 35043KT 5000 SHSN BKN018 02/M01 Q1012;","","","","","","","","","",""
"01023199999","2007-11-26T10:20:00","64.35","7.8","0.0","DRAUGEN, NO","FM-15","4","29.97","25","37","","||SHSN","","","60","FEW:02 15 SCT:04 30","","","7.00","","350","","40","","","","","","","","","","","","","","","","","","","","","","","","","","","","","","","","","","","","","","","","","","","","","","","","","","","","","","","","","","","","","","","","","","","","","","","","","","","","","","","","","","","","","","","","","","","MET067METAR ENDR 260920Z 35035KT 9999 SHSN FEW015TCU SCT030 03/M04 Q1015;","","","","","","","","","",""
"01023199999","2007-11-26T13:20:00","64.35","7.8","0.0","DRAUGEN, NO","FM-15","4","30.03","28","34","","||SHSN","","","81","BKN:07 17","","","3.11","","350","55","43","","","","","","","","","","","","","","","","","","","","","","","","","","","","","","","","","","","","","","","","","","","","","","","","","","","","","","","","","","","","","","","","","","","","","","","","","","","","","","","","","","","","","","","","","","","MET061METAR ENDR 261220Z 35037G48KT 5000 +SHSN BKN017 01/M02 Q1017;","","","","","","","","","",""
"01023199999","2007-11-26T14:20:00","64.35","7.8","0.0","DRAUGEN, NO","FM-15","4","30.06","30","34","","||SHSN","","","87","BKN:07 17","","","3.11","","360","","26","","","","","","","","","","","","","","","","","","","","","","","","","","","","","","","","","","","","","","","","","","","","","","","","","","","","","","","","","","","","","","","","","","","","","","","","","","","","","","","","","","","","","","","","","","","MET057METAR ENDR 261320Z 36023KT 5000 SHSN BKN017 01/M01 Q1018;","","","","","","","","","",""
"01023199999","2007-11-26T16:20:00","64.35","7.8","0.0","DRAUGEN, NO","FM-15","4","30.09","28","36","","||SHSN","","","75","FEW:02 12 BKN:07 18","","","3.11","","350","","39","","","","","","","","","","","","","","","","","","","","","","","","","","","","","","","","","","","","","","","","","","","","","","","","","","","","","","","","","","","","","","","","","","","","","","","","","","","","","","","","","","","","","","","","","","","MET065METAR ENDR 261520Z 35034KT 5000 +SHSN FEW012 BKN018 02/M02 Q1019;","","","","","","","","","",""
"01023199999","2007-11-27T07:20:00","64.35","7.8","0.0","DRAUGEN, NO","FM-15","4","30.12","32","37","","||SHRA","","","81","BKN:07 12 BKN:07 128","","","7.00","","310","","19","","","","","","","","","","","","","","","","","","","","","","","","","","","","","","","","","","","","","","","","","","","","","","","","","","","","","","","","","","","","","","","","","","","","","","","","","","","","","","","","","","","","","","","","","","","MET073METAR ENDR 270620Z 31017KT 270V010 9999 SHSNRA BKN012 BKN130 03/00 Q1020;","","","","","","","","","",""
"01023199999","2007-11-27T08:40:00","64.35","7.8","0.0","DRAUGEN, NO","FM-16","4","30.12","34","37","","","","","87","BKN:07 12 BKN:07 128","","","","","350","","3","","","","","","","","","","","","","","","","","","","","","","","","","","","","","","","","","","","","","","","","","","","","","","","","","","","","","","","","","","","","","","","","","","","","","","","","","","","","","","","","","","","","","","","","","","","MET060METAR ENDR 270740Z 35003KT SHSNRA BKN012 BKN130 03/01 Q1020;","","","","","","","","","",""
"01023199999","2007-11-27T10:20:00","64.35","7.8","0.0","DRAUGEN, NO","FM-15","4","30.12","32","36","","||SHRASN","","","87","SCT:04 25 BKN:07 39","","","7.00","","300","","16","","","","","","","","","","","","","","","","","","","","","","","","","","","","","","","","","","","","","","","","","","","","","","","","","","","","","","","","","","","","","","","","","","","","","","","","","","","","","","","","","","","","","","","","","","","MET066METAR ENDR 270920Z 30014KT 9999 SHRASN SCT025 BKN040 02/M00 Q1020;","","","","","","","","","",""
"01023199999","2007-11-28T10:20:00","64.35","7.8","0.0","DRAUGEN, NO","FM-15","4","29.62","36","45","","","","","71","BKN:07 25","","","7.00","","350","","19","","","","","","","","","","","","","","","","","","","","","","","","","","","","","","","","","","","","","","","","","","","","","","","","","","","","","","","","","","","","","","","","","","","","","","","","","","","","","","","","","","","","","","","","","","","MET064METAR ENDR 280920Z 35017KT 300V020 9999 VCSH BKN025 07/02 Q1003;","","","","","","","","","",""
"01023199999","2007-11-28T13:10:00","64.35","7.8","0.0","DRAUGEN, NO","FM-15","4","29.65","34","43","","","","","71","BKN:07 25 BKN:07 128","","","7.00","","350","","19","","","","","","","","","","","","","","","","","","","","","","","","","","","","","","","","","","","","","","","","","","","","","","","","","","","","","","","","","","","","","","","","","","","","","","","","","","","","","","","","","","","","","","","","","","","MET058METAR ENDR 281210Z 35017KT 9999 BKN025 BKN130 06/01 Q1004;","","","","","","","","","",""
"01023199999","2007-11-28T16:20:00","64.35","7.8","0.0","DRAUGEN, NO","FM-15","4","29.65","30","43","","","","","61","BKN:07 34","","","7.00","","360","","16","","","","","","","","","","","","","","","","","","","","","","","","","","","","","","","","","","","","","","","","","","","","","","","","","","","","","","","","","","","","","","","","","","","","","","","","","","","","","","","","","","","","","","","","","","","MET052METAR ENDR 281520Z 36014KT 9999 BKN035 06/M01 Q1004;","","","","","","","","","",""
"01023199999","2007-11-29T09:40:00","64.35","7.8","0.0","DRAUGEN, NO","FM-15","4","29.26","30","37","","","","","75","BKN:07 15 BKN:07 118","","","7.00","","010","","55","","","","","","","","","","","","","","","","","","","","","","","","","","","","","","","","","","","","","","","","","","","","","","","","","","","","","","","","","","","","","","","","","","","","","","","","","","","","","","","","","","","","","","","","","","","MET059METAR ENDR 290840Z 01048KT 9999 BKN015 BKN120 03/M01 Q0991;","","","","","","","","","",""
"01023199999","2007-11-29T10:20:00","64.35","7.8","0.0","DRAUGEN, NO","FM-15","4","29.26","28","36","","","","","75","BKN:07 16 BKN:07 108","","","7.00","","010","","47","","","","","","","","","","","","","","","","","","","","","","","","","","","","","","","","","","","","","","","","","","","","","","","","","","","","","","","","","","","","","","","","","","","","","","","","","","","","","","","","","","","","","","","","","","","MET059METAR ENDR 290920Z 01041KT 9999 BKN016 BKN110 02/M02 Q0991;","","","","","","","","","",""
"01023199999","2007-11-29T12:40:00","64.35","7.8","0.0","DRAUGEN, NO","FM-15","4","29.21","30","37","","","","","75","SCT:04 16 BKN:07 49","","","7.00","","010","","47","","","","","","","","","","","","","","","","","","","","","","","","","","","","","","","","","","","","","","","","","","","","","","","","","","","","","","","","","","","","","","","","","","","","","","","","","","","","","","","","","","","","","","","","","","","MET059METAR ENDR 291140Z 01041KT 9999 SCT016 BKN050 03/M01 Q0989;","","","","","","","","","",""
"01023199999","2007-11-29T13:50:00","64.35","7.8","0.0","DRAUGEN, NO","FM-15","4","29.21","30","37","","","","","75","BKN:07 20","","","7.00","","","","","","","","","","","","","","","","","","","","","","","","","","","","","","","","","","","","","","","","","","","","","","","","","","","","","","","","","","","","","","","","","","","","","","","","","","","","","","","","","","","","","","","","","","","","","","","MET044METAR ENDR 291250Z 9999 BKN020 03/M01 Q0989;","","","","","","","","","",""
"01023199999","2007-11-29T15:40:00","64.35","7.8","0.0","DRAUGEN, NO","FM-15","4","29.21","30","37","","","","","75","BKN:07 20","","","7.00","","020","","54","","","","","","","","","","","","","","","","","","","","","","","","","","","","","","","","","","","","","","","","","","","","","","","","","","","","","","","","","","","","","","","","","","","","","","","","","","","","","","","","","","","","","","","","","","","MET052METAR ENDR 291440Z 02047KT 9999 BKN020 03/M01 Q0989;","","","","","","","","","",""
"01023199999","2007-11-30T08:40:00","64.35","7.8","0.0","DRAUGEN, NO","FM-15","4","29.26","32","37","","","","","81","SCT:04 20 BKN:07 69","","","7.00","","110","","28","","","","","","","","","","","","","","","","","","","","","","","","","","","","","","","","","","","","","","","","","","","","","","","","","","","","","","","","","","","","","","","","","","","","","","","","","","","","","","","","","","","","","","","","","","","MET059METAR ENDR 300740Z 11024KT 9999 SCT020 BKN070 03/M00 Q0991;","","","","","","","","","",""
"01023199999","2007-11-30T10:10:00","64.35","7.8","0.0","DRAUGEN, NO","FM-15","4","29.26","32","39","","","","","75","BKN:07 59","","","7.00","","130","","19","","","","","","","","","","","","","","","","","","","","","","","","","","","","","","","","","","","","","","","","","","","","","","","","","","","","","","","","","","","","","","","","","","","","","","","","","","","","","","","","","","","","","","","","","","","MET051METAR ENDR 300910Z 13017KT 9999 BKN060 04/00 Q0991;","","","","","","","","","",""
"01023199999","2007-11-30T12:20:00","64.35","7.8","0.0","DRAUGEN, NO","FM-15","4","29.26","34","39","","","","","81","FEW:02 20 BKN:07 59","","","7.00","","140","","23","","","","","","","","","","","","","","","","","","","","","","","","","","","","","","","","","","","","","","","","","","","","","","","","","","","","","","","","","","","","","","","","","","","","","","","","","","","","","","","","","","","","","","","","","","","MET058METAR ENDR 301120Z 14020KT 9999 FEW020 BKN060 04/01 Q0991;","","","","","","","","","",""
"01023199999","2007-11-30T12:50:00","64.35","7.8","0.0","DRAUGEN, NO","FM-15","4","29.26","32","39","","","","","75","BKN:07 54","","","7.00","","140","","24","","","","","","","","","","","","","","","","","","","","","","","","","","","","","","","","","","","","","","","","","","","","","","","","","","","","","","","","","","","","","","","","","","","","","","","","","","","","","","","","","","","","","","","","","","","MET051METAR ENDR 301150Z 14021KT 9999 BKN055 04/00 Q0991;","","","","","","","","","",""
"01023199999","2007-11-30T15:10:00","64.35","7.8","0.0","DRAUGEN, NO","FM-15","4","29.26","32","41","","","","","70","OVC:08 39","","","7.00","","150","","24","","","","","","","","","","","","","","","","","","","","","","","","","","","","","","","","","","","","","","","","","","","","","","","","","","","","","","","","","","","","","","","","","","","","","","","","","","","","","","","","","","","","","","","","","","","MET051METAR ENDR 301410Z 15021KT 9999 OVC040 05/00 Q0991;","","","","","","","","","",""
"01023199999","2007-11-30T16:10:00","64.35","7.8","0.0","DRAUGEN, NO","FM-15","4","29.26","32","41","","","","","70","BKN:07 39 OVC:08 54","","","7.00","","150","","24","","","","","","","","","","","","","","","","","","","","","","","","","","","","","","","","","","","","","","","","","","","","","","","","","","","","","","","","","","","","","","","","","","","","","","","","","","","","","","","","","","","","","","","","","","","MET058METAR ENDR 301510Z 15021KT 9999 BKN040 OVC055 05/00 Q0991;","","","","","","","","","",""
"01023199999","2007-12-01T07:10:00","64.35","7.8","0.0","DRAUGEN, NO","FM-15","4","29.06","30","41","","","","","66","BKN:07 20 OVC:08 59","","","7.00","","130","","16","","","","","","","","","","","","","","","","","","","","","","","","","","","","","","","","","","","","","","","","","","","","","","","","","","","","","","","","","","","","","","","","","","","","","","","","","","","","","","","","","","","","","","","","","","","MET059METAR ENDR 010610Z 13014KT 9999 BKN020 OVC060 05/M01 Q0984;","","","","","","","","","",""
"01023199999","2007-12-01T10:10:00","64.35","7.8","0.0","DRAUGEN, NO","FM-15","4","29.00","32","41","","","","","70","BKN:07 94","","","7.00","","140","","13","","","","","","","","","","","","","","","","","","","","","","","","","","","","","","","","","","","","","","","","","","","","","","","","","","","","","","","","","","","","","","","","","","","","","","","","","","","","","","","","","","","","","","","","","","","MET052METAR ENDR 010910Z 14011KT 9999 BKN095 05/M00 Q0982;","","","","","","","","","",""
"01023199999","2007-12-01T13:10:00","64.35","7.8","0.0","DRAUGEN, NO","FM-15","4","28.97","32","43","","","","","66","BKN:07 54 OVC:08 108","","","7.00","","140","","15","","","","","","","","","","","","","","","","","","","","","","","","","","","","","","","","","","","","","","","","","","","","","","","","","","","","","","","","","","","","","","","","","","","","","","","","","","","","","","","","","","","","","","","","","","","MET059METAR ENDR 011210Z 14013KT 9999 BKN055 OVC110 06/M00 Q0981;","","","","","","","","","",""
"01023199999","2007-12-01T13:40:00","64.35","7.8","0.0","DRAUGEN, NO","FM-16","4","28.94","32","43","","","","","66","FEW:02 59 BKN:07 108 OVC:08 167","","","","","140","","16","","","","","","","","","","","","","","","","","","","","","","","","","","","","","","","","","","","","","","","","","","","","","","","","","","","","","","","","","","","","","","","","","","","","","","","","","","","","","","","","","","","","","","","","","","","MET060METAR ENDR 011240Z 14014KT FEW060 BKN110 OVC170 06/00 Q0980;","","","","","","","","","",""
"01023199999","2007-12-01T16:10:00","64.35","7.8","0.0","DRAUGEN, NO","FM-15","4","28.91","32","43","","","","","66","BKN:07 108 BKN:07 167","","","7.00","","140","","21","","","","","","","","","","","","","","","","","","","","","","","","","","","","","","","","","","","","","","","","","","","","","","","","","","","","","","","","","","","","","","","","","","","","","","","","","","","","","","","","","","","","","","","","","","","MET058METAR ENDR 011510Z 14018KT 9999 BKN110 BKN170 06/00 Q0979;","","","","","","","","","",""
"01023199999","2007-12-02T07:20:00","64.35","7.8","0.0","DRAUGEN, NO","FM-15","4","28.91","36","43","","","","","76","SCT:04 22 BKN:07 49 BKN:07 59","","","7.00","","280","","15","","","","","","","","","","","","","","","","","","","","","","","","","","","","","","","","","","","","","","","","","","","","","","","","","","","","","","","","","","","","","","","","","","","","","","","","","","","","","","","","","","","","","","","","","","","MET065METAR ENDR 020620Z 28013KT 9999 SCT022 BKN050 BKN060 06/02 Q0979;","","","","","","","","","",""
"01023199999","2007-12-02T10:10:00","64.35","7.8","0.0","DRAUGEN, NO","FM-15","4","28.91","34","43","","||SHRA","","","71","FEW:02 20 OVC:08 79","","","7.00","","260","","18","","","","","","","","","","","","","","","","","","","","","","","","","","","","","","","","","","","","","","","","","","","","","","","","","","","","","","","","","","","","","","","","","","","","","","","","","","","","","","","","","","","","","","","","","","","MET064METAR ENDR 020910Z 26016KT 9999 -SHRA FEW020 OVC080 06/01 Q0979;","","","","","","","","","",""
"01023199999","2007-12-02T13:10:00","64.35","7.8","0.0","DRAUGEN, NO","FM-15","4","28.94","36","43","","","","","76","SCT:04 24 SCT:04 39 OVC:08 79","","","7.00","","260","","21","","","","","","","","","","","","","","","","","","","","","","","","","","","","","","","","","","","","","","","","","","","","","","","","","","","","","","","","","","","","","","","","","","","","","","","","","","","","","","","","","","","","","","","","","","","MET065METAR ENDR 021210Z 26018KT 9999 SCT024 SCT040 OVC080 06/02 Q0980;","","","","","","","","","",""
"01023199999","2007-12-03T07:10:00","64.35","7.8","0.0","DRAUGEN, NO","FM-15","4","28.94","36","39","","","","","87","BKN:07 16 BKN:07 49","","","7.00","","160","","9","","","","","","","","","","","","","","","","","","","","","","","","","","","","","","","","","","","","","","","","","","","","","","","","","","","","","","","","","","","","","","","","","","","","","","","","","","","","","","","","","","","","","","","","","","","MET058METAR ENDR 030610Z 16008KT 9999 BKN016 BKN050 04/02 Q0980;","","","","","","","","","",""
"01023199999","2007-12-03T10:10:00","64.35","7.8","0.0","DRAUGEN, NO","FM-15","4","28.94","37","41","","","","","87","SCT:04 16 BKN:07 20","","","7.00","","150","","8","","","","","","","","","","","","","","","","","","","","","","","","","","","","","","","","","","","","","","","","","","","","","","","","","","","","","","","","","","","","","","","","","","","","","","","","","","","","","","","","","","","","","","","","","","","MET066METAR ENDR 030910Z 15007KT 120V190 9999 SCT016 BKN020 05/03 Q0980;","","","","","","","","","",""
"01023199999","2007-12-03T11:10:00","64.35","7.8","0.0","DRAUGEN, NO","FM-15","4","28.94","36","41","","","","","81","SCT:04 16 BKN:07 20","","","7.00","","190","","8","","","","","","","","","","","","","","","","","","","","","","","","","","","","","","","","","","","","","","","","","","","","","","","","","","","","","","","","","","","","","","","","","","","","","","","","","","","","","","","","","","","","","","","","","","","MET058METAR ENDR 031010Z 19007KT 9999 SCT016 BKN020 05/02 Q0980;","","","","","","","","","",""
"01023199999","2007-12-03T13:10:00","64.35","7.8","0.0","DRAUGEN, NO","FM-15","4","28.94","36","41","","","","","81","SCT:04 20","","","7.00","","220","","16","","","","","","","","","","","","","","","","","","","","","","","","","","","","","","","","","","","","","","","","","","","","","","","","","","","","","","","","","","","","","","","","","","","","","","","","","","","","","","","","","","","","","","","","","","","MET051METAR ENDR 031210Z 22014KT 9999 SCT020 05/02 Q0980;","","","","","","","","","",""
"01023199999","2007-12-03T16:10:00","64.35","7.8","0.0","DRAUGEN, NO","FM-15","4","28.97","36","41","","","","","81","FEW:02 18 SCT:04 25","","","7.00","","220","","11","","","","","","","","","","","","","","","","","","","","","","","","","","","","","","","","","","","","","","","","","","","","","","","","","","","","","","","","","","","","","","","","","","","","","","","","","","","","","","","","","","","","","","","","","","","MET058METAR ENDR 031510Z 22010KT 9999 FEW018 SCT025 05/02 Q0981;","","","","","","","","","",""
"01023199999","2007-12-04T07:10:00","64.35","7.8","0.0","DRAUGEN, NO","FM-15","4","29.21","37","43","","","","","81","BKN:07 20 BKN:07 39","","","7.00","","260","","26","","","","","","","","","","","","","","","","","","","","","","","","","","","","","","","","","","","","","","","","","","","","","","","","","","","","","","","","","","","","","","","","","","","","","","","","","","","","","","","","","","","","","","","","","","","MET058METAR ENDR 040610Z 26023KT 9999 BKN020 BKN040 06/03 Q0989;","","","","","","","","","",""
"01023199999","2007-12-04T10:10:00","64.35","7.8","0.0","DRAUGEN, NO","FM-15","4","29.26","34","43","","","","","71","SCT:04 25 SCT:04 39","","","7.00","","250","","26","","","","","","","","","","","","","","","","","","","","","","","","","","","","","","","","","","","","","","","","","","","","","","","","","","","","","","","","","","","","","","","","","","","","","","","","","","","","","","","","","","","","","","","","","","","MET058METAR ENDR 040910Z 25023KT 9999 SCT025 SCT040 06/01 Q0991;","","","","","","","","","",""
"01023199999","2007-12-04T13:10:00","64.35","7.8","0.0","DRAUGEN, NO","FM-15","4","29.32","34","41","","","","","76","FEW:02 18 SCT:04 24 BKN:07 39","","","7.00","","250","","21","","","","","","","","","","","","","","","","","","","","","","","","","","","","","","","","","","","","","","","","","","","","","","","","","","","","","","","","","","","","","","","","","","","","","","","","","","","","","","","","","","","","","","","","","","","MET065METAR ENDR 041210Z 25018KT 9999 FEW018 SCT024 BKN040 05/01 Q0993;","","","","","","","","","",""
"01023199999","2007-12-05T07:00:00","64.35","7.8","0.0","DRAUGEN, NO","FM-15","4","28.94","36","37","","||RA","","","93","OVC:08 39","","","3.73","","120","","34","","","","","","","","","","","","","","","","","","","","","","","","","","","","","","","","","","","","","","","","","","","","","","","","","","","","","","","","","","","","","","","","","","","","","","","","","","","","","","","","","","","","","","","","","","","MET054METAR ENDR 050600Z 12030KT 6000 RA OVC040 03/02 Q0980;","","","","","","","","","",""
"01023199999","2007-12-05T10:10:00","64.35","7.8","0.0","DRAUGEN, NO","FM-15","4","28.88","43","43","","||DZ RA","","","100","OVC:08 7","","","2.49","","150","","36","","","","","","","","","","","","","","","","","","","","","","","","","","","","","","","","","","","","","","","","","","","","","","","","","","","","","","","","","","","","","","","","","","","","","","","","","","","","","","","","","","","","","","","","","","","MET057METAR ENDR 050910Z 15031KT 4000 -RADZ OVC007 06/06 Q0978;","","","","","","","","","",""
"01023199999","2007-12-05T10:40:00","64.35","7.8","0.0","DRAUGEN, NO","FM-15","4","28.88","43","45","","||DZ RA","","","93","OVC:08 9","","","7.00","","160","","34","","","","","","","","","","","","","","","","","","","","","","","","","","","","","","","","","","","","","","","","","","","","","","","","","","","","","","","","","","","","","","","","","","","","","","","","","","","","","","","","","","","","","","","","","","","MET057METAR ENDR 050940Z 16030KT 9999 -RADZ OVC009 07/06 Q0978;","","","","","","","","","",""
"01023199999","2007-12-05T11:10:00","64.35","7.8","0.0","DRAUGEN, NO","FM-15","4","28.88","45","45","","","","","100","OVC:08 7","","","7.00","","170","","34","","","","","","","","","","","","","","","","","","","","","","","","","","","","","","","","","","","","","","","","","","","","","","","","","","","","","","","","","","","","","","","","","","","","","","","","","","","","","","","","","","","","","","","","","","","MET051METAR ENDR 051010Z 17030KT 9999 OVC007 07/07 Q0978;","","","","","","","","","",""
"01023199999","2007-12-05T13:10:00","64.35","7.8","0.0","DRAUGEN, NO","FM-15","4","28.88","46","46","","||RA","","","100","OVC:08 6","","","7.00","","170","","36","","","","","","","","","","","","","","","","","","","","","","","","","","","","","","","","","","","","","","","","","","","","","","","","","","","","","","","","","","","","","","","","","","","","","","","","","","","","","","","","","","","","","","","","","","","MET055METAR ENDR 051210Z 17031KT 9999 -RA OVC006 08/08 Q0978;","","","","","","","","","",""
"01023199999","2007-12-05T16:10:00","64.35","7.8","0.0","DRAUGEN, NO","FM-15","4","28.88","45","46","","","","","93","BKN:07 13 OVC:08 22","","","7.00","","190","","37","","","","","","","","","","","","","","","","","","","","","","","","","","","","","","","","","","","","","","","","","","","","","","","","","","","","","","","","","","","","","","","","","","","","","","","","","","","","","","","","","","","","","","","","","","","MET058METAR ENDR 051510Z 19032KT 9999 BKN013 OVC022 08/07 Q0978;","","","","","","","","","",""
"01023199999","2007-12-06T07:10:00","64.35","7.8","0.0","DRAUGEN, NO","FM-15","4","28.82","43","45","","","","","93","BKN:07 27 BKN:07 49 BKN:07 59","","","7.00","","180","","15","","","","","","","","","","","","","","","","","","","","","","","","","","","","","","","","","","","","","","","","","","","","","","","","","","","","","","","","","","","","","","","","","","","","","","","","","","","","","","","","","","","","","","","","","","","MET065METAR ENDR 060610Z 18013KT 9999 BKN027 BKN050 BKN060 07/06 Q0976;","","","","","","","","","",""
"01023199999","2007-12-06T10:10:00","64.35","7.8","0.0","DRAUGEN, NO","FM-15","4","28.82","41","45","","","","","87","SCT:04 13 BKN:07 20 OVC:08 39","","","7.00","","190","","24","","","","","","","","","","","","","","","","","","","","","","","","","","","","","","","","","","","","","","","","","","","","","","","","","","","","","","","","","","","","","","","","","","","","","","","","","","","","","","","","","","","","","","","","","","","MET065METAR ENDR 060910Z 19021KT 9999 SCT013 BKN020 OVC040 07/05 Q0976;","","","","","","","","","",""
"01023199999","2007-12-06T12:40:00","64.35","7.8","0.0","DRAUGEN, NO","FM-15","4","28.82","45","45","","","","","100","BKN:07 8 OVC:08 20","","","3.11","","220","","24","","","","","","","","","","","","","","","","","","","","","","","","","","","","","","","","","","","","","","","","","","","","","","","","","","","","","","","","","","","","","","","","","","","","","","","","","","","","","","","","","","","","","","","","","","","MET058METAR ENDR 061140Z 22021KT 5000 BKN008 OVC020 07/07 Q0976;","","","","","","","","","",""
"01023199999","2007-12-06T14:40:00","64.35","7.8","0.0","DRAUGEN, NO","FM-15","4","28.82","43","45","","","","","93","BKN:07 20","","","7.00","","240","","17","","","","","","","","","","","","","","","","","","","","","","","","","","","","","","","","","","","","","","","","","","","","","","","","","","","","","","","","","","","","","","","","","","","","","","","","","","","","","","","","","","","","","","","","","","","MET056METAR ENDR 061340Z 24015KT 9999 VCSH BKN020 07/06 Q0976;","","","","","","","","","",""
"01023199999","2007-12-06T16:10:00","64.35","7.8","0.0","DRAUGEN, NO","FM-16","4","28.85","39","45","","","","","81","BKN:07 15 OVC:08 49","","","","","310","","18","","","","","","","","","","","","","","","","","","","","","","","","","","","","","","","","","","","","","","","","","","","","","","","","","","","","","","","","","","","","","","","","","","","","","","","","","","","","","","","","","","","","","","","","","","","MET058METAR ENDR 061510Z 31016KT VCSH BKN015 OVC050 07/04 Q0977;","","","","","","","","","",""
"01023199999","2007-12-07T07:40:00","64.35","7.8","0.0","DRAUGEN, NO","FM-15","4","28.85","34","41","","","","","76","FEW:02 23 BKN:07 59 BKN:07 108","","","7.00","","010","","13","","","","","","","","","","","","","","","","","","","","","","","","","","","","","","","","","","","","","","","","","","","","","","","","","","","","","","","","","","","","","","","","","","","","","","","","","","","","","","","","","","","","","","","","","","","MET073METAR ENDR 070640Z 01011KT 340V040 9999 FEW023 BKN060 BKN110 05/01 Q0977;","","","","","","","","","",""
"01023199999","2007-12-07T13:10:00","64.35","7.8","0.0","DRAUGEN, NO","FM-15","4","","34","43","","","","","71","FEW:02 20 BKN:07 79","","","7.00","","350","","16","","","","","","","","","","","","","","","","","","","","","","","","","","","","","","","","","","","","","","","","","","","","","","","","","","","","","","","","","","","","","","","","","","","","","","","","","","","","","","","","","","","","","","","","","","","MET060METAR ENDR 071210Z 35014KT 320V040 9999 FEW020 BKN080 06/01;","","","","","","","","","",""
"01023199999","2007-12-07T16:10:00","64.35","7.8","0.0","DRAUGEN, NO","FM-15","4","28.94","36","41","","","","","81","SCT:04 20 SCT:04 39","","","7.00","","350","","13","","","","","","","","","","","","","","","","","","","","","","","","","","","","","","","","","","","","","","","","","","","","","","","","","","","","","","","","","","","","","","","","","","","","","","","","","","","","","","","","","","","","","","","","","","","MET066METAR ENDR 071510Z 35011KT 290V060 9999 SCT020 SCT040 05/02 Q0980;","","","","","","","","","",""
"01023199999","2007-12-08T07:10:00","64.35","7.8","0.0","DRAUGEN, NO","FM-16","4","29.09","36","41","","","","","81","FEW:02 30 SCT:04 49 BKN:07 79","","","","","320","","23","","","","","","","","","","","","","","","","","","","","","","","","","","","","","","","","","","","","","","","","","","","","","","","","","","","","","","","","","","","","","","","","","","","","","","","","","","","","","","","","","","","","","","","","","","","MET072METAR ENDR 080610Z 32020KT 280V350 -RA FEW030 SCT050 BKN080 05/02 Q0985;","","","","","","","","","",""
"01023199999","2007-12-08T10:10:00","64.35","7.8","0.0","DRAUGEN, NO","FM-15","4","29.12","34","39","","||SHRA","","","81","SCT:04 20 BKN:07 59","","","7.00","","260","","2","","","","","","","","","","","","","","","","","","","","","","","","","","","","","","","","","","","","","","","","","","","","","","","","","","","","","","","","","","","","","","","","","","","","","","","","","","","","","","","","","","","","","","","","","","","MET064METAR ENDR 080910Z 26002KT 9999 -SHRA SCT020 BKN060 04/01 Q0986;","","","","","","","","","",""
"01023199999","2007-12-08T13:10:00","64.35","7.8","0.0","DRAUGEN, NO","FM-15","4","29.12","36","39","","","","","87","BKN:07 17","","","7.00","","270","","21","","","","","","","","","","","","","","","","","","","","","","","","","","","","","","","","","","","","","","","","","","","","","","","","","","","","","","","","","","","","","","","","","","","","","","","","","","","","","","","","","","","","","","","","","","","MET051METAR ENDR 081210Z 27018KT 9999 BKN017 04/02 Q0986;","","","","","","","","","",""
"01023199999","2007-12-08T16:10:00","64.35","7.8","0.0","DRAUGEN, NO","FM-15","4","29.12","34","36","","||SHRA","","","93","BKN:07 22","","","7.00","","300","","30","","","","","","","","","","","","","","","","","","","","","","","","","","","","","","","","","","","","","","","","","","","","","","","","","","","","","","","","","","","","","","","","","","","","","","","","","","","","","","","","","","","","","","","","","","","MET056METAR ENDR 081510Z 30026KT 9999 SHRA BKN022 02/01 Q0986;","","","","","","","","","",""
"01023199999","2007-12-09T07:00:00","64.35","7.8","0.0","DRAUGEN, NO","FM-15","4","29.15","28","39","","","","","65","FEW:02 30 SCT:04 39","","","7.00","","240","","18","","","","","","","","","","","","","","","","","","","","","","","","","","","","","","","","","","","","","","","","","","","","","","","","","","","","","","","","","","","","","","","","","","","","","","","","","","","","","","","","","","","","","","","","","","","MET059METAR ENDR 090600Z 24016KT 9999 FEW030 SCT040 04/M02 Q0987;","","","","","","","","","",""
"01023199999","2007-12-09T10:10:00","64.35","7.8","0.0","DRAUGEN, NO","FM-15","4","29.21","28","39","","","","","65","FEW:02 39","","","7.00","","210","","14","","","","","","","","","","","","","","","","","","","","","","","","","","","","","","","","","","","","","","","","","","","","","","","","","","","","","","","","","","","","","","","","","","","","","","","","","","","","","","","","","","","","","","","","","","","MET052METAR ENDR 090910Z 21012KT 9999 FEW040 04/M02 Q0989;","","","","","","","","","",""
"01023199999","2007-12-09T15:40:00","64.35","7.8","0.0","DRAUGEN, NO","FM-15","4","29.26","27","39","","","","","61","SCT:04 34","","","7.00","","230","","7","","","","","","","","","","","","","","","","","","","","","","","","","","","","","","","","","","","","","","","","","","","","","","","","","","","","","","","","","","","","","","","","","","","","","","","","","","","","","","","","","","","","","","","","","","","MET052METAR ENDR 091440Z 23006KT 9999 SCT035 04/M03 Q0991;","","","","","","","","","",""
"01023199999","2007-12-10T07:00:00","64.35","7.8","0.0","DRAUGEN, NO","FM-15","4","29.53","36","41","","","","","81","FEW:02 44","","","7.00","","240","","9","","","","","","","","","","","","","","","","","","","","","","","","","","","","","","","","","","","","","","","","","","","","","","","","","","","","","","","","","","","","","","","","","","","","","","","","","","","","","","","","","","","","","","","","","","","MET051METAR ENDR 100600Z 24008KT 9999 FEW045 05/02 Q1000;","","","","","","","","","",""
"01023199999","2007-12-10T09:40:00","64.35","7.8","0.0","DRAUGEN, NO","FM-15","4","29.62","36","41","","","","","81","SCT:04 26 BKN:07 35","","","7.00","","260","","9","","","","","","","","","","","","","","","","","","","","","","","","","","","","","","","","","","","","","","","","","","","","","","","","","","","","","","","","","","","","","","","","","","","","","","","","","","","","","","","","","","","","","","","","","","","MET058METAR ENDR 100840Z 26008KT 9999 SCT026 BKN036 05/02 Q1003;","","","","","","","","","",""
"01023199999","2007-12-10T10:10:00","64.35","7.8","0.0","DRAUGEN, NO","FM-15","4","29.62","36","41","","","","","81","SCT:04 25 BKN:07 35","","","7.00","","270","","6","","","","","","","","","","","","","","","","","","","","","","","","","","","","","","","","","","","","","","","","","","","","","","","","","","","","","","","","","","","","","","","","","","","","","","","","","","","","","","","","","","","","","","","","","","","MET058METAR ENDR 100910Z 27005KT 9999 SCT025 BKN036 05/02 Q1003;","","","","","","","","","",""
"01023199999","2007-12-10T13:10:00","64.35","7.8","0.0","DRAUGEN, NO","FM-15","4","29.68","37","45","","","","","76","SCT:04 24 SCT:04 35","","","7.00","","350","","5","","","","","","","","","","","","","","","","","","","","","","","","","","","","","","","","","","","","","","","","","","","","","","","","","","","","","","","","","","","","","","","","","","","","","","","","","","","","","","","","","","","","","","","","","","","MET061METAR ENDR 101210Z 35004KT 9999 SCT024TCU SCT036 07/03 Q1005;","","","","","","","","","",""
"01023199999","2007-12-10T15:40:00","64.35","7.8","0.0","DRAUGEN, NO","FM-15","4","29.77","37","43","","","","","81","SCT:04 26","","","7.00","","020","","18","","","","","","","","","","","","","","","","","","","","","","","","","","","","","","","","","","","","","","","","","","","","","","","","","","","","","","","","","","","","","","","","","","","","","","","","","","","","","","","","","","","","","","","","","","","MET051METAR ENDR 101440Z 02016KT 9999 SCT026 06/03 Q1008;","","","","","","","","","",""
"01023199999","2007-12-11T07:10:00","64.35","7.8","0.0","DRAUGEN, NO","FM-15","4","30.24","34","43","","","","","71","FEW:02 28 SCT:04 37","","","7.00","","060","","9","","","","","","","","","","","","","","","","","","","","","","","","","","","","","","","","","","","","","","","","","","","","","","","","","","","","","","","","","","","","","","","","","","","","","","","","","","","","","","","","","","","","","","","","","","","MET058METAR ENDR 110610Z 06008KT 9999 FEW028 SCT038 06/01 Q1024;","","","","","","","","","",""
"01023199999","2007-12-11T13:10:00","64.35","7.8","0.0","DRAUGEN, NO","FM-15","4","30.39","34","41","","","","","76","FEW:02 30 BKN:07 79","","","7.00","","160","","9","","","","","","","","","","","","","","","","","","","","","","","","","","","","","","","","","","","","","","","","","","","","","","","","","","","","","","","","","","","","","","","","","","","","","","","","","","","","","","","","","","","","","","","","","","","MET058METAR ENDR 111210Z 16008KT 9999 FEW030 BKN080 05/01 Q1029;","","","","","","","","","",""
"01023199999","2007-12-11T16:10:00","64.35","7.8","0.0","DRAUGEN, NO","FM-15","4","30.45","32","41","","","","","70","FEW:02 39 BKN:07 79","","","7.00","","160","","9","","","","","","","","","","","","","","","","","","","","","","","","","","","","","","","","","","","","","","","","","","","","","","","","","","","","","","","","","","","","","","","","","","","","","","","","","","","","","","","","","","","","","","","","","","","MET058METAR ENDR 111510Z 16008KT 9999 FEW040 BKN080 05/00 Q1031;","","","","","","","","","",""
"01023199999","2007-12-12T07:10:00","64.35","7.8","0.0","DRAUGEN, NO","FM-15","4","30.45","32","43","","","","","66","OVC:08 108","","","7.00","","200","","24","","","","","","","","","","","","","","","","","","","","","","","","","","","","","","","","","","","","","","","","","","","","","","","","","","","","","","","","","","","","","","","","","","","","","","","","","","","","","","","","","","","","","","","","","","","MET051METAR ENDR 120610Z 20021KT 9999 OVC110 06/00 Q1031;","","","","","","","","","",""
"01023199999","2007-12-12T11:10:00","64.35","7.8","0.0","DRAUGEN, NO","FM-15","4","30.45","34","43","","","","","71","FEW:02 24 SCT:04 98 BKN:07 148","","","7.00","","210","","37","","","","","","","","","","","","","","","","","","","","","","","","","","","","","","","","","","","","","","","","","","","","","","","","","","","","","","","","","","","","","","","","","","","","","","","","","","","","","","","","","","","","","","","","","","","MET065METAR ENDR 121010Z 21032KT 9999 FEW024 SCT100 BKN150 06/01 Q1031;","","","","","","","","","",""
"01023199999","2007-12-12T12:40:00","64.35","7.8","0.0","DRAUGEN, NO","FM-15","4","30.45","34","43","","","","","71","FEW:02 24 SCT:04 98 BKN:07 148","","","7.00","","210","","40","","","","","","","","","","","","","","","","","","","","","","","","","","","","","","","","","","","","","","","","","","","","","","","","","","","","","","","","","","","","","","","","","","","","","","","","","","","","","","","","","","","","","","","","","","","MET065METAR ENDR 121140Z 21035KT 9999 FEW024 SCT100 BKN150 06/01 Q1031;","","","","","","","","","",""
"01023199999","2007-12-12T13:10:00","64.35","7.8","0.0","DRAUGEN, NO","FM-15","4","30.42","34","43","","","","","71","FEW:02 24 SCT:04 98 BKN:07 148","","","7.00","","210","","43","","","","","","","","","","","","","","","","","","","","","","","","","","","","","","","","","","","","","","","","","","","","","","","","","","","","","","","","","","","","","","","","","","","","","","","","","","","","","","","","","","","","","","","","","","","MET065METAR ENDR 121210Z 21037KT 9999 FEW024 SCT100 BKN150 06/01 Q1030;","","","","","","","","","",""
"01023199999","2007-12-12T17:10:00","64.35","7.8","0.0","DRAUGEN, NO","FM-16","4","30.39","34","43","","","","","71","FEW:02 27 BKN:07 148","","","","","210","","51","","","","","","","","","","","","","","","","","","","","","","","","","","","","","","","","","","","","","","","","","","","","","","","","","","","","","","","","","","","","","","","","","","","","","","","","","","","","","","","","","","","","","","","","","","","MET053METAR ENDR 121610Z 21044KT FEW027 BKN150 06/01 Q1029;","","","","","","","","","",""
"01023199999","2007-12-12T19:10:00","64.35","7.8","0.0","DRAUGEN, NO","FM-15","4","30.39","34","43","","","","","71","OVC:08 25","","","7.00","","210","","52","","","","","","","","","","","","","","","","","","","","","","","","","","","","","","","","","","","","","","","","","","","","","","","","","","","","","","","","","","","","","","","","","","","","","","","","","","","","","","","","","","","","","","","","","","","MET051METAR ENDR 121810Z 21045KT 9999 OVC025 06/01 Q1029;","","","","","","","","","",""
"01023199999","2007-12-13T07:10:00","64.35","7.8","0.0","DRAUGEN, NO","FM-15","4","30.45","39","43","","","","","87","BKN:07 17 BKN:07 39","","","7.00","","230","","44","","","","","","","","","","","","","","","","","","","","","","","","","","","","","","","","","","","","","","","","","","","","","","","","","","","","","","","","","","","","","","","","","","","","","","","","","","","","","","","","","","","","","","","","","","","MET058METAR ENDR 130610Z 23038KT 9999 BKN017 BKN040 06/04 Q1031;","","","","","","","","","",""
"01023199999","2007-12-13T10:10:00","64.35","7.8","0.0","DRAUGEN, NO","FM-15","4","30.45","37","45","","","","","76","FEW:02 24 BKN:07 74","","","7.00","","210","","38","","","","","","","","","","","","","","","","","","","","","","","","","","","","","","","","","","","","","","","","","","","","","","","","","","","","","","","","","","","","","","","","","","","","","","","","","","","","","","","","","","","","","","","","","","","MET058METAR ENDR 130910Z 21033KT 9999 FEW024 BKN075 07/03 Q1031;","","","","","","","","","",""
"01023199999","2007-12-13T11:40:00","64.35","7.8","0.0","DRAUGEN, NO","FM-16","4","30.45","36","45","","","","","71","FEW:02 25 BKN:07 64","","","","","210","","45","","","","","","","","","","","","","","","","","","","","","","","","","","","","","","","","","","","","","","","","","","","","","","","","","","","","","","","","","","","","","","","","","","","","","","","","","","","","","","","","","","","","","","","","","","","MET053METAR ENDR 131040Z 21039KT FEW025 BKN065 07/02 Q1031;","","","","","","","","","",""
"01023199999","2007-12-14T10:10:00","64.35","7.8","0.0","DRAUGEN, NO","FM-15","4","30.42","41","46","","","","","82","BKN:07 18","","","7.00","","240","","36","","","","","","","","","","","","","","","","","","","","","","","","","","","","","","","","","","","","","","","","","","","","","","","","","","","","","","","","","","","","","","","","","","","","","","","","","","","","","","","","","","","","","","","","","","","MET051METAR ENDR 140910Z 24031KT 9999 BKN018 08/05 Q1030;","","","","","","","","","",""
"01023199999","2007-12-14T13:50:00","64.35","7.8","0.0","DRAUGEN, NO","FM-15","4","30.47","39","46","","","","","76","BKN:07 20","","","4.97","","240","","30","","","","","","","","","","","","","","","","","","","","","","","","","","","","","","","","","","","","","","","","","","","","","","","","","","","","","","","","","","","","","","","","","","","","","","","","","","","","","","","","","","","","","","","","","","","MET051METAR ENDR 141250Z 24026KT 8000 BKN020 08/04 Q1032;","","","","","","","","","",""
"01023199999","2007-12-14T16:10:00","64.35","7.8","0.0","DRAUGEN, NO","FM-15","4","30.47","43","45","","","","","93","SCT:04 10 BKN:07 27 BKN:07 237","","","7.00","","240","","25","","","","","","","","","","","","","","","","","","","","","","","","","","","","","","","","","","","","","","","","","","","","","","","","","","","","","","","","","","","","","","","","","","","","","","","","","","","","","","","","","","","","","","","","","","","MET065METAR ENDR 141510Z 24022KT 9999 SCT010 BKN027 BKN241 07/06 Q1032;","","","","","","","","","",""
"01023199999","2007-12-15T07:10:00","64.35","7.8","0.0","DRAUGEN, NO","FM-15","4","30.47","41","45","","","","","87","OVC:08 18","","","7.00","","220","","36","","","","","","","","","","","","","","","","","","","","","","","","","","","","","","","","","","","","","","","","","","","","","","","","","","","","","","","","","","","","","","","","","","","","","","","","","","","","","","","","","","","","","","","","","","","MET051METAR ENDR 150610Z 22031KT 9999 OVC018 07/05 Q1032;","","","","","","","","","",""
"01023199999","2007-12-15T10:10:00","64.35","7.8","0.0","DRAUGEN, NO","FM-15","4","30.50","41","45","","","","","87","BKN:07 18 OVC:08 79","","","7.00","","210","","33","","","","","","","","","","","","","","","","","","","","","","","","","","","","","","","","","","","","","","","","","","","","","","","","","","","","","","","","","","","","","","","","","","","","","","","","","","","","","","","","","","","","","","","","","","","MET058METAR ENDR 150910Z 21029KT 9999 BKN018 OVC080 07/05 Q1033;","","","","","","","","","",""
"01023199999","2007-12-15T13:10:00","64.35","7.8","0.0","DRAUGEN, NO","FM-15","4","30.47","41","45","","","","","87","BKN:07 17","","","7.00","","220","","34","","","","","","","","","","","","","","","","","","","","","","","","","","","","","","","","","","","","","","","","","","","","","","","","","","","","","","","","","","","","","","","","","","","","","","","","","","","","","","","","","","","","","","","","","","","MET051METAR ENDR 151210Z 22030KT 9999 BKN017 07/05 Q1032;","","","","","","","","","",""
"01023199999","2007-12-15T16:10:00","64.35","7.8","0.0","DRAUGEN, NO","FM-15","4","30.47","41","45","","","","","87","OVC:08 17","","","7.00","","220","","37","","","","","","","","","","","","","","","","","","","","","","","","","","","","","","","","","","","","","","","","","","","","","","","","","","","","","","","","","","","","","","","","","","","","","","","","","","","","","","","","","","","","","","","","","","","MET051METAR ENDR 151510Z 22032KT 9999 OVC017 07/05 Q1032;","","","","","","","","","",""
"01023199999","2007-12-16T07:10:00","64.35","7.8","0.0","DRAUGEN, NO","FM-15","4","30.47","39","45","","","","","81","OVC:08 21","","","7.00","","220","","43","","","","","","","","","","","","","","","","","","","","","","","","","","","","","","","","","","","","","","","","","","","","","","","","","","","","","","","","","","","","","","","","","","","","","","","","","","","","","","","","","","","","","","","","","","","MET051METAR ENDR 160610Z 22037KT 9999 OVC021 07/04 Q1032;","","","","","","","","","",""
"01023199999","2007-12-16T10:10:00","64.35","7.8","0.0","DRAUGEN, NO","FM-15","4","30.53","39","45","","","","","81","OVC:08 19","","","7.00","","220","","43","","","","","","","","","","","","","","","","","","","","","","","","","","","","","","","","","","","","","","","","","","","","","","","","","","","","","","","","","","","","","","","","","","","","","","","","","","","","","","","","","","","","","","","","","","","MET051METAR ENDR 160910Z 22037KT 9999 OVC019 07/04 Q1034;","","","","","","","","","",""
"01023199999","2007-12-16T13:10:00","64.35","7.8","0.0","DRAUGEN, NO","FM-15","4","30.53","39","45","","","","","81","OVC:08 20","","","7.00","","220","","40","","","","","","","","","","","","","","","","","","","","","","","","","","","","","","","","","","","","","","","","","","","","","","","","","","","","","","","","","","","","","","","","","","","","","","","","","","","","","","","","","","","","","","","","","","","MET051METAR ENDR 161210Z 22035KT 9999 OVC020 07/04 Q1034;","","","","","","","","","",""
"01023199999","2007-12-16T16:10:00","64.35","7.8","0.0","DRAUGEN, NO","FM-15","4","30.56","39","43","","","","","87","OVC:08 22","","","5.59","","220","","40","","","","","","","","","","","","","","","","","","","","","","","","","","","","","","","","","","","","","","","","","","","","","","","","","","","","","","","","","","","","","","","","","","","","","","","","","","","","","","","","","","","","","","","","","","","MET051METAR ENDR 161510Z 22035KT 9000 OVC022 06/04 Q1035;","","","","","","","","","",""
"01023199999","2007-12-17T07:10:00","64.35","7.8","0.0","DRAUGEN, NO","FM-15","4","30.65","39","45","","","","","81","FEW:02 17 OVC:08 36","","","7.00","","220","","34","","","","","","","","","","","","","","","","","","","","","","","","","","","","","","","","","","","","","","","","","","","","","","","","","","","","","","","","","","","","","","","","","","","","","","","","","","","","","","","","","","","","","","","","","","","MET058METAR ENDR 170610Z 22030KT 9999 FEW017 OVC037 07/04 Q1038;","","","","","","","","","",""
"01023199999","2007-12-17T10:10:00","64.35","7.8","0.0","DRAUGEN, NO","FM-15","4","30.68","41","45","","","","","87","OVC:08 14","","","7.00","","220","","33","","","","","","","","","","","","","","","","","","","","","","","","","","","","","","","","","","","","","","","","","","","","","","","","","","","","","","","","","","","","","","","","","","","","","","","","","","","","","","","","","","","","","","","","","","","MET051METAR ENDR 170910Z 22029KT 9999 OVC014 07/05 Q1039;","","","","","","","","","",""
"01023199999","2007-12-17T13:10:00","64.35","7.8","0.0","DRAUGEN, NO","FM-15","4","30.68","41","45","","","","","87","OVC:08 26","","","7.00","","220","","28","","","","","","","","","","","","","","","","","","","","","","","","","","","","","","","","","","","","","","","","","","","","","","","","","","","","","","","","","","","","","","","","","","","","","","","","","","","","","","","","","","","","","","","","","","","MET051METAR ENDR 171210Z 22024KT 9999 OVC026 07/05 Q1039;","","","","","","","","","",""
"01023199999","2007-12-17T16:10:00","64.35","7.8","0.0","DRAUGEN, NO","FM-15","4","30.71","37","46","","","","","71","OVC:08 25","","","7.00","","240","","28","","","","","","","","","","","","","","","","","","","","","","","","","","","","","","","","","","","","","","","","","","","","","","","","","","","","","","","","","","","","","","","","","","","","","","","","","","","","","","","","","","","","","","","","","","","MET051METAR ENDR 171510Z 24024KT 9999 OVC025 08/03 Q1040;","","","","","","","","","",""
"01023199999","2007-12-18T07:10:00","64.35","7.8","0.0","DRAUGEN, NO","FM-15","4","30.65","37","45","","","","","76","OVC:08 24","","","7.00","","240","","29","","","","","","","","","","","","","","","","","","","","","","","","","","","","","","","","","","","","","","","","","","","","","","","","","","","","","","","","","","","","","","","","","","","","","","","","","","","","","","","","","","","","","","","","","","","MET051METAR ENDR 180610Z 24025KT 9999 OVC024 07/03 Q1038;","","","","","","","","","",""
"01023199999","2007-12-18T10:10:00","64.35","7.8","0.0","DRAUGEN, NO","FM-15","4","30.65","37","45","","","","","76","OVC:08 18","","","7.00","","230","","25","","","","","","","","","","","","","","","","","","","","","","","","","","","","","","","","","","","","","","","","","","","","","","","","","","","","","","","","","","","","","","","","","","","","","","","","","","","","","","","","","","","","","","","","","","","MET059METAR ENDR 180910Z 23022KT 100V240 9999 OVC018 07/03 Q1038;","","","","","","","","","",""
"01023199999","2007-12-18T13:10:00","64.35","7.8","0.0","DRAUGEN, NO","FM-15","4","30.62","39","45","","","","","81","BKN:07 21","","","7.00","","220","","31","","","","","","","","","","","","","","","","","","","","","","","","","","","","","","","","","","","","","","","","","","","","","","","","","","","","","","","","","","","","","","","","","","","","","","","","","","","","","","","","","","","","","","","","","","","MET051METAR ENDR 181210Z 22027KT 9999 BKN021 07/04 Q1037;","","","","","","","","","",""
"01023199999","2007-12-18T16:10:00","64.35","7.8","0.0","DRAUGEN, NO","FM-15","4","30.56","39","43","","","","","87","BKN:07 15","","","7.00","","220","","33","","","","","","","","","","","","","","","","","","","","","","","","","","","","","","","","","","","","","","","","","","","","","","","","","","","","","","","","","","","","","","","","","","","","","","","","","","","","","","","","","","","","","","","","","","","MET051METAR ENDR 181510Z 22029KT 9999 BKN015 06/04 Q1035;","","","","","","","","","",""
"01023199999","2007-12-19T07:10:00","64.35","7.8","0.0","DRAUGEN, NO","FM-15","4","30.36","43","46","","","","","87","OVC:08 42","","","7.00","","230","","46","","","","","","","","","","","","","","","","","","","","","","","","","","","","","","","","","","","","","","","","","","","","","","","","","","","","","","","","","","","","","","","","","","","","","","","","","","","","","","","","","","","","","","","","","","","MET051METAR ENDR 190610Z 23040KT 9999 OVC043 08/06 Q1028;","","","","","","","","","",""
"01023199999","2007-12-19T10:10:00","64.35","7.8","0.0","DRAUGEN, NO","FM-15","4","30.33","43","46","","||FG","","","87","BKN:07 14 OVC:08 30","","","4.97","","240","","51","","","","","","","","","","","","","","","","","","","","","","","","","","","","","","","","","","","","","","","","","","","","","","","","","","","","","","","","","","","","","","","","","","","","","","","","","","","","","","","","","","","","","","","","","","","MET063METAR ENDR 190910Z 24044KT 8000 VCFG BKN014 OVC030 08/06 Q1027;","","","","","","","","","",""
"01023199999","2007-12-19T16:10:00","64.35","7.8","0.0","DRAUGEN, NO","FM-15","4","30.36","45","46","","||RA","","","93","BKN:07 9 OVC:08 32","","","0.93","","250","","47","","","","","","","","","","","","","","","","","","","","","","","","","","","","","","","","","","","","","","","","","","","","","","","","","","","","","","","","","","","","","","","","","","","","","","","","","","","","","","","","","","","","","","","","","","","MET062METAR ENDR 191510Z 25041KT 1500 -RA BKN009 OVC032 08/07 Q1028;","","","","","","","","","",""
"01023199999","2007-12-20T07:10:00","64.35","7.8","0.0","DRAUGEN, NO","FM-15","4","30.33","41","46","","","","","82","OVC:08 52","","","7.00","","240","","39","","","","","","","","","","","","","","","","","","","","","","","","","","","","","","","","","","","","","","","","","","","","","","","","","","","","","","","","","","","","","","","","","","","","","","","","","","","","","","","","","","","","","","","","","","","MET051METAR ENDR 200610Z 24034KT 9999 OVC053 08/05 Q1027;","","","","","","","","","",""
"01023199999","2007-12-20T10:20:00","64.35","7.8","0.0","DRAUGEN, NO","FM-15","4","30.33","41","46","","","","","82","FEW:02 19 OVC:08 47","","","7.00","","250","","41","","","","","","","","","","","","","","","","","","","","","","","","","","","","","","","","","","","","","","","","","","","","","","","","","","","","","","","","","","","","","","","","","","","","","","","","","","","","","","","","","","","","","","","","","","","MET058METAR ENDR 200920Z 25036KT 9999 FEW019 OVC048 08/05 Q1027;","","","","","","","","","",""
"01023199999","2007-12-20T13:10:00","64.35","7.8","0.0","DRAUGEN, NO","FM-15","4","30.30","39","46","","","","","76","OVC:08 56","","","7.00","","250","","43","","","","","","","","","","","","","","","","","","","","","","","","","","","","","","","","","","","","","","","","","","","","","","","","","","","","","","","","","","","","","","","","","","","","","","","","","","","","","","","","","","","","","","","","","","","MET051METAR ENDR 201210Z 25037KT 9999 OVC057 08/04 Q1026;","","","","","","","","","",""
"01023199999","2007-12-20T16:10:00","64.35","7.8","0.0","DRAUGEN, NO","FM-15","4","30.30","37","46","","","","","71","FEW:02 21 OVC:08 43","","","7.00","","250","","37","","","","","","","","","","","","","","","","","","","","","","","","","","","","","","","","","","","","","","","","","","","","","","","","","","","","","","","","","","","","","","","","","","","","","","","","","","","","","","","","","","","","","","","","","","","MET058METAR ENDR 201510Z 25032KT 9999 FEW021 OVC044 08/03 Q1026;","","","","","","","","","",""
"01023199999","2007-12-21T07:10:00","64.35","7.8","0.0","DRAUGEN, NO","FM-15","4","30.18","41","45","","||RA","","","87","OVC:08 32","","","7.00","","230","","33","","","","","","","","","","","","","","","","","","","","","","","","","","","","","","","","","","","","","","","","","","","","","","","","","","","","","","","","","","","","","","","","","","","","","","","","","","","","","","","","","","","","","","","","","","","MET055METAR ENDR 210610Z 23029KT 9999 -RA OVC033 07/05 Q1022;","","","","","","","","","",""
"01023199999","2007-12-21T10:10:00","64.35","7.8","0.0","DRAUGEN, NO","FM-15","4","30.12","43","45","","||FG","","","93","OVC:08 11","","","4.97","","230","","33","","","","","","","","","","","","","","","","","","","","","","","","","","","","","","","","","","","","","","","","","","","","","","","","","","","","","","","","","","","","","","","","","","","","","","","","","","","","","","","","","","","","","","","","","","","MET056METAR ENDR 210910Z 23029KT 8000 VCFG OVC011 07/06 Q1020;","","","","","","","","","",""
"01023199999","2007-12-21T13:10:00","64.35","7.8","0.0","DRAUGEN, NO","FM-15","4","30.12","39","45","","","","","81","SCT:04 20 BKN:07 43 BKN:07 84","","","7.00","","250","","36","","","","","","","","","","","","","","","","","","","","","","","","","","","","","","","","","","","","","","","","","","","","","","","","","","","","","","","","","","","","","","","","","","","","","","","","","","","","","","","","","","","","","","","","","","","MET070METAR ENDR 211210Z 25031KT 9999 VCSH SCT020 BKN044 BKN085 07/04 Q1020;","","","","","","","","","",""
"01023199999","2007-12-21T16:10:00","64.35","7.8","0.0","DRAUGEN, NO","FM-15","4","30.12","41","45","","","","","87","OVC:08 54","","","7.00","","250","","28","","","","","","","","","","","","","","","","","","","","","","","","","","","","","","","","","","","","","","","","","","","","","","","","","","","","","","","","","","","","","","","","","","","","","","","","","","","","","","","","","","","","","","","","","","","MET051METAR ENDR 211510Z 25024KT 9999 OVC055 07/05 Q1020;","","","","","","","","","",""
"01023199999","2007-12-22T07:10:00","64.35","7.8","0.0","DRAUGEN, NO","FM-15","4","30.03","41","45","","","","","87","SCT:04 13 OVC:08 83","","","7.00","","220","","23","","","","","","","","","","","","","","","","","","","","","","","","","","","","","","","","","","","","","","","","","","","","","","","","","","","","","","","","","","","","","","","","","","","","","","","","","","","","","","","","","","","","","","","","","","","MET058METAR ENDR 220610Z 22020KT 9999 SCT013 OVC084 07/05 Q1017;","","","","","","","","","",""
"01023199999","2007-12-22T10:10:00","64.35","7.8","0.0","DRAUGEN, NO","FM-15","4","30.00","39","43","","","","","87","BKN:07 16 OVC:08 102","","","7.00","","210","","22","","","","","","","","","","","","","","","","","","","","","","","","","","","","","","","","","","","","","","","","","","","","","","","","","","","","","","","","","","","","","","","","","","","","","","","","","","","","","","","","","","","","","","","","","","","MET058METAR ENDR 220910Z 21019KT 9999 BKN016 OVC104 06/04 Q1016;","","","","","","","","","",""
"01023199999","2007-12-22T13:10:00","64.35","7.8","0.0","DRAUGEN, NO","FM-15","4","29.97","36","43","","","","","76","SCT:04 20 BKN:07 143 BKN:07 167","","","7.00","","210","","24","","","","","","","","","","","","","","","","","","","","","","","","","","","","","","","","","","","","","","","","","","","","","","","","","","","","","","","","","","","","","","","","","","","","","","","","","","","","","","","","","","","","","","","","","","","MET065METAR ENDR 221210Z 21021KT 9999 SCT020 BKN145 BKN170 06/02 Q1015;","","","","","","","","","",""
"01023199999","2007-12-22T16:10:00","64.35","7.8","0.0","DRAUGEN, NO","FM-15","4","29.91","34","41","","","","","76","BKN:07 31","","","7.00","","230","","23","","","","","","","","","","","","","","","","","","","","","","","","","","","","","","","","","","","","","","","","","","","","","","","","","","","","","","","","","","","","","","","","","","","","","","","","","","","","","","","","","","","","","","","","","","","MET051METAR ENDR 221510Z 23020KT 9999 BKN031 05/01 Q1013;","","","","","","","","","",""
"01023199999","2007-12-23T07:10:00","64.35","7.8","0.0","DRAUGEN, NO","FM-15","4","29.77","39","43","","||RA","","","87","BKN:07 20","","","7.00","","260","","31","","","","","","","","","","","","","","","","","","","","","","","","","","","","","","","","","","","","","","","","","","","","","","","","","","","","","","","","","","","","","","","","","","","","","","","","","","","","","","","","","","","","","","","","","","","MET055METAR ENDR 230610Z 26027KT 9999 -RA BKN020 06/04 Q1008;","","","","","","","","","",""
"01023199999","2007-12-23T10:10:00","64.35","7.8","0.0","DRAUGEN, NO","FM-15","4","29.83","36","45","","","","","71","FEW:02 24 SCT:04 29 BKN:07 192","","","7.00","","220","","29","","","","","","","","","","","","","","","","","","","","","","","","","","","","","","","","","","","","","","","","","","","","","","","","","","","","","","","","","","","","","","","","","","","","","","","","","","","","","","","","","","","","","","","","","","","MET073METAR ENDR 230910Z 22025KT 9999 VCSH FEW024TCU SCT029 BKN195 07/02 Q1010;","","","","","","","","","",""
"01023199999","2007-12-23T13:10:00","64.35","7.8","0.0","DRAUGEN, NO","FM-15","4","29.77","39","45","","","","","81","BKN:07 15","","","7.00","","210","","40","","","","","","","","","","","","","","","","","","","","","","","","","","","","","","","","","","","","","","","","","","","","","","","","","","","","","","","","","","","","","","","","","","","","","","","","","","","","","","","","","","","","","","","","","","","MET056METAR ENDR 231210Z 21035KT 9999 VCSH BKN015 07/04 Q1008;","","","","","","","","","",""
"01023199999","2007-12-23T16:20:00","64.35","7.8","0.0","DRAUGEN, NO","FM-15","4","29.65","36","45","","","","","71","BKN:07 29 BKN:07 106","","","7.00","","210","","57","","","","","","","","","","","","","","","","","","","","","","","","","","","","","","","","","","","","","","","","","","","","","","","","","","","","","","","","","","","","","","","","","","","","","","","","","","","","","","","","","","","","","","","","","","","MET058METAR ENDR 231520Z 21050KT 9999 BKN029 BKN108 07/02 Q1004;","","","","","","","","","",""
"01023199999","2007-12-24T07:10:00","64.35","7.8","0.0","DRAUGEN, NO","FM-15","4","29.23","41","45","","||RA","","","87","BKN:07 19","","","1.55","","210","86","74","","","","","","","","","","","","","","","","","","","","","","","","","","","","","","","","","","","","","","","","","","","","","","","","","","","","","","","","","","","","","","","","","","","","","","","","","","","","","","","","","","","","","","","","","","","MET058METAR ENDR 240610Z 21064G75KT 2500 -RA BKN019 07/05 Q0990;","","","","","","","","","",""
"01023199999","2007-12-24T10:10:00","64.35","7.8","0.0","DRAUGEN, NO","FM-15","4","29.35","39","43","","||RA","","","87","SCT:04 13 OVC:08 38","","","3.11","","210","","45","","","","","","","","","","","","","","","","","","","","","","","","","","","","","","","","","","","","","","","","","","","","","","","","","","","","","","","","","","","","","","","","","","","","","","","","","","","","","","","","","","","","","","","","","","","MET062METAR ENDR 240910Z 21039KT 5000 -RA SCT013 OVC039 06/04 Q0994;","","","","","","","","","",""
"01023199999","2007-12-24T13:10:00","64.35","7.8","0.0","DRAUGEN, NO","FM-15","4","29.41","39","41","","||RA","","","93","FEW:02 12 BKN:07 31","","","7.00","","220","","26","","","","","","","","","","","","","","","","","","","","","","","","","","","","","","","","","","","","","","","","","","","","","","","","","","","","","","","","","","","","","","","","","","","","","","","","","","","","","","","","","","","","","","","","","","","MET062METAR ENDR 241210Z 22023KT 9999 -RA FEW012 BKN031 05/04 Q0996;","","","","","","","","","",""
"01023199999","2007-12-25T10:10:00","64.35","7.8","0.0","DRAUGEN, NO","FM-15","4","29.83","27","39","","","","","61","BKN:07 38","","","7.00","","250","","14","","","","","","","","","","","","","","","","","","","","","","","","","","","","","","","","","","","","","","","","","","","","","","","","","","","","","","","","","","","","","","","","","","","","","","","","","","","","","","","","","","","","","","","","","","","MET057METAR ENDR 250910Z 25012KT 9999 VCSH BKN039 04/M03 Q1010;","","","","","","","","","",""
"01023199999","2007-12-25T13:10:00","64.35","7.8","0.0","DRAUGEN, NO","FM-15","4","29.80","30","41","","","","","66","SCT:04 35 BKN:07 118","","","7.00","","200","","15","","","","","","","","","","","","","","","","","","","","","","","","","","","","","","","","","","","","","","","","","","","","","","","","","","","","","","","","","","","","","","","","","","","","","","","","","","","","","","","","","","","","","","","","","","","MET064METAR ENDR 251210Z 20013KT 9999 VCSH SCT036 BKN120 05/M01 Q1009;","","","","","","","","","",""
"01023199999","2007-12-25T16:10:00","64.35","7.8","0.0","DRAUGEN, NO","FM-15","4","29.74","34","41","","","","","76","FEW:02 22 SCT:04 26 BKN:07 118","","","7.00","","170","","23","","","","","","","","","","","","","","","","","","","","","","","","","","","","","","","","","","","","","","","","","","","","","","","","","","","","","","","","","","","","","","","","","","","","","","","","","","","","","","","","","","","","","","","","","","","MET065METAR ENDR 251510Z 17020KT 9999 FEW022 SCT026 BKN120 05/01 Q1007;","","","","","","","","","",""
"01023199999","2007-12-26T07:10:00","64.35","7.8","0.0","DRAUGEN, NO","FM-15","4","29.29","30","41","","","","","66","FEW:02 30","","","7.00","","200","","19","","","","","","","","","","","","","","","","","","","","","","","","","","","","","","","","","","","","","","","","","","","","","","","","","","","","","","","","","","","","","","","","","","","","","","","","","","","","","","","","","","","","","","","","","","","MET052METAR ENDR 260610Z 20017KT 9999 FEW030 05/M01 Q0992;","","","","","","","","","",""
"01023199999","2007-12-26T10:10:00","64.35","7.8","0.0","DRAUGEN, NO","FM-15","4","29.26","34","41","","||RA","","","76","OVC:08 31","","","7.00","","180","","43","","","","","","","","","","","","","","","","","","","","","","","","","","","","","","","","","","","","","","","","","","","","","","","","","","","","","","","","","","","","","","","","","","","","","","","","","","","","","","","","","","","","","","","","","","","MET060METAR ENDR 260910Z 18037KT 9999 -RA VCSH OVC031 05/01 Q0991;","","","","","","","","","",""
"01023199999","2007-12-26T16:10:00","64.35","7.8","0.0","DRAUGEN, NO","FM-15","4","29.35","37","41","","||RA","","","87","OVC:08 20","","","4.35","","230","","36","","","","","","","","","","","","","","","","","","","","","","","","","","","","","","","","","","","","","","","","","","","","","","","","","","","","","","","","","","","","","","","","","","","","","","","","","","","","","","","","","","","","","","","","","","","MET060METAR ENDR 261510Z 23031KT 7000 -RA VCSH OVC020 05/03 Q0994;","","","","","","","","","",""
"01023199999","2007-12-27T07:10:00","64.35","7.8","0.0","DRAUGEN, NO","FM-15","4","29.23","43","48","","","","","82","FEW:02 22 OVC:08 56","","","7.00","","200","","47","","","","","","","","","","","","","","","","","","","","","","","","","","","","","","","","","","","","","","","","","","","","","","","","","","","","","","","","","","","","","","","","","","","","","","","","","","","","","","","","","","","","","","","","","","","MET058METAR ENDR 270610Z 20041KT 9999 FEW022 OVC057 09/06 Q0990;","","","","","","","","","",""
"01023199999","2007-12-27T10:10:00","64.35","7.8","0.0","DRAUGEN, NO","FM-15","4","29.18","39","50","","","","","67","BKN:07 40 OVC:08 72","","","7.00","","190","","54","","","","","","","","","","","","","","","","","","","","","","","","","","","","","","","","","","","","","","","","","","","","","","","","","","","","","","","","","","","","","","","","","","","","","","","","","","","","","","","","","","","","","","","","","","","MET058METAR ENDR 270910Z 19047KT 9999 BKN041 OVC073 10/04 Q0988;","","","","","","","","","",""
"01023199999","2007-12-27T16:40:00","64.35","7.8","0.0","DRAUGEN, NO","FM-15","4","29.12","41","43","","||RA","","","93","FEW:02 11 OVC:08 25","","","3.11","","210","","30","","","","","","","","","","","","","","","","","","","","","","","","","","","","","","","","","","","","","","","","","","","","","","","","","","","","","","","","","","","","","","","","","","","","","","","","","","","","","","","","","","","","","","","","","","","MET062METAR ENDR 271540Z 21026KT 5000 +RA FEW011 OVC025 06/05 Q0986;","","","","","","","","","",""
"01023199999","2007-12-28T07:10:00","64.35","7.8","0.0","DRAUGEN, NO","FM-15","4","29.21","32","39","","","","","75","BKN:07 25","","","7.00","","250","","53","","","","","","","","","","","","","","","","","","","","","","","","","","","","","","","","","","","","","","","","","","","","","","","","","","","","","","","","","","","","","","","","","","","","","","","","","","","","","","","","","","","","","","","","","","","MET051METAR ENDR 280610Z 25046KT 9999 BKN025 04/00 Q0989;","","","","","","","","","",""
"01023199999","2007-12-28T10:10:00","64.35","7.8","0.0","DRAUGEN, NO","FM-15","4","29.29","28","39","","","","","65","FEW:02 15 SCT:04 30 BKN:07 49","","","7.00","","250","","52","","","","","","","","","","","","","","","","","","","","","","","","","","","","","","","","","","","","","","","","","","","","","","","","","","","","","","","","","","","","","","","","","","","","","","","","","","","","","","","","","","","","","","","","","","","MET073METAR ENDR 280910Z 25045KT 9999 VCSH FEW015CB SCT030 BKN050 04/M02 Q0992;","","","","","","","","","",""
"01023199999","2007-12-28T13:10:00","64.35","7.8","0.0","DRAUGEN, NO","FM-15","4","29.32","25","41","","","","","53","FEW:02 10 BKN:07 39","","","7.00","","250","","47","","","","","","","","","","","","","","","","","","","","","","","","","","","","","","","","","","","","","","","","","","","","","","","","","","","","","","","","","","","","","","","","","","","","","","","","","","","","","","","","","","","","","","","","","","","MET066METAR ENDR 281210Z 25041KT 9999 VCSH FEW010CB BKN040 05/M04 Q0993;","","","","","","","","","",""
"01023199999","2007-12-28T16:10:00","64.35","7.8","0.0","DRAUGEN, NO","FM-15","4","29.32","34","39","","","","","81","FEW:02 12 BKN:07 25","","","7.00","","250","","41","","","","","","","","","","","","","","","","","","","","","","","","","","","","","","","","","","","","","","","","","","","","","","","","","","","","","","","","","","","","","","","","","","","","","","","","","","","","","","","","","","","","","","","","","","","MET058METAR ENDR 281510Z 25036KT 9999 FEW012 BKN025 04/01 Q0993;","","","","","","","","","",""
"01023199999","2007-12-29T07:10:00","64.35","7.8","0.0","DRAUGEN, NO","FM-15","4","29.26","27","39","","","","","61","FEW:02 32","","","7.00","","230","","16","","","","","","","","","","","","","","","","","","","","","","","","","","","","","","","","","","","","","","","","","","","","","","","","","","","","","","","","","","","","","","","","","","","","","","","","","","","","","","","","","","","","","","","","","","","MET052METAR ENDR 290610Z 23014KT 9999 FEW032 04/M03 Q0991;","","","","","","","","","",""
"01023199999","2007-12-29T10:10:00","64.35","7.8","0.0","DRAUGEN, NO","FM-15","4","29.23","28","39","","","","","65","FEW:02 10 SCT:04 30","","","7.00","","210","","8","","","","","","","","","","","","","","","","","","","","","","","","","","","","","","","","","","","","","","","","","","","","","","","","","","","","","","","","","","","","","","","","","","","","","","","","","","","","","","","","","","","","","","","","","","","MET059METAR ENDR 290910Z 21007KT 9999 FEW010 SCT030 04/M02 Q0990;","","","","","","","","","",""
"01023199999","2007-12-29T13:20:00","64.35","7.8","0.0","DRAUGEN, NO","FM-15","4","29.21","32","39","","","","","75","FEW:02 10","","","7.00","","280","","8","","","","","","","","","","","","","","","","","","","","","","","","","","","","","","","","","","","","","","","","","","","","","","","","","","","","","","","","","","","","","","","","","","","","","","","","","","","","","","","","","","","","","","","","","","","MET056METAR ENDR 291220Z 28007KT 9999 VCSH FEW010 04/00 Q0989;","","","","","","","","","",""
"01023199999","2007-12-30T13:00:00","64.35","7.8","0.0","DRAUGEN, NO","FM-15","4","29.68","36","41","","||SHRA","","","81","BKN:07 17 BKN:07 49","","","7.00","","310","","53","","","","","","","","","","","","","","","","","","","","","","","","","","","","","","","","","","","","","","","","","","","","","","","","","","","","","","","","","","","","","","","","","","","","","","","","","","","","","","","","","","","","","","","","","","","MET065METAR ENDR 301200Z 31046KT 9999 SHRA BKN017CB BKN050 05/02 Q1005;","","","","","","","","","",""
